Name,Address,prktype,restroom,Website,playground,soccer,basketball,tennis,volleyball,baseball,discgolf,dogpark,picnic,sprayground,latitude,longitude
Arbor Glen Outreach Center,"1520 CLANTON RD CHARLOTTE, NC 28217",Recreation Center,Yes,https://www.mecknc.gov/parkandrec/pages/home.aspx?redirect=charmeck,NA,NA,NA,NA,NA,NA,NA,NA,NA,NA,35.20662524,-80.89361304
Sunset Hills Golf Course,"800 RADIO RD CHARLOTTE, NC 28216",Golf Course,Yes,https://www.mecknc.gov/parkandrec/pages/home.aspx?redirect=charmeck,NA,NA,NA,NA,NA,NA,NA,NA,NA,NA,35.30507558,-80.88664229
Buckeye Cove Nature Preserve,"5901 STEPHENS RD HUNTERSVILLE, NC 28078",Nature Preserve,No,https://www.mecknc.gov/parkandrec/pages/home.aspx?redirect=charmeck,NA,NA,NA,NA,NA,NA,NA,NA,NA,NA,35.40129442,-80.93767221
West Charlotte Recreation Center,"2401 KENDALL DR CHARLOTTE, NC 28216",Recreation Center,Yes,https://www.mecknc.gov/parkandrec/pages/home.aspx?redirect=charmeck,NA,NA,Yes,NA,NA,NA,NA,NA,NA,NA,35.26860158,-80.85669272
Romare Bearden Park,"300 S CHURCH ST CHARLOTTE, NC 28202",Neighborhood,Yes,https://www.mecknc.gov/parkandrec/pages/home.aspx?redirect=charmeck,NA,NA,NA,NA,NA,NA,NA,NA,NA,Yes,35.22658338,-80.84650174
Cook Park,"15010 ERVIN COOK RD HUNTERSVILLE, NC 28078",Town Park,No,https://www.huntersville.org/162/Parks-Recreation,NA,NA,NA,NA,NA,NA,NA,NA,NA,NA,35.41866437,-80.8970925
Kirk Farm Fields Park,"201 E MALLARD CREEK CHURCH RD CHARLOTTE, NC 28262",Community,No,https://www.mecknc.gov/parkandrec/pages/home.aspx?redirect=charmeck,NA,NA,NA,NA,NA,NA,NA,NA,NA,NA,35.32143917,-80.73391675
West Mecklenburg Park,"2765 WESTERWOOD VILLAGE DR. CHARLOTTE, NC 28214",Neighborhood,No,https://www.mecknc.gov/parkandrec/pages/home.aspx?redirect=charmeck,NA,NA,NA,NA,NA,Yes,NA,NA,NA,NA,35.25026376,-80.95477681
West Branch Nature Preserve,"17439 SUMMERS WALK BV DAVIDSON, NC 28036",Nature Preserve,No,https://www.mecknc.gov/parkandrec/pages/home.aspx?redirect=charmeck,NA,NA,NA,NA,NA,NA,NA,NA,NA,NA,35.4524033,-80.77335738
Smallwood Community Garden,"2625 ROSLYN AV CHARLOTTE, NC 28208",Community Garden,No,https://www.mecknc.gov/parkandrec/pages/home.aspx?redirect=charmeck,NA,NA,NA,NA,NA,NA,NA,NA,NA,NA,35.24882698,-80.86679447
Eastover Park,"2730 RANDOLPH RD CHARLOTTE, NC 28207",Neighborhood,No,https://www.mecknc.gov/parkandrec/pages/home.aspx?redirect=charmeck,NA,NA,NA,NA,NA,NA,NA,NA,NA,NA,35.20038161,-80.8139674
Harry L. Jones Sr. Golf Course,"1525 W TYVOLA RD CHARLOTTE, NC 28217",Golf Course,Yes,https://www.mecknc.gov/parkandrec/pages/home.aspx?redirect=charmeck,NA,NA,NA,NA,NA,NA,NA,NA,NA,NA,35.17408564,-80.90935868
Springfield Park,"6700 DEANWOOD PL CHARLOTTE, NC 28217",Neighborhood,No,https://www.mecknc.gov/parkandrec/pages/home.aspx?redirect=charmeck,NA,NA,Yes,NA,NA,NA,NA,NA,Yes,NA,35.15988887,-80.90336687
Yorkmont Park,"6417 VICKERS RD CHARLOTTE, NC 28217",Neighborhood,No,https://www.mecknc.gov/parkandrec/pages/home.aspx?redirect=charmeck,NA,NA,NA,NA,NA,NA,NA,NA,NA,NA,35.16467421,-80.90185026
Southwest Park,"1729 VILMA ST CHARLOTTE, NC 28203",Community,Yes,https://www.mecknc.gov/parkandrec/pages/home.aspx?redirect=charmeck,NA,NA,NA,NA,NA,Yes,NA,NA,NA,NA,35.21006434,-80.91727839
The Effortless Golf Center,"10401 CADILLAC ST PINEVILLE, NC 28134",Golf Course,Yes,https://www.mecknc.gov/parkandrec/pages/home.aspx?redirect=charmeck,NA,NA,NA,NA,NA,NA,NA,NA,NA,NA,35.09763006,-80.88168673
McDowell Nature Center,"15222 YORK RD CHARLOTTE, NC 28278",Nature Center,Yes,https://www.mecknc.gov/parkandrec/pages/home.aspx?redirect=charmeck,NA,NA,NA,NA,NA,NA,NA,NA,NA,NA,35.0940642,-81.02271453
Berewick Recreation Center,"5910 DIXIE RIVER RD CHARLOTTE, NC 28208",Recreation Center,Yes,https://www.mecknc.gov/parkandrec/pages/home.aspx?redirect=charmeck,NA,NA,NA,NA,NA,NA,NA,NA,NA,NA,35.17301374,-80.97826919
Town Green Park,"232 MATTHEWS STATION ST MATTHEWS, NC 28105",Town Park,No,https://www.matthewsnc.gov/pview.aspx?id=20727&catid=0,NA,NA,NA,NA,NA,NA,NA,NA,NA,NA,35.11650581,-80.71868113
Marmac Road Park,"6602 TUCKASEEGEE RD CHARLOTTE, NC 28266",Community,No,https://www.mecknc.gov/parkandrec/pages/home.aspx?redirect=charmeck,NA,NA,NA,NA,NA,NA,NA,NA,NA,NA,35.24538542,-80.93580206
T.M. Winget Recreation Center,"12235 WINGET RD CHARLOTTE, NC 28278",Recreation Center,Yes,https://www.mecknc.gov/parkandrec/pages/home.aspx?redirect=charmeck,NA,NA,NA,NA,NA,NA,NA,NA,NA,NA,35.12931288,-81.00067831
Melody Park,"10832 KEMPSFORD DR CHARLOTTE, NC 28262",Community,No,https://www.mecknc.gov/parkandrec/pages/home.aspx?redirect=charmeck,NA,NA,NA,NA,NA,NA,NA,NA,NA,NA,35.32608428,-80.7070311
Country Club Heights Community Garden,"2909 DUNLAVIN WY CHARLOTTE, NC 28205",Community Garden,No,https://www.mecknc.gov/parkandrec/pages/home.aspx?redirect=charmeck,NA,NA,NA,NA,NA,NA,NA,NA,NA,NA,35.23041216,-80.78076733
Latta Recreation Center,"510 E PARK AV CHARLOTTE, NC 28203",Recreation Center,Yes,https://www.mecknc.gov/parkandrec/pages/home.aspx?redirect=charmeck,NA,NA,NA,NA,NA,NA,NA,NA,NA,NA,35.21072009,-80.85177615
Abersham Park,"22031 SHEARER RD DAVIDSON, NC 28036",Town Park,No,https://www.ci.davidson.nc.us/130/Parks-Recreation,NA,NA,NA,NA,NA,NA,NA,NA,NA,NA,35.50550537,-80.79460561
Little Sugar Creek Community Garden,"1319 N ALEXANDER ST CHARLOTTE, NC 28206",Community Garden,No,https://www.mecknc.gov/parkandrec/pages/home.aspx?redirect=charmeck,NA,NA,NA,NA,NA,NA,NA,NA,NA,NA,35.23239923,-80.82260346
Flat Branch Nature Preserve,"11833 TOM SHORT RD CHARLOTTE, NC 28277",Nature Preserve,Yes,https://www.mecknc.gov/parkandrec/pages/home.aspx?redirect=charmeck,NA,NA,NA,NA,NA,NA,NA,NA,NA,NA,35.0471086,-80.79338585
McDowell Creek Park,"8233 GILEAD RD HUNTERSVILLE, NC 28078",Neighborhood,No,https://www.mecknc.gov/parkandrec/pages/home.aspx?redirect=charmeck,NA,NA,NA,NA,NA,NA,NA,NA,NA,NA,35.40693316,-80.88652581
Reedy Creek Nature Center,"2986 ROCKY RIVER RD CHARLOTTE, NC 28215",Nature Center,Yes,https://www.mecknc.gov/parkandrec/pages/home.aspx?redirect=charmeck,NA,NA,NA,NA,NA,NA,NA,NA,NA,NA,35.27651176,-80.71708421
Marion Diehl Park,"2219 TYVOLA RD CHARLOTTE, NC 28210",Community,Yes,https://www.mecknc.gov/parkandrec/pages/home.aspx?redirect=charmeck,NA,NA,NA,Yes,NA,NA,NA,NA,Yes,NA,35.15933804,-80.85887437
Lake Davidson Nature Preserve,"750 JETTON ST DAVIDSON, NC 28036",Nature Preserve,No,https://www.ci.davidson.nc.us/130/Parks-Recreation,NA,NA,NA,NA,NA,NA,NA,NA,NA,NA,35.50329555,-80.86128925
North & South Lawn Park,"185 HARPER LEE ST DAVIDSON, NC 28036",Town Park,No,https://www.ci.davidson.nc.us/130/Parks-Recreation,NA,NA,NA,NA,NA,NA,NA,NA,NA,NA,35.49619625,-80.83079953
Caldwell Green Tot Lot,"320 CALDWELL LN DAVIDSON, NC 28036",Town Park,No,https://www.ci.davidson.nc.us/130/Parks-Recreation,NA,NA,NA,NA,NA,NA,NA,NA,Yes,NA,35.49320764,-80.83246687
Faulkner Square Park,"266 CONROY AV DAVIDSON, NC 28036",Town Park,No,https://www.ci.davidson.nc.us/130/Parks-Recreation,NA,NA,NA,NA,NA,NA,NA,NA,NA,NA,35.49515303,-80.83317917
Southview Recreation Center,"1720 VILMA ST CHARLOTTE, NC 28208",Recreation Center,Yes,https://www.mecknc.gov/parkandrec/pages/home.aspx?redirect=charmeck,NA,NA,NA,NA,NA,NA,NA,NA,NA,NA,35.21003793,-80.91713929
Fisher Farm Park,"21135 FISHER RD DAVIDSON, NC 28036",Town Park,No,https://www.ci.davidson.nc.us/130/Parks-Recreation,NA,NA,NA,NA,NA,NA,NA,NA,NA,NA,35.49451419,-80.79666615
McAlpine Creek Community Garden,"399 HOLLY LN CHARLOTTE, NC 28212",Community Garden,No,https://www.mecknc.gov/parkandrec/pages/home.aspx?redirect=charmeck,NA,NA,NA,NA,NA,NA,NA,NA,NA,NA,35.13608369,-80.77062433
Oehler Nature Preserve,"14511 HUNTERSVILLE-CONCORD RD CHARLOTTE, NC 28078",Nature Preserve,No,https://www.mecknc.gov/parkandrec/pages/home.aspx?redirect=charmeck,NA,NA,NA,NA,NA,NA,NA,NA,NA,NA,35.41471118,-80.80149041
Jetton Road Neighborhood Park,"16000 JETTON RD CORNELIUS, NC 28031",Town Park,No,https://www.cornelius.org/103/Parks-Arts-Recreation-Culture,NA,NA,NA,NA,NA,NA,NA,NA,Yes,NA,35.47450886,-80.94032611
Park Road Tennis Center,"6215 PARK RD CHARLOTTE, NC 28210",Tennis Center,Yes,https://www.mecknc.gov/parkandrec/pages/home.aspx?redirect=charmeck,NA,NA,NA,Yes,NA,NA,NA,NA,Yes,NA,35.14408281,-80.8499492
Abersham Park,"3314 GREY RD DAVIDSON, NC 28036",Town Park,No,https://www.ci.davidson.nc.us/130/Parks-Recreation,NA,NA,NA,NA,NA,NA,NA,NA,NA,NA,35.50600937,-80.80388954
Randolph Road Park,"201 BILLINGSLEY RD CHARLOTTE, NC 28205",Community,Yes,https://www.mecknc.gov/parkandrec/pages/home.aspx?redirect=charmeck,NA,NA,NA,NA,NA,Yes,NA,NA,NA,NA,35.19060359,-80.80903629
Renaissance Park,"1536 W TYVOLA RD CHARLOTTE, NC 28217",Regional,Yes,https://www.mecknc.gov/parkandrec/pages/home.aspx?redirect=charmeck,NA,NA,NA,NA,Yes,Yes,Yes,Yes,NA,NA,35.17509986,-80.90967776
Rural Hill Nature Preserve,"4431 NECK RD HUNTERSVILLE, NC 28078",Nature Preserve,Yes,https://www.mecknc.gov/parkandrec/pages/home.aspx?redirect=charmeck,NA,NA,NA,NA,NA,NA,NA,NA,NA,NA,35.38395286,-80.94478325
Bette Rae Thomas Recreation Center,"2921 TUCKASEEGEE RD CHARLOTTE, NC 28208",Recreation Center,Yes,https://www.mecknc.gov/parkandrec/pages/home.aspx?redirect=charmeck,NA,NA,NA,NA,NA,NA,NA,NA,Yes,NA,35.24166013,-80.87713869
Biddleville Park,"500 ANDRILL TR CHARLOTTE, NC 28216",Neighborhood,No,https://www.mecknc.gov/parkandrec/pages/home.aspx?redirect=charmeck,NA,NA,Yes,NA,NA,Yes,NA,NA,NA,NA,35.24343061,-80.85031121
McEver Athletic Field,"626 SOUTH ST DAVIDSON, NC 28036",Town Park,Yes,https://www.ci.davidson.nc.us/130/Parks-Recreation,NA,NA,NA,NA,NA,Yes,NA,NA,Yes,NA,35.49103251,-80.84933584
Albemarle Road Park,"9120 E W T HARRIS BV CHARLOTTE, NC 28227",Community,No,https://www.mecknc.gov/parkandrec/pages/home.aspx?redirect=charmeck,NA,NA,NA,NA,NA,NA,NA,NA,NA,NA,35.19660369,-80.72652855
Latta Nature Preserve,"5226 SAMPLE RD HUNTERSVILLE, NC 28216",Nature Preserve,Yes,https://www.mecknc.gov/parkandrec/pages/home.aspx?redirect=charmeck,NA,NA,NA,NA,Yes,NA,NA,NA,NA,NA,35.35302632,-80.92903946
Tradition Golf Course,"3800 PROSPERITY CHURCH RD CHARLOTTE, NC 28269",Golf Course,Yes,https://www.mecknc.gov/parkandrec/pages/home.aspx?redirect=charmeck,NA,NA,NA,NA,NA,NA,NA,NA,NA,NA,35.34970078,-80.7750777
Back Creek Park,"3343 BACK CREEK CHURCH RD CHARLOTTE, NC 28213",Regional,No,https://www.mecknc.gov/parkandrec/pages/home.aspx?redirect=charmeck,NA,NA,NA,NA,NA,NA,NA,NA,NA,NA,35.29080748,-80.70271913
Sugaw Creek Recreation Center,"943 W SUGAR CREEK RD CHARLOTTE, NC 28213",Recreation Center,Yes,https://www.mecknc.gov/parkandrec/pages/home.aspx?redirect=charmeck,NA,NA,NA,NA,NA,NA,NA,NA,NA,NA,35.27306558,-80.79372161
Reedy Creek Nature Preserve,"2900 ROCKY RIVER RD CHARLOTTE, NC 28215",Nature Preserve,Yes,https://www.mecknc.gov/parkandrec/pages/home.aspx?redirect=charmeck,NA,NA,NA,NA,NA,NA,NA,NA,NA,NA,35.27599468,-80.71807255
Quest at Latta Nature Preserve,"6345 SAMPLE RD CHARLOTTE, NC 28078",Nature Center,Yes,https://www.mecknc.gov/parkandrec/pages/home.aspx?redirect=charmeck,NA,NA,NA,NA,NA,NA,NA,NA,NA,NA,35.35226761,-80.91542966
McIlwaine Park,"8101 MCILWAINE RD HUNTERSVILLE, NC 28078",Regional,No,https://www.mecknc.gov/parkandrec/pages/home.aspx?redirect=charmeck,NA,NA,NA,NA,NA,NA,NA,NA,NA,NA,35.39311069,-80.89820843
Rozzelles Ferry Nature Preserve,"11840 MOUNTAIN ISLAND BROOK LN CHARLOTTE, NC 28214",Nature Preserve,No,https://www.mecknc.gov/parkandrec/pages/home.aspx?redirect=charmeck,NA,NA,NA,NA,NA,NA,NA,NA,NA,NA,35.3470849,-80.96861102
Purser-Hulsey Park,"3024 MATTHEWS-MINT HILL RD MATTHEWS, NC 28105",Town Park,No,https://www.mecknc.gov/parkandrec/pages/home.aspx?redirect=charmeck,NA,NA,NA,NA,NA,NA,NA,Yes,NA,NA,35.13201412,-80.68446016
Wallace Pruitt Recreation Center,"501 S BRUNS AV CHARLOTTE, NC 28208",Recreation Center,Yes,https://www.mecknc.gov/parkandrec/pages/home.aspx?redirect=charmeck,NA,NA,NA,NA,NA,NA,NA,NA,NA,NA,35.23940231,-80.86523546
Fairview Road Park,"10601 FAIRVIEW RD CHARLOTTE, NC 28227",Regional,No,https://www.mecknc.gov/parkandrec/pages/home.aspx?redirect=charmeck,NA,NA,NA,NA,NA,NA,NA,NA,NA,NA,35.17110229,-80.60516923
Stevens Creek Nature Preserve,"15700 THOMPSON RD MINT HILL, NC 28227",Nature Preserve,No,https://www.mecknc.gov/parkandrec/pages/home.aspx?redirect=charmeck,NA,NA,NA,NA,NA,NA,NA,NA,NA,NA,35.14729133,-80.64657409
David B. Waymer Recreation & Senior Center,"14008 HOLBROOKS RD HUNTERSVILLE, NC 28078",Recreation Center,Yes,https://www.huntersville.org/162/Parks-Recreation,NA,NA,NA,NA,NA,NA,NA,NA,NA,NA,35.39905538,-80.83567993
Greene Street Park,"5612 GREENE ST CHARLOTTE, NC 28269",Neighborhood,No,https://www.mecknc.gov/parkandrec/pages/home.aspx?redirect=charmeck,NA,NA,NA,NA,NA,NA,NA,NA,NA,NA,35.30837498,-80.8088525
Providence Nature Preserve,"2710 PEVERELL LN CHARLOTTE, NC 28270",Nature Preserve,No,https://www.mecknc.gov/parkandrec/pages/home.aspx?redirect=charmeck,NA,NA,NA,NA,NA,NA,NA,NA,NA,NA,35.09445484,-80.75624172
Hawthorne Recreation Center,"345 HAWTHORNE LN CHARLOTTE, NC 28204",Recreation Center,Yes,https://www.mecknc.gov/parkandrec/pages/home.aspx?redirect=charmeck,NA,NA,NA,NA,NA,NA,NA,NA,NA,NA,35.21455032,-80.82370326
McDowell Arts Center,"123 E MCDOWELL ST MATTHEWS, NC 28105",Arts Center,Yes,https://www.matthewsnc.gov/pview.aspx?id=20727&catid=0,NA,NA,NA,NA,NA,NA,NA,NA,NA,NA,35.11438561,-80.72448488
Oak Hills Park,"4120 OAKDALE RD CHARLOTTE, NC 28216",Regional,No,https://www.mecknc.gov/parkandrec/pages/home.aspx?redirect=charmeck,NA,NA,NA,NA,NA,NA,NA,NA,NA,NA,35.32783378,-80.90875969
Hickory Grove Recreation Center,"6709 PENCE RD CHARLOTTE, NC 28215",Recreation Center,Yes,https://www.mecknc.gov/parkandrec/pages/home.aspx?redirect=charmeck,NA,NA,NA,NA,NA,NA,NA,NA,NA,NA,35.2256973,-80.71739136
Capps Park,"17501 MCKEE RD CHARLOTTE, NC 28278",Community,No,https://www.mecknc.gov/parkandrec/pages/home.aspx?redirect=charmeck,NA,NA,NA,NA,NA,NA,NA,NA,NA,NA,35.06303068,-81.0191831
Harrisburg Road Park,"7701 HARRISBURG RD CHARLOTTE, NC 28215",Neighborhood,No,https://www.mecknc.gov/parkandrec/pages/home.aspx?redirect=charmeck,NA,NA,Yes,NA,NA,NA,NA,NA,NA,NA,35.21996369,-80.68624422
Auten Nature Preserve,"5201 NECK RD HUNTERSVILLE, NC 28078",Nature Preserve,No,https://www.mecknc.gov/parkandrec/pages/home.aspx?redirect=charmeck,NA,NA,NA,NA,NA,NA,NA,NA,NA,NA,35.3795315,-80.93741899
Teddington Park,"5517 FREEDOM DR CHARLOTTE, NC 28214",Neighborhood,No,https://www.mecknc.gov/parkandrec/pages/home.aspx?redirect=charmeck,NA,NA,NA,NA,NA,NA,NA,NA,NA,NA,35.26721664,-80.93066523
Beaver Dam Historic Park and House,"19600 DAVIDSON-CONCORD RD DAVIDSON, NC 28036",Historic,Yes,https://www.ci.davidson.nc.us/130/Parks-Recreation,NA,NA,NA,NA,NA,NA,NA,NA,NA,NA,35.47487085,-80.81799741
Merry Oaks Park,"1806 MERRY OAKS RD CHARLOTTE, NC 28205",Neighborhood,No,https://www.mecknc.gov/parkandrec/pages/home.aspx?redirect=charmeck,NA,NA,NA,NA,NA,NA,NA,NA,NA,NA,35.21902336,-80.78563775
Carolina Raptor Center,"6000 SAMPLE RD HUNTERSVILLE, NC 28216",Raptor Center,Yes,https://www.mecknc.gov/parkandrec/pages/home.aspx?redirect=charmeck,NA,NA,NA,NA,NA,NA,NA,NA,NA,NA,35.35172884,-80.92147243
Tuckaseegee Recreation Center,"4820 TUCKASEEGEE RD CHARLOTTE, NC 28208",Recreation Center,Yes,https://www.mecknc.gov/parkandrec/pages/home.aspx?redirect=charmeck,NA,NA,NA,NA,NA,NA,NA,NA,NA,NA,35.24806972,-80.90678519
Iswa Nature Preserve,"9909 WILKINSON BV CHARLOTTE, NC 28214",Nature Preserve,No,https://www.mecknc.gov/parkandrec/pages/home.aspx?redirect=charmeck,NA,NA,NA,NA,NA,NA,NA,NA,NA,NA,35.24244096,-81.00131821
McAlpine Creek Park,"8711 MONROE RD CHARLOTTE, NC 28212",Regional,No,https://www.mecknc.gov/parkandrec/pages/home.aspx?redirect=charmeck,NA,NA,NA,NA,NA,NA,NA,Yes,NA,NA,35.15034141,-80.74574818
Methodist Home Recreation Center,"3200 SHAMROCK DR CHARLOTTE, NC 28205",Recreation Center,Yes,https://www.mecknc.gov/parkandrec/pages/home.aspx?redirect=charmeck,NA,NA,NA,NA,NA,NA,NA,NA,NA,NA,35.23486078,-80.77167743
Harrisburg Road Sportsplex,"8045 HARRISBURG RD CHARLOTTE, NC 28215",Regional,Yes,https://www.mecknc.gov/parkandrec/pages/home.aspx?redirect=charmeck,NA,NA,NA,NA,NA,NA,NA,NA,NA,NA,35.22370796,-80.68480384
Stevens Creek Nature Center,"15700 THOMPSON RD MINT HILL, NC 28227",Nature Center,Yes,https://www.mecknc.gov/parkandrec/pages/home.aspx?redirect=charmeck,NA,NA,NA,NA,NA,NA,NA,NA,NA,NA,35.14729133,-80.64657409
Ferrelltown Park & Preserve,"11355 ASBURY CHAPEL RD HUNTERSVILLE, NC 28078",Nature Preserve,No,https://www.mecknc.gov/parkandrec/pages/home.aspx?redirect=charmeck,NA,NA,NA,NA,NA,NA,NA,NA,NA,NA,35.38146039,-80.8100674
Sherman Branch Nature Preserve,"12501 ROCKY RIVER CHURCH RD MINT HILL, NC 28215",Nature Preserve,Yes,https://www.mecknc.gov/parkandrec/pages/home.aspx?redirect=charmeck,NA,NA,NA,NA,NA,NA,NA,NA,NA,NA,35.23770245,-80.63202552
Dorothy D. Waddy Pavilion,"3132 MANCHESTER DR CHARLOTTE, NC 28217",Pavilion,Yes,https://www.mecknc.gov/parkandrec/pages/home.aspx?redirect=charmeck,NA,NA,NA,NA,NA,NA,NA,NA,NA,NA,35.20585935,-80.88292073
Monroe Road Park,"5715 MONROE RD CHARLOTTE, NC 28212",Neighborhood,No,https://www.mecknc.gov/parkandrec/pages/home.aspx?redirect=charmeck,NA,NA,NA,NA,NA,NA,NA,NA,NA,NA,35.18707068,-80.76684497
James Dennis Rash Park,"1001 W 4TH ST EXT CHARLOTTE, NC 28202",Neighborhood,No,https://www.mecknc.gov/parkandrec/pages/home.aspx?redirect=charmeck,NA,NA,NA,NA,NA,NA,NA,NA,NA,NA,35.23294337,-80.85445309
Thompson Park,"1125 E 3RD ST CHARLOTTE, NC 28204",Neighborhood,No,https://www.mecknc.gov/parkandrec/pages/home.aspx?redirect=charmeck,NA,NA,NA,NA,NA,NA,NA,NA,NA,NA,35.21620639,-80.83424788
Ninth Street Park,"417 W 9TH ST CHARLOTTE, NC 28202",Neighborhood,No,https://www.mecknc.gov/parkandrec/pages/home.aspx?redirect=charmeck,NA,NA,NA,NA,NA,NA,NA,Yes,NA,NA,35.23374682,-80.84087607
Independence Pointe Park,"9902 INDEPENDENCE POINTE PY MATTHEWS, NC 28105",Town Park,No,https://www.matthewsnc.gov/pview.aspx?id=20727&catid=0,NA,NA,NA,NA,NA,NA,NA,NA,NA,NA,35.13311988,-80.71205916
Robert Heywood Morrison Garden,"1445 HARDING PL CHARLOTTE, NC 28204",Flower Garden,No,https://www.mecknc.gov/parkandrec/pages/home.aspx?redirect=charmeck,NA,NA,NA,NA,NA,NA,NA,NA,NA,NA,35.20666554,-80.83688961
Sixteenth Street Park,"620 E 16TH ST CHARLOTTE, NC 28206",Neighborhood,No,https://www.mecknc.gov/parkandrec/pages/home.aspx?redirect=charmeck,NA,NA,Yes,NA,NA,NA,NA,NA,NA,NA,35.23272704,-80.8238931
Horticultural Maintenance Facility,"11826 MALLARD CREEK RD CHARLOTTE, NC 28269",Operational,No,https://www.mecknc.gov/parkandrec/pages/home.aspx?redirect=charmeck,NA,NA,NA,NA,NA,NA,NA,NA,NA,NA,35.35575667,-80.75660996
Marion Diehl Recreation Center & Pool,"2219 TYVOLA RD CHARLOTTE, NC 28210",Recreation Center,Yes,https://www.mecknc.gov/parkandrec/pages/home.aspx?redirect=charmeck,NA,NA,NA,NA,NA,NA,NA,NA,NA,NA,35.15933804,-80.85887437
Veterans Park,"201 HUNTERSVILLE-CONCORD RD HUNTERSVILLE, NC 28078",Town Park,No,https://www.huntersville.org/162/Parks-Recreation,NA,NA,NA,NA,NA,NA,NA,NA,NA,NA,35.41096102,-80.84134063
Kuck Road Park,"7221 KUCK RD CHARLOTTE, NC 28227",Community,No,https://www.mecknc.gov/parkandrec/pages/home.aspx?redirect=charmeck,NA,NA,NA,NA,NA,NA,NA,NA,NA,NA,35.19206529,-80.68138896
Tom Sykes Recreation Center,"1501 EUCLID AV CHARLOTTE, NC 28203",Recreation Center,Yes,https://www.mecknc.gov/parkandrec/pages/home.aspx?redirect=charmeck,NA,NA,NA,NA,NA,NA,NA,NA,NA,NA,35.21261091,-80.85209132
St. Marys Chapel,"1129 E 3RD ST CHARLOTTE, NC 28204",Event Venue,Yes,https://www.mecknc.gov/parkandrec/pages/home.aspx?redirect=charmeck,NA,NA,NA,NA,NA,NA,NA,NA,NA,NA,35.21616232,-80.83418639
Marshall Park,"800 E 3RD ST CHARLOTTE, NC 28202",Neighborhood,No,https://www.mecknc.gov/parkandrec/pages/home.aspx?redirect=charmeck,NA,NA,NA,NA,NA,NA,NA,NA,NA,NA,35.22035914,-80.83928258
Midtown Park,"510 S KINGS DR CHARLOTTE, NC 28204",Neighborhood,No,https://www.mecknc.gov/parkandrec/pages/home.aspx?redirect=charmeck,NA,NA,NA,NA,NA,NA,NA,NA,NA,NA,35.21121293,-80.83561465
Country Place Park,"557 S TRADE ST MATTHEWS, NC 28105",Town Park,No,https://www.matthewsnc.gov/pview.aspx?id=20727&catid=0,NA,NA,NA,NA,NA,NA,NA,NA,Yes,NA,35.11092954,-80.72719231
Fountain Rock Park,"311 S TRADE ST MATTHEWS, NC 28105",Town Park,No,https://www.matthewsnc.gov/pview.aspx?id=20727&catid=0,NA,NA,NA,NA,NA,NA,NA,NA,NA,NA,35.11338394,-80.72487395
Hidden Valley Park,"260 NORTHCHASE DR CHARLOTTE, NC 28213",Neighborhood,No,https://www.mecknc.gov/parkandrec/pages/home.aspx?redirect=charmeck,NA,NA,NA,NA,NA,NA,NA,NA,NA,NA,35.26262578,-80.77618682
Viewmont Park,"5400 VIEWMONT DR CHARLOTTE, NC 28215",Neighborhood,No,https://www.mecknc.gov/parkandrec/pages/home.aspx?redirect=charmeck,NA,NA,NA,NA,NA,NA,NA,NA,NA,NA,35.26008717,-80.75045817
KP Park,"320 E MATTHEWS ST MATTHEWS, NC 28105",Town Park,No,https://www.matthewsnc.gov/pview.aspx?id=20727&catid=0,NA,NA,NA,NA,NA,NA,NA,NA,NA,NA,35.11738874,-80.71892376
Double Oaks Family Aquatic Center,"2014 STATESVILLE AV CHARLOTTE, NC 28206",Aquatic Center,Yes,https://www.mecknc.gov/parkandrec/pages/home.aspx?redirect=charmeck,NA,NA,NA,NA,NA,NA,NA,NA,NA,NA,35.2496892,-80.83577956
Purser-Hulsey Park,"13201 PHILLIPS RD MATTHEWS, NC 28105",Town Park,No,https://www.matthewsnc.gov/pview.aspx?id=20727&catid=0,NA,NA,NA,NA,NA,NA,NA,NA,NA,NA,35.12852724,-80.6844717
Amay James Recreation Center & Annex,"2425 LESTER ST CHARLOTTE, NC 28208",Recreation Center,Yes,https://www.mecknc.gov/parkandrec/pages/home.aspx?redirect=charmeck,NA,NA,NA,NA,Yes,NA,NA,NA,NA,NA,35.20379979,-80.9011766
Piedmont Pine Nature Preserve,"10505 COBLE RD CHARLOTTE, NC 28227",Nature Preserve,No,https://www.mecknc.gov/parkandrec/pages/home.aspx?redirect=charmeck,NA,NA,NA,NA,NA,NA,NA,NA,NA,NA,35.22238081,-80.59542447
Lakeview Park,"1310 LAKEVIEW DR PINEVILLE, NC 28134",Community,No,https://www.mecknc.gov/parkandrec/pages/home.aspx?redirect=charmeck,NA,NA,NA,NA,NA,NA,NA,NA,NA,NA,35.07685182,-80.89989782
Buckthorn Park,"9732 RESEARCH DR CHARLOTTE, NC 28262",Community,No,https://www.mecknc.gov/parkandrec/pages/home.aspx?redirect=charmeck,NA,NA,NA,NA,NA,NA,NA,NA,NA,NA,35.31884537,-80.76776207
Merry Oaks Community Garden,"3000 HARBINGER CT CHARLOTTE, NC 28205",Community Garden,No,https://www.mecknc.gov/parkandrec/pages/home.aspx?redirect=charmeck,NA,NA,NA,NA,NA,NA,NA,NA,NA,NA,35.22329341,-80.79247358
Berryhill Nature Preserve,"10334 WALKERS FERRY RD CHARLOTTE, NC 28214",Nature Preserve,No,https://www.mecknc.gov/parkandrec/pages/home.aspx?redirect=charmeck,NA,NA,NA,NA,NA,NA,NA,NA,NA,NA,35.21535308,-80.98831865
Meck Co Park Operations,"1418 ARMORY DR CHARLOTTE, NC 28204",Operational,Yes,https://www.mecknc.gov/parkandrec/pages/home.aspx?redirect=charmeck,NA,NA,NA,NA,NA,NA,NA,NA,NA,NA,35.21799221,-80.82662605
Crews Recreation Center,"1201 CREWS RD MATTHEWS, NC 28105",Recreation Center,Yes,https://www.matthewsnc.gov/pview.aspx?id=20727&catid=0,NA,NA,Yes,NA,NA,NA,NA,NA,NA,NA,35.12400375,-80.72271623
American Legion Memorial Stadium,"310 N KINGS DR CHARLOTTE, NC 28204",Event Venue,Yes,https://www.mecknc.gov/parkandrec/pages/home.aspx?redirect=charmeck,NA,NA,NA,NA,NA,NA,NA,NA,NA,NA,35.21906528,-80.83062963
West Cove Park,"10012 MOORES CHAPEL LP CHARLOTTE, NC 28214",Neighborhood,No,https://www.mecknc.gov/parkandrec/pages/home.aspx?redirect=charmeck,NA,NA,NA,NA,NA,NA,NA,NA,NA,NA,35.24582821,-81.00442971
IBM Drive Park,"6920 IBM DR CHARLOTTE, NC 28262",Community,No,https://www.mecknc.gov/parkandrec/pages/home.aspx?redirect=charmeck,NA,NA,NA,NA,NA,NA,NA,NA,NA,NA,35.30910393,-80.77751375
Hickory View Park,"14942 HICKORY VIEW LN CHARLOTTE, NC 28278",Community,No,https://www.mecknc.gov/parkandrec/pages/home.aspx?redirect=charmeck,NA,NA,NA,NA,NA,NA,NA,NA,NA,NA,35.0862144,-81.01624257
Plott Road Park,"7709 PLOTT RD CHARLOTTE, NC 28215",Neighborhood,No,https://www.mecknc.gov/parkandrec/pages/home.aspx?redirect=charmeck,NA,NA,NA,NA,NA,NA,NA,NA,NA,NA,35.24591957,-80.71712705
Fullwood Community Garden,"427 COVENANT CHURCH LN MATTHEWS, NC 28105",Community Garden,No,https://www.matthewsnc.gov/pview.aspx?id=20727&catid=0,NA,NA,NA,NA,NA,NA,NA,NA,NA,NA,35.12045112,-80.73310289
Northlake Park,"10801 ALEXANDRIANA RD HUNTERSVILLE, NC 28078",Community,No,https://www.mecknc.gov/parkandrec/pages/home.aspx?redirect=charmeck,NA,NA,NA,NA,NA,NA,NA,NA,NA,NA,35.36675898,-80.8564274
Belle Johnston Community Center,"1000 JOHNSTON DR PINEVILLE, NC 28134",Recreation Center,Yes,http://www.pinevillenc.gov/Departments/ParksRecreaton/tabid/103/Default.aspx,NA,NA,Yes,NA,Yes,NA,NA,NA,NA,NA,35.07891235,-80.89197188
The Preserve Dog Park,"336 O HENRY AV DAVIDSON, NC 28036",Dog Park,No,https://www.ci.davidson.nc.us/130/Parks-Recreation,NA,NA,NA,NA,NA,NA,NA,Yes,Yes,NA,35.49661818,-80.82972117
Matthews Community Center,"100 E MCDOWELL ST MATTHEWS, NC 28105",Community Center,Yes,https://www.matthewsnc.gov/pview.aspx?id=20727&catid=0,NA,NA,NA,NA,NA,NA,NA,NA,NA,NA,35.11505091,-80.72530397
Alexandriana Historic Site,"9921 OLD STATESVILLE RD CHARLOTTE, NC 28269",Historic,No,https://www.mecknc.gov/parkandrec/pages/home.aspx?redirect=charmeck,NA,NA,NA,NA,NA,NA,NA,NA,NA,NA,35.35712215,-80.82253331
Big Rock Nature Preserve,"6500 ELMSTONE DR CHARLOTTE, NC 28277",Nature Preserve,No,https://www.mecknc.gov/parkandrec/pages/home.aspx?redirect=charmeck,NA,NA,NA,NA,NA,NA,NA,NA,NA,NA,35.06079245,-80.82542852
Bryant Park,"1701 W MOREHEAD ST CHARLOTTE, NC 28208",Neighborhood,No,https://www.mecknc.gov/parkandrec/pages/home.aspx?redirect=charmeck,NA,NA,NA,NA,NA,Yes,NA,NA,NA,NA,35.22852971,-80.86804711
Rocky River Bluff Nature Preserve,"20532 SHEARER RD DAVIDSON, NC 28036",Nature Preserve,No,https://www.mecknc.gov/parkandrec/pages/home.aspx?redirect=charmeck,NA,NA,NA,NA,NA,NA,NA,NA,NA,NA,35.48698128,-80.79026549
US National Whitewater Center,"5000 WHITEWATER CENTER PY CHARLOTTE, NC 28214",Regional,Yes,https://usnwc.org,NA,NA,NA,NA,NA,NA,NA,NA,NA,NA,35.27205733,-81.00456351
Cowans Ford Wildlife Refuge,"2329 NECK RD HUNTERSVILLE, NC 28078",Nature Preserve,No,https://www.mecknc.gov/parkandrec/pages/home.aspx?redirect=charmeck,NA,NA,NA,NA,NA,NA,NA,NA,NA,NA,35.37280072,-80.97276354
Copperhead Island,"15200 SOLDIER RD CHARLOTTE, NC 28278",Nature Preserve,Yes,https://www.mecknc.gov/parkandrec/pages/home.aspx?redirect=charmeck,NA,NA,NA,NA,Yes,NA,NA,NA,NA,NA,35.1098485,-81.02505436
Elon Recreation Center,"11401 ARDREY KELL RD CHARLOTTE, NC 28277",Recreation Center,Yes,https://www.mecknc.gov/parkandrec/pages/home.aspx?redirect=charmeck,NA,NA,NA,NA,NA,NA,NA,NA,NA,NA,35.02260278,-80.84523992
David B. Waymer Aeromodeller Park,"15401 HOLBROOKS RD HUNTERSVILLE, NC 28078",Regional,Yes,https://www.mecknc.gov/parkandrec/pages/home.aspx?redirect=charmeck,NA,NA,NA,NA,NA,NA,NA,NA,NA,NA,35.40207167,-80.81904084
Gander Cove Park,"10502 MONROE RD MATTHEWS, NC 28105",Neighborhood,No,https://www.mecknc.gov/parkandrec/pages/home.aspx?redirect=charmeck,NA,NA,NA,NA,NA,NA,NA,NA,NA,NA,35.12996687,-80.73382766
Grady Cole Center,"310 N KINGS DR CHARLOTTE, NC 28204",Event Venue,Yes,https://www.mecknc.gov/parkandrec/pages/home.aspx?redirect=charmeck,NA,NA,NA,NA,NA,NA,NA,NA,NA,NA,35.21906528,-80.83062963
Williams-Olmstead Park,"1738 WEDDINGTON RD MATTHEWS, NC 28105",Neighborhood,No,https://www.mecknc.gov/parkandrec/pages/home.aspx?redirect=charmeck,NA,NA,NA,NA,NA,NA,NA,NA,NA,NA,35.09943891,-80.73290637
Ezell Park,"4155 MINTWOOD DR MINT HILL, NC 28227",Community,No,https://www.mecknc.gov/parkandrec/pages/home.aspx?redirect=charmeck,NA,NA,NA,NA,NA,NA,NA,NA,NA,NA,35.15712109,-80.67022246
Jeff Adams Tennis Center,"1520 W TYVOLA RD CHARLOTTE, NC 28217",Tennis Center,Yes,https://www.mecknc.gov/parkandrec/pages/home.aspx?redirect=charmeck,NA,NA,NA,Yes,NA,NA,NA,NA,NA,NA,35.17385123,-80.90901907
Latta Place Historic Site,"5225 SAMPLE RD B HUNTERSVILLE, NC 28216",Historic,No,https://www.mecknc.gov/parkandrec/pages/home.aspx?redirect=charmeck,NA,NA,NA,NA,NA,NA,NA,NA,NA,NA,35.35313408,-80.92909159
Discovery Place Nature Museum,"1658 STERLING RD CHARLOTTE, NC 28209",Museum,Yes,https://nature.discoveryplace.org/,NA,NA,NA,NA,NA,NA,NA,NA,NA,NA,35.18836711,-80.8426149
McIntyre Historic Site,"5801 BEATTIES FORD RD CHARLOTTE, NC 28216",Historic,No,https://www.mecknc.gov/parkandrec/pages/home.aspx?redirect=charmeck,NA,NA,NA,NA,NA,NA,NA,NA,Yes,NA,35.31230769,-80.86370119
McKee Road Park,"4201 MCKEE RD CHARLOTTE, NC 28270",Community,No,https://www.mecknc.gov/parkandrec/pages/home.aspx?redirect=charmeck,NA,NA,NA,NA,NA,NA,NA,NA,NA,NA,35.0687502,-80.75599172
Naomi Drenan Recreation Center,"750 BEAL ST CHARLOTTE, NC 28211",Recreation Center,Yes,https://www.mecknc.gov/parkandrec/pages/home.aspx?redirect=charmeck,NA,NA,NA,NA,NA,NA,NA,NA,NA,NA,35.19039483,-80.79653044
Mallard Creek Recreation Center,"2530 JOHNSTON OEHLER RD CHARLOTTE, NC 28269",Recreation Center,Yes,https://www.mecknc.gov/parkandrec/pages/home.aspx?redirect=charmeck,NA,NA,NA,NA,NA,NA,NA,NA,NA,NA,35.35573596,-80.75712337
Reid Park,"3207 AMAY JAMES AV CHARLOTTE, NC 28208",Neighborhood,No,https://www.mecknc.gov/parkandrec/pages/home.aspx?redirect=charmeck,NA,NA,Yes,NA,NA,NA,NA,NA,NA,NA,35.20407326,-80.90032787
The Hut,"413 JOHNSTON DR PINEVILLE, NC 28134",Event Venue,Yes,http://www.pinevillenc.gov/Departments/ParksRecreaton/tabid/103/Default.aspx,NA,NA,NA,NA,NA,NA,NA,NA,NA,NA,35.08269027,-80.89114832
Revolution Park Sports Academy,"1225 REMOUNT RD CHARLOTTE, NC 28208",Recreation Center,Yes,https://www.mecknc.gov/parkandrec/pages/home.aspx?redirect=charmeck,NA,NA,Yes,NA,NA,NA,NA,NA,NA,NA,35.21363731,-80.87711077
Ribbonwalk Nature Preserve,"5017 HOYT HINSON RD CHARLOTTE, NC 28269",Nature Preserve,Yes,https://www.mecknc.gov/parkandrec/pages/home.aspx?redirect=charmeck,NA,NA,NA,NA,NA,NA,NA,NA,NA,NA,35.29549421,-80.82041055
Huntersville Athletic Recreation Center,"11836 VERHOEFF DR HUNTERSVILLE, NC 28078",Recreation Center,Yes,https://www.huntersville.org/162/Parks-Recreation,NA,NA,Yes,NA,NA,NA,NA,NA,NA,NA,35.3914994,-80.8470696
Huntersville Arts & Cultural Center,"109 S OLD STATESVILLE RD HUNTERSVILLE, NC 28078",Arts Center,Yes,https://www.huntersville.org/162/Parks-Recreation,NA,NA,NA,NA,NA,NA,NA,NA,NA,NA,35.41123604,-80.84305713
JV Washam Recreation Center,"9611 WESTMORELAND RD CORNELIUS, NC 28031",Recreation Center,Yes,https://www.cornelius.org/103/Parks-Arts-Recreation-Culture,NA,NA,Yes,NA,Yes,NA,NA,NA,NA,NA,35.46419411,-80.8679597
Evergreen Nature Preserve,"1336 NORLAND RD CHARLOTTE, NC 28205",Nature Preserve,Yes,https://www.mecknc.gov/parkandrec/pages/home.aspx?redirect=charmeck,NA,NA,Yes,NA,NA,NA,NA,NA,NA,NA,35.20779916,-80.77881242
Amay James Park,"2415 LESTER ST CHARLOTTE, NC 28208",Community,No,https://www.mecknc.gov/parkandrec/pages/home.aspx?redirect=charmeck,NA,NA,NA,NA,NA,NA,NA,NA,NA,NA,35.20378179,-80.90119711
Winterfield Park,"3010 WINTERFIELD PL CHARLOTTE, NC 28205",Neighborhood,No,https://www.mecknc.gov/parkandrec/pages/home.aspx?redirect=charmeck,NA,NA,NA,NA,NA,NA,NA,NA,NA,NA,35.20861124,-80.76583448
Elon Park,"11435 ARDREY KELL RD CHARLOTTE, NC 28277",Regional,Yes,https://www.mecknc.gov/parkandrec/pages/home.aspx?redirect=charmeck,NA,NA,NA,NA,NA,Yes,Yes,NA,Yes,NA,35.02239403,-80.84561611
Two Spring Park,"1133 DOBY SPRINGS DR CHARLOTTE, NC 28262",Neighborhood,No,https://www.mecknc.gov/parkandrec/pages/home.aspx?redirect=charmeck,NA,NA,NA,NA,NA,NA,NA,NA,NA,NA,35.29091248,-80.77916453
Brooktree Park,"5121 BROOKTREE DR CHARLOTTE, NC 28208",Neighborhood,No,https://www.mecknc.gov/parkandrec/pages/home.aspx?redirect=charmeck,NA,NA,NA,NA,NA,NA,NA,NA,NA,NA,35.26674908,-80.91696366
Cornelius Community Garden,"20708 CATAWBA AV CORNELIUS, NC 28031",Community Garden,No,https://www.cornelius.org/103/Parks-Arts-Recreation-Culture,NA,NA,NA,NA,NA,NA,NA,NA,NA,NA,35.48383632,-80.87118977
Meck Co Parks & Recreation Administration,"5841 BROOKSHIRE BV CHARLOTTE, NC 28216",Operational,No,https://www.mecknc.gov/parkandrec/pages/home.aspx?redirect=charmeck,NA,NA,NA,NA,NA,NA,NA,NA,NA,NA,35.2822892,-80.90115824
Bailey Road Recreation Center,"11900 BAILEY RD CORNELIUS, NC 28031",Recreation Center,Yes,https://www.cornelius.org/103/Parks-Arts-Recreation-Culture,NA,NA,Yes,NA,Yes,NA,NA,NA,NA,NA,35.46789281,-80.83931247
Clear Creek Park,"8616 CLEAR MEADOW LN CHARLOTTE, NC 28227",Community,No,https://www.mecknc.gov/parkandrec/pages/home.aspx?redirect=charmeck,NA,NA,NA,NA,NA,NA,NA,NA,NA,NA,35.19750585,-80.59232571
Berryhill Park,"10007 WALKERS FERRY RD CHARLOTTE, NC 28214",Regional,No,https://www.mecknc.gov/parkandrec/pages/home.aspx?redirect=charmeck,NA,NA,NA,NA,NA,NA,NA,NA,NA,NA,35.2185614,-80.98309409
Shuffletown Prairie Nature Preserve,"2804 HART RD CHARLOTTE, NC 28214",Nature Preserve,No,https://www.mecknc.gov/parkandrec/pages/home.aspx?redirect=charmeck,NA,NA,NA,NA,NA,NA,NA,NA,NA,NA,35.32827951,-80.9605735
Ivory-Baker Recreation Center,"1920 STROUD PARK CT CHARLOTTE, NC 28206",Recreation Center,Yes,https://www.mecknc.gov/parkandrec/pages/home.aspx?redirect=charmeck,NA,NA,NA,NA,NA,NA,NA,NA,NA,NA,35.2496612,-80.84071275
Gar Creek Nature Preserve,"10020 MCCOY RD HUNTERSVILLE, NC 28078",Nature Preserve,No,https://www.mecknc.gov/parkandrec/pages/home.aspx?redirect=charmeck,NA,NA,NA,NA,NA,NA,NA,NA,NA,NA,35.35543536,-80.88676689
Possum Walk Nature Preserve,"3540 MIRANDA RD CHARLOTTE, NC 28216",Nature Preserve,No,https://www.mecknc.gov/parkandrec/pages/home.aspx?redirect=charmeck,NA,NA,NA,NA,NA,NA,NA,NA,NA,NA,35.33368767,-80.882473
Graham Street Park,"5430 N GRAHAM ST CHARLOTTE, NC 28269",Neighborhood,No,https://www.mecknc.gov/parkandrec/pages/home.aspx?redirect=charmeck,NA,NA,NA,NA,NA,NA,NA,NA,NA,NA,35.28701029,-80.80058236
T.M. Winget Nature Preserve,"12222 WINGET RD CHARLOTTE, NC 28278",Nature Preserve,No,https://www.mecknc.gov/parkandrec/pages/home.aspx?redirect=charmeck,NA,NA,NA,NA,NA,NA,NA,NA,NA,NA,35.12897903,-81.00050067
Ballantyne Park,"10082 COMMUNITY HOUSE RD CHARLOTTE, NC 28277",Community,Yes,https://www.mecknc.gov/parkandrec/pages/home.aspx?redirect=charmeck,NA,NA,NA,NA,NA,Yes,NA,NA,NA,NA,35.03961268,-80.82964644
Charles Avenue Park,"800 CHARLES AV CHARLOTTE, NC 28205",Neighborhood,No,https://www.mecknc.gov/parkandrec/pages/home.aspx?redirect=charmeck,NA,NA,Yes,NA,NA,NA,NA,NA,Yes,NA,35.24286239,-80.80798771
Old Moores Chapel Park,"9226 OLD MOORES CHAPEL RD CHARLOTTE, NC 28214",Neighborhood,No,https://www.mecknc.gov/parkandrec/pages/home.aspx?redirect=charmeck,NA,NA,NA,NA,NA,NA,NA,NA,NA,NA,35.27577384,-80.95891112
Pine Hill Park,"8740 NORTH PINE HILL LN CHARLOTTE, NC 28215",Community,No,https://www.mecknc.gov/parkandrec/pages/home.aspx?redirect=charmeck,NA,NA,NA,NA,NA,NA,NA,NA,NA,NA,35.26510196,-80.67030671
Large Oak Park,"8515 FAIRVIEW RD CHARLOTTE, NC 28227",Community,No,https://www.mecknc.gov/parkandrec/pages/home.aspx?redirect=charmeck,NA,NA,NA,NA,NA,NA,NA,NA,NA,NA,35.17890123,-80.63871779
Newell Park,"9130 NEWELL BAPTIST CHURCH RD CHARLOTTE, NC 28213",Community,No,https://www.mecknc.gov/parkandrec/pages/home.aspx?redirect=charmeck,NA,NA,NA,NA,NA,Yes,NA,NA,Yes,NA,35.28538752,-80.73462105
Plaza Road Park,"8518 PLAZA RD EXT CHARLOTTE, NC 28215",Neighborhood,No,https://www.mecknc.gov/parkandrec/pages/home.aspx?redirect=charmeck,NA,NA,NA,NA,NA,NA,NA,NA,NA,NA,35.25520115,-80.7151661
Old Potters Road Park,"4410 W SUGAR CREEK RD CHARLOTTE, NC 28269",Neighborhood,No,https://www.mecknc.gov/parkandrec/pages/home.aspx?redirect=charmeck,NA,NA,NA,NA,NA,NA,NA,NA,NA,NA,35.31420727,-80.81095767
Gar Creek Park,"9230 KERNS RD HUNTERSVILLE, NC 28078",Regional,No,https://www.mecknc.gov/parkandrec/pages/home.aspx?redirect=charmeck,NA,NA,NA,NA,NA,NA,NA,NA,NA,NA,35.35909503,-80.87301666
Independence Park,"1835 PARK DR CHARLOTTE, NC 28204",Neighborhood,No,https://www.mecknc.gov/parkandrec/pages/home.aspx?redirect=charmeck,NA,NA,NA,NA,NA,NA,NA,NA,Yes,NA,35.21350581,-80.82188242
Crab Orchard Park,"3420 LEMSFORD WY CHARLOTTE, NC 28215",Community,No,https://www.mecknc.gov/parkandrec/pages/home.aspx?redirect=charmeck,NA,NA,NA,NA,NA,NA,NA,NA,NA,NA,35.27462496,-80.67600532
Bluff Hill Park,"4845 ROCKY RIVER RD CHARLOTTE, NC 28215",Neighborhood,No,https://www.mecknc.gov/parkandrec/pages/home.aspx?redirect=charmeck,NA,NA,NA,NA,NA,NA,NA,NA,NA,NA,35.27605206,-80.69167841
East Charlotte Park,"8035 E W T HARRIS BV CHARLOTTE, NC 28227",Community,No,https://www.mecknc.gov/parkandrec/pages/home.aspx?redirect=charmeck,NA,NA,NA,NA,NA,NA,NA,NA,NA,NA,35.21188171,-80.72597487
Ridge Road Park,"4419 RIDGE RD CHARLOTTE, NC 28269",Community,No,https://www.mecknc.gov/parkandrec/pages/home.aspx?redirect=charmeck,NA,NA,NA,NA,NA,NA,NA,NA,NA,NA,35.37485911,-80.77240079
Forest Point Park,"7721 FOREST POINT BV CHARLOTTE, NC 28217",Neighborhood,No,https://www.mecknc.gov/parkandrec/pages/home.aspx?redirect=charmeck,NA,NA,NA,NA,NA,NA,NA,NA,NA,NA,35.13794612,-80.90517221
Long Creek Park,"10510 MOUNT HOLLY RD CHARLOTTE, NC 28214",Neighborhood,No,https://www.mecknc.gov/parkandrec/pages/home.aspx?redirect=charmeck,NA,NA,NA,NA,NA,NA,NA,NA,NA,NA,35.29775172,-80.97834788
Pine Valley Park,"1910 LONGLEAF DR CHARLOTTE, NC 28210",Neighborhood,No,https://www.mecknc.gov/parkandrec/pages/home.aspx?redirect=charmeck,NA,NA,NA,NA,NA,NA,NA,NA,NA,NA,35.11191683,-80.87500491
Charles T. Myers Golf Course,"7817 HARRISBURG RD CHARLOTTE, NC 28215",Golf Course,Yes,https://www.mecknc.gov/parkandrec/pages/home.aspx?redirect=charmeck,NA,NA,NA,NA,NA,NA,NA,NA,NA,NA,35.22127749,-80.68598386
Generations Street Park,"12540 GENERATIONS ST CHARLOTTE, NC 28278",Neighborhood,No,https://www.mecknc.gov/parkandrec/pages/home.aspx?redirect=charmeck,NA,NA,NA,NA,NA,NA,NA,NA,NA,NA,35.09360925,-80.99752827
River Run Athletic Park,"13130 ROBERT WALKER DR DAVIDSON, NC 28036",Town Park,Yes,https://www.ci.davidson.nc.us/130/Parks-Recreation,NA,NA,NA,NA,NA,Yes,NA,NA,NA,NA,35.47794649,-80.81883859
Elizabeth Park,"1110 ELIZABETH AV CHARLOTTE, NC 28204",Neighborhood,No,https://www.mecknc.gov/parkandrec/pages/home.aspx?redirect=charmeck,NA,NA,NA,NA,NA,NA,NA,NA,NA,NA,35.2188845,-80.83313196
Ralph Knox Park,"13626 E ROCKY RIVER RD DAVIDSON, NC 28036",Community,No,https://www.mecknc.gov/parkandrec/pages/home.aspx?redirect=charmeck,NA,NA,NA,NA,NA,NA,NA,NA,NA,NA,35.48340364,-80.81210474
East Lane Drive Park,"7945 EAST LANE DR CHARLOTTE, NC 28212",Neighborhood,No,https://www.mecknc.gov/parkandrec/pages/home.aspx?redirect=charmeck,NA,NA,NA,NA,NA,NA,NA,NA,NA,NA,35.17718692,-80.73693556
Knights View Recreation Center,"11010 BEAU RILEY RD CHARLOTTE, NC 28277",Recreation Center,Yes,https://www.mecknc.gov/parkandrec/pages/home.aspx?redirect=charmeck,NA,NA,NA,NA,NA,NA,NA,NA,NA,NA,35.02800093,-80.82657976
Edgewater Farm Park,"14810 BROWN MILL RD HUNTERSVILLE, NC 28078",Community,No,https://www.mecknc.gov/parkandrec/pages/home.aspx?redirect=charmeck,NA,NA,NA,NA,NA,NA,NA,NA,NA,NA,35.42536291,-80.91820874
Cabarrus County Senior Center - Concord,"331 Concord Pkwy N Concord, NC",County Park,Yes,https://www.cabarruscounty.us/location/concord-senior-center,NA,NA,NA,NA,NA,NA,NA,NA,NA,NA,35.39526355,-80.61364323
Cabarrus County Senior Center - Mt Pleasant,"8615 Park Dr Mt. Pleasant, NC",County Park,Yes,https://www.cabarruscounty.us/location/mount-pleasant-senior-center,NA,NA,NA,NA,NA,NA,NA,NA,NA,NA,35.40057827,-80.43401337
Kanpolis Dixie Youth Ballfield,"716 Pleasant Ave , Kannapolis NC",Municipal Park,No,NA,NA,NA,NA,NA,NA,NA,NA,NA,NA,NA,35.4871465,-80.64284906
Mt Pleasant Reservoir,"8275 Mt Olive Rd , Concord NC",Municipal Park,No,NA,NA,NA,NA,NA,NA,NA,NA,NA,NA,NA,35.43995904,-80.43843147
Gibson Ball Park - City of Concord,"265 Ball Park Ct NW Concord, NC",Municipal Park,Yes,https://www.concordnc.gov/Departments/Parks-Recreation/Facilities,NA,NA,NA,NA,NA,Yes,NA,NA,NA,NA,35.41413804,-80.59842725
James L. Dorton Park - City of Concord,"5700 Poplar Tent Rd Concord, NC",Municipal Park,No,http://www.concordnc.gov/Departments/Parks-Recreation/Facilities,NA,Yes,NA,Yes,NA,NA,Yes,NA,NA,NA,35.41107698,-80.66944634
Lake Concord  Reservoir,"2430 Centergrove Rd ,Kannapolis NC",Park,No,NA,NA,NA,NA,NA,NA,NA,NA,NA,NA,NA,35.47832124,-80.59248161
Cabarrus County Senior Center - Concord,"331 Concord Pkwy N Concord, NC",County Park,Yes,https://www.cabarruscounty.us/location/concord-senior-center,NA,NA,NA,NA,NA,NA,NA,NA,NA,NA,35.39526355,-80.61364323
Cabarrus County Senior Center - Mt Pleasant,"8615 Park Dr Mt. Pleasant, NC",County Park,Yes,https://www.cabarruscounty.us/location/mount-pleasant-senior-center,NA,NA,NA,NA,NA,NA,NA,NA,NA,NA,35.40057827,-80.43401337
Kanpolis Dixie Youth Ballfield,"716 Pleasant Ave , Kannapolis NC",Municipal Park,No,NA,NA,NA,NA,NA,NA,NA,NA,NA,NA,NA,35.4871465,-80.64284906
Mt Pleasant Reservoir,"8275 Mt Olive Rd , Concord NC",Municipal Park,No,NA,NA,NA,NA,NA,NA,NA,NA,NA,NA,NA,35.43995904,-80.43843147
Gibson Ball Park - City of Concord,"265 Ball Park Ct NW Concord, NC",Municipal Park,Yes,https://www.concordnc.gov/Departments/Parks-Recreation/Facilities,NA,NA,NA,NA,NA,Yes,NA,NA,NA,NA,35.41413804,-80.59842725
James L. Dorton Park - City of Concord,"5700 Poplar Tent Rd Concord, NC",Municipal Park,No,http://www.concordnc.gov/Departments/Parks-Recreation/Facilities,NA,Yes,NA,Yes,NA,NA,Yes,NA,NA,NA,35.41107698,-80.66944634
Lake Concord  Reservoir,"2430 Centergrove Rd ,Kannapolis NC",Park,No,NA,NA,NA,NA,NA,NA,NA,NA,NA,NA,NA,35.47832124,-80.59248161
Cabarrus County Senior Center - Concord,"331 Concord Pkwy N Concord, NC",County Park,Yes,https://www.cabarruscounty.us/location/concord-senior-center,NA,NA,NA,NA,NA,NA,NA,NA,NA,NA,35.39526355,-80.61364323
Cabarrus County Senior Center - Mt Pleasant,"8615 Park Dr Mt. Pleasant, NC",County Park,Yes,https://www.cabarruscounty.us/location/mount-pleasant-senior-center,NA,NA,NA,NA,NA,NA,NA,NA,NA,NA,35.40057827,-80.43401337
Belmont Park,"2207 Sovereign St, Durham NC",Park,No,https://www.dprplaymore.org/Facilities/Facility/Details/Belmont-Park-3,NA,NA,NA,NA,NA,NA,NA,NA,Yes,NA,36.0273891,-78.92711276
Birchwood Park,"3105 Hursey St, Durham NC",Park,No,https://www.dprplaymore.org/Facilities/Facility/Details/Birchwood-Park-5,NA,NA,Yes,NA,NA,NA,NA,NA,NA,NA,35.98001446,-78.84427138
Carroll Street Park,"815 Carroll St, Durham NC",Park,No,https://www.dprplaymore.org/Facilities/Facility/Details/Carroll-Street-Park-11,NA,NA,NA,NA,NA,NA,NA,NA,Yes,NA,35.99382275,-78.91575901
Glendale Heights Park,"707 W Murray Ave, Durham NC",Park,No,https://www.dprplaymore.org/Facilities/Facility/Details/Glendale-Heights-Park-29,NA,NA,NA,NA,NA,NA,NA,NA,Yes,NA,36.02872255,-78.90247692
Leigh Farm Park,"370 Leigh Farm Rd,Durham  NC",Park,Yes,https://www.dprplaymore.org/Facilities/Facility/Details/Leigh-Farm-Park-40,NA,NA,NA,NA,NA,NA,Yes,NA,Yes,NA,35.91488865,-78.97986669
Little River Fishing Facility,"1500 Orange Factory Rd,Durham  NC",Park,Yes,https://www.dprplaymore.org/Facilities/Facility/Details/Little-River-Fishing-Facility-41,NA,NA,NA,NA,NA,NA,NA,NA,Yes,NA,36.12749726,-78.8714379
Grant Street Park (South),"1200 Grant St,Durham  NC",Park,No,https://www.dprplaymore.org/Facilities/Facility/Details/Grant-Park-south-31,NA,NA,NA,NA,NA,NA,NA,NA,NA,NA,35.97852627,-78.89521999
Southern Boundaries Park,"3400 Third Fork Dr, Durham NC",Park,Yes,https://www.dprplaymore.org/Facilities/Facility/Details/Southern-Boundaries-Park-68,NA,NA,Yes,Yes,NA,NA,NA,NA,NA,NA,35.95799678,-78.92905664
Downtown Dog Park,"308 Elliott St, Durham NC",Park,No,https://www.dprplaymore.org/Facilities/Facility/Details/Downtown-Durham-Dog-Park-15,NA,NA,NA,NA,NA,NA,NA,Yes,NA,NA,35.99697985,-78.89550082
Holton Athletic Field,"401 N Driver St, Durham NC",Park,Yes,N/A,NA,Yes,NA,NA,NA,NA,NA,NA,Yes,NA,35.98892031,-78.8784237
West Point On The E Park,"5101 N Roxboro St,Durham  NC",Park,Yes,https://www.dprplaymore.org/Facilities/Facility/Details/West-Point-on-the-E-76,NA,NA,NA,NA,NA,NA,NA,NA,Yes,NA,36.06788594,-78.90729151
American Tobacco Trail - New Hill Entrance,"1309 New Hill-Olive Chapel Road, Apex, NC 27502",NA,Yes,https://www.wakegov.com/departments-government/parks-recreation-and-open-space/all-parks-trails/american-tobacco-trail,NA,NA,NA,NA,NA,NA,NA,NA,NA,NA,35.73733341,-78.88105376
American Tobacco Trail - White Oak Entrance,"1305 White Oak Church Road, Apex, NC 27523",NA,Yes,https://www.wakegov.com/departments-government/parks-recreation-and-open-space/all-parks-trails/american-tobacco-trail,NA,NA,NA,NA,NA,NA,NA,NA,NA,NA,35.78670698,-78.92350943
American Tobacco Trail - Wimberly Rd Entrance,"1017 Wimberly Road, Apex, NC 27502",NA,No,https://www.wakegov.com/departments-government/parks-recreation-and-open-space/all-parks-trails/american-tobacco-trail,NA,NA,NA,NA,NA,NA,NA,NA,NA,NA,35.76001332,-78.91992828
"Annie Louise Wilkerson, MD ture Preserve Park","11408 Raven Ridge Rd, Raleigh, NC",NA,Yes,https://raleighnc.gov/places/annie-louise-wilkerson-md-ture-preserve-park,NA,NA,NA,NA,NA,NA,NA,NA,Yes,NA,35.91887552,-78.59951423
Apex Community Center,"53 Hunter Street,  Apex NC",NA,Yes,https://www.apexnc.org/453/Community-Center-Programs,NA,NA,NA,NA,NA,NA,NA,NA,NA,NA,35.73452827,-78.84538372
Apex ture Park,"2600 Evans Rd., Apex NC",NA,Yes,https://www.apexnc.org/800/ture-Park-Seymour-Athletic-Fields,NA,NA,NA,NA,NA,NA,Yes,Yes,Yes,NA,35.71324271,-78.90574333
Banks Road Fields,"10225 Chambers Road, Fuquay-Vari, NC",NA,No,http://www.fuquay-vari.org/departments-and-services/parks-recreation-and-cultural-resources/parks/banks-road.html,NA,NA,NA,NA,NA,NA,NA,NA,NA,NA,35.63386896,-78.70949786
Barwell Road Park,"3935 Barwell Rd, Raleigh, NC",NA,No,https://raleighnc.gov/places/barwell-road-park,NA,NA,NA,NA,NA,NA,NA,NA,NA,NA,35.7323401,-78.55515137
Brookhaven ture Park,"5125 Berkeley St, Raleigh, NC",NA,No,https://raleighnc.gov/places/brookhaven-ture-park,NA,NA,NA,NA,NA,NA,NA,NA,NA,NA,35.85113594,-78.68705098
Buffaloe Road Cae Launch,"4901 Elizabeth Dr, Raleigh, NC",NA,No,https://raleighnc.gov/river-access,NA,NA,NA,NA,NA,NA,NA,NA,NA,NA,35.84740755,-78.53141808
Cae Launch at Falls Lake,"12028 Falls of Neuse Rd, Raleigh, NC",NA,No,https://raleighnc.gov/river-access,NA,NA,NA,NA,NA,NA,NA,NA,NA,NA,35.93365981,-78.57844789
Carroll Howard Johnson Environmental Education Park,"301 Wagstaff Road, Fuquay-Vari, NC",NA,Yes,http://www.fuquay-vari.org/departments-and-services/parks-recreation-and-cultural-resources/parks/carroll-howard-johnson-environmental-education-park.html,NA,NA,NA,NA,NA,NA,NA,NA,Yes,NA,35.56631568,-78.80831266
Pender Street Park,"1600 Pender St, Raleigh, NC",NA,No,https://raleighnc.gov/john-stokes-memorial-park,NA,NA,NA,NA,NA,NA,NA,NA,NA,NA,35.78238404,-78.61568299
Cary Arts Center,"316 N Academy Street, Cary, NC",NA,No,http://www.towfcary.org/Departments/Parks__Recreation___Cultural_Resources/Fac,NA,NA,NA,NA,NA,NA,NA,NA,NA,NA,35.7889192,-78.78111645
Cary Tennis Park,"2727 Louis Stephens Drive, Cary, NC",NA,Yes,http://www.towfcary.org/recreation-enjoyment/facilities/cary-tennis-park,NA,NA,NA,Yes,NA,NA,NA,NA,NA,NA,35.80681796,-78.86166712
Cedar Fork District Park,"228 Aviation Parkway, Morrisville NC",NA,Yes,http://www.towfmorrisville.org/government/departments-services/parks-recreation-cultural-resources/parks-and-greenways/cedar-fork-district-park,NA,NA,NA,NA,NA,NA,NA,NA,Yes,NA,35.82616354,-78.82078462
Clemmons Educatiol State Forest,"2256 Old U.S. Hwy 70, Clayton, NC",NA,Yes,https://www.ncesf.org/clemmons.html,NA,NA,NA,NA,NA,NA,NA,NA,Yes,NA,35.67417676,-78.48932942
Compiegne Park,"106 Chamberlain St, Raleigh, NC",NA,No,https://raleighnc.gov/places/compiegne-park,NA,NA,NA,NA,NA,NA,NA,NA,NA,NA,35.78796866,-78.6667033
Crabtree Creek ture Park,"151 Keybridge Drive, Morrisville NC",NA,No,http://www.towfmorrisville.org/government/departments-services/parks-recreation-cultural-resources/parks-and-greenways/crabtree-creek-ture-park,NA,NA,NA,NA,NA,NA,NA,NA,NA,NA,35.82011985,-78.82137721
Davis Drive Park,"1610 Davis Drive, Cary, NC",NA,Yes,http://www.towfcary.org/Departments/Parks__Recreation___Cultural_Resources/Parks_and_Greenways/Parks/Davis_Drive_Park.htm,NA,NA,NA,NA,NA,NA,NA,NA,Yes,NA,35.77074087,-78.84476157
Dorothea Dix Park - Blair Dr Entrance,"900 S Boylan Ave, Raleigh, NC",NA,No,https://raleighnc.gov/places/dorothea-dix-park,NA,NA,NA,NA,NA,NA,NA,NA,NA,NA,35.79130993,-78.64855142
Dorothea Dix Park - Lake Wheeler Rd Entrance,"900 S Boylan Ave, Raleigh, NC",NA,No,https://raleighnc.gov/places/dorothea-dix-park,NA,NA,NA,NA,NA,NA,NA,NA,NA,NA,35.79130993,-78.64855142
Dorothea Dix Park - Western Blvd Entrance,"900 S Boylan Ave, Raleigh, NC",NA,No,https://raleighnc.gov/places/dorothea-dix-park,NA,NA,NA,NA,NA,NA,NA,NA,NA,NA,35.79130993,-78.64855142
Dorothy Park,"720 Griffis Street, Cary, NC",NA,No,http://www.towfcary.org/Departments/Parks__Recreation___Cultural_Resources/Parks_and_Greenways/Parks/Dorothy_Park.htm,NA,NA,NA,NA,NA,NA,NA,NA,NA,NA,35.77845829,-78.789438
Downtown Park,"319 S. Academy Street, Cary, NC",NA,No,http://www.towfcary.org/recreation-enjoyment/parks-greenways-environment/parks/downtown-park,NA,NA,NA,NA,NA,NA,NA,NA,NA,NA,35.78446607,-78.78116554
"Dr. Martin Luther King, Jr. Memorial Gardens","900 Rock Quarry Rd, Raleigh, NC",NA,No,https://raleighnc.gov/places/dr-martin-luther-king-jr-memorial-gardens,NA,NA,NA,NA,NA,NA,NA,NA,NA,NA,35.76940958,-78.61839648
E. Carroll Joyner Park,"701 Harris Rd, Wake Forest, NC",NA,Yes,http://www.wakeforestnc.gov/joyner-park.aspx,NA,NA,NA,NA,NA,NA,NA,NA,Yes,NA,35.99957091,-78.51702686
Ed Metz Wells Park,"1600 Park Dr, Raleigh, NC",NA,No,https://raleighnc.gov/places/ed-metz-wells-park,NA,NA,NA,NA,NA,NA,NA,NA,NA,NA,35.787698,-78.65530419
Fallon Park,"2601 Oxford Rd, Raleigh, NC",NA,No,https://raleighnc.gov/places/fallon-park,NA,NA,NA,NA,NA,NA,NA,NA,Yes,NA,35.81712089,-78.6358221
Falls Lake State Recreation Area - Park Office Entrance,"13900 Creedmoor Road, Wake Forest NC",NA,Yes,https://www.ncparks.gov/falls-lake-state-recreation-area,NA,NA,NA,NA,NA,NA,NA,NA,Yes,NA,36.00262767,-78.68785078
Falls Lake State Recreation Area - Shinleaf Rec Area Entrance,"13708 New Light Road, Wake Forest NC",NA,Yes,https://www.ncparks.gov/falls-lake-state-recreation-area,NA,NA,NA,NA,NA,NA,NA,NA,NA,NA,35.9938869,-78.65961527
Fleming Loop Recreation Park,"301 Fleming Loop Road, Fuquay-Vari, NC",NA,No,http://www.fuquay-vari.org/departments-and-services/parks-recreation-and-cultural-resources/parks/fleming-loop-park.html,NA,NA,NA,NA,NA,NA,NA,NA,NA,NA,35.58019786,-78.81682811
Fred G. Bond Metro Park,"801 High House Road, Cary, NC",NA,Yes,http://www.towfcary.org/Departments/Parks__Recreation___Cultural_Resources/Parks_and_Greenways/Parks/Fred_G__Bond_Metro_Park.htm,NA,NA,NA,NA,NA,Yes,NA,NA,Yes,NA,35.78538434,-78.82075351
Fuquay Mineral Spring Park,"105 West Spring Street, Fuquay-Vari, NC",NA,No,http://www.fuquay-vari.org/departments-and-services/parks-recreation-and-cultural-resources/parks/fuquay-mineral-spring-park.html,NA,NA,NA,NA,NA,NA,NA,NA,NA,NA,35.58031967,-78.80075177
Good Hope Farm,"1580 Morrisville Carpenter Road, Cary, NC",NA,No,http://www.towfcary.org/recreation-enjoyment/parks-greenways-environment/community-gardens-urban-agriculture/good-hope-farm,NA,NA,NA,NA,NA,NA,NA,NA,NA,NA,35.82455379,-78.86332304
H.L. Miller Park,"401 Elm Ave, Wake Forest, NC",NA,No,http://www.wakeforestnc.gov/miller-park.aspx,NA,NA,NA,NA,NA,NA,NA,NA,NA,NA,35.97511559,-78.50693038
Halle Cultural Arts Center,"237 N Salem Street, Apex NC",NA,Yes,http://www.apexnc.org/454/Halle-Cultural-Arts-Center,NA,NA,NA,NA,NA,NA,NA,NA,NA,NA,35.73259782,-78.85034945
Harold D. Ritter Park,"301 Lochmere Drive West, Cary, NC",NA,Yes,http://www.towfcary.org/Departments/Parks__Recreation___Cultural_Resources/Parks_and_Greenways/Parks/Harold_D__Ritter_Park.htm,NA,NA,NA,NA,NA,Yes,NA,NA,Yes,NA,35.7286105,-78.77458105
Hemlock Bluffs ture Preserve,"2616 Kildaire Farm Road, Cary, NC",NA,Yes,http://www.towfcary.org/Departments/Parks__Recreation___Cultural_Resources/Parks_and_Greenways/Parks/Stevens_ture_Center_At_Hemlock_Bluffs_ture_Preserve.htm,NA,NA,NA,NA,NA,NA,NA,NA,NA,NA,35.72282539,-78.78105775
Herbert Akins Fields,"2255 Herbert Akins Road, Fuquay-Vari, NC",NA,No,http://www.fuquay-vari.org/departments-and-services/parks-recreation-and-cultural-resources/parks/herbert-akins-fields.html,NA,NA,NA,NA,NA,NA,NA,NA,NA,NA,35.6222352,-78.80155828
Historic Oak View County Park,"4028 Carya Dr., Raleigh, NC  27610",NA,Yes,https://www.wakegov.com/departments-government/parks-recreation-and-open-space/all-parks-trails/historic-oak-view-county-park,NA,NA,NA,NA,NA,NA,NA,NA,Yes,NA,35.77013472,-78.56880344
Historic Yates Mill County Park,"4620 Lake Wheeler Rd., Raleigh, NC  27603",NA,Yes,https://www.wakegov.com/departments-government/parks-recreation-and-open-space/all-parks-trails/historic-yates-mill-county-park,NA,NA,NA,NA,NA,NA,NA,NA,NA,NA,35.71918791,-78.68619704
Horseshoe Farm ture Preserve,"2900 Horseshoe Farm Rd, Raleigh, NC",NA,No,https://raleighnc.gov/places/horseshoe-farm-ture-preserve,NA,NA,NA,NA,NA,NA,NA,NA,NA,NA,35.88773825,-78.53318981
Hymettus Woods Park,"901 Dixie Trl, Raleigh, NC",NA,No,https://raleighnc.gov/places/hymettus-woods-park,NA,NA,NA,NA,NA,NA,NA,NA,NA,NA,35.80044762,-78.67625763
J Ashley Wall Town Square,"14 W Third St, Wendell, NC",NA,No,http://www.towfwendell.com/departments/parks-and-recreation/facilites/town-square,NA,NA,NA,NA,NA,NA,NA,NA,Yes,NA,35.78111306,-78.37003994
J.B. Flaherty Park,"1226 N White St, Wake Forest, NC",NA,Yes,http://www.wakeforestnc.gov/residents-parksrecreation_facilities_flaherty.aspx,NA,NA,NA,Yes,NA,Yes,NA,Yes,Yes,NA,35.99370193,-78.49114048
John P Top Greene Park,"401 Martin Luther King Jr. Blvd, Raleigh, NC",NA,No,https://raleighnc.gov/places/john-p-top-greene-park,NA,NA,NA,NA,NA,NA,NA,NA,NA,NA,35.76924172,-78.63364565
Kaplan Park,"5208 Kaplan Dr, Raleigh, NC",NA,No,https://raleighnc.gov/places/kaplan-park,NA,NA,NA,NA,NA,NA,NA,NA,NA,NA,35.774636,-78.71127521
Kinton Soccer Fields,"300 West Ransom Street, Fuquay-Vari, NC",NA,No,http://www.fuquay-vari.org/departments-and-services/parks-recreation-and-cultural-resources/parks/kinton-soccer-fields.html,NA,NA,NA,NA,NA,NA,NA,NA,NA,NA,35.57770727,-78.8022543
Knightdale Community Park,"1137 Old Knight Rd, Knightdale, NC",NA,No,http://www.knightdalenc.gov/index.aspx?page=347,NA,NA,NA,NA,NA,Yes,NA,NA,NA,NA,35.81013294,-78.47198074
Knightdale Environmental Park,"1385 N Smithfield Rd, Knightdale, NC",NA,No,http://www.knightdalenc.gov/index.aspx?page=350,NA,NA,NA,NA,NA,NA,NA,NA,Yes,NA,35.80872126,-78.48472719
Lake Johnson ture Preserve,"4601 Avent Ferry Rd, Raleigh, NC",NA,No,https://raleighnc.gov/places/lake-johnson-park,NA,NA,NA,NA,NA,NA,NA,NA,Yes,NA,35.76378057,-78.71407164
Lake Johnson Park,"4601 Avent Ferry Rd, Raleigh, NC",NA,Yes,https://raleighnc.gov/places/lake-johnson-park,NA,NA,NA,NA,NA,NA,NA,NA,Yes,NA,35.76378057,-78.71407164
Lake Johnson Pool,"1416 Athens Dr, Raleigh, NC",NA,Yes,https://raleighnc.gov/places/lake-johnson-pool,NA,NA,NA,NA,NA,NA,NA,NA,NA,NA,35.77016507,-78.71137841
Lassiter Mill Historical Park,"3300 Lassiter Falls Circle, Raleigh, NC",NA,No,NA,NA,NA,NA,NA,NA,NA,NA,NA,NA,NA,35.82568843,-78.64922767
Latta Property,"1001 Parker St, Raleigh, NC",NA,No,https://raleighnc.gov/places/latta-university-historic-park,NA,NA,NA,NA,NA,NA,NA,NA,NA,NA,35.79640721,-78.66241252
Longview Park,"321 Bertie Dr, Raleigh, NC",NA,No,https://raleighnc.gov/places/longview-pool,NA,NA,NA,NA,Yes,NA,NA,NA,NA,NA,35.78430363,-78.61024236
Lt. Col. George F. Marshall Memorial Park,"3970 Blue Ridge Rd, Raleigh, NC",NA,No,https://raleighnc.gov/places/marshall-memorial-park,NA,NA,NA,NA,NA,NA,NA,NA,NA,NA,35.83340617,-78.67918379
MacDold Woods Park,"1601 Seabrook Avenue, Cary, NC",NA,No,http://www.towfcary.org/Departments/Parks__Recreation___Cultural_Resources/Parks_and_Greenways/Parks/MacDold_Woods_Park.htm,NA,NA,NA,NA,NA,NA,NA,NA,NA,NA,35.75513326,-78.76640177
Meeting Place Park,"601 Kildaire Farm Road, Cary, NC",NA,No,http://www.towfcary.org/recreation-enjoyment/parks-greenways-environment/parks/meeting-place-park,NA,NA,NA,NA,NA,NA,NA,NA,NA,NA,35.77979923,-78.78072776
Milburnie,"1101 Old Milburnie Rd, Raleigh, NC",NA,No,http://www.raleighnc.gov/arts_parks/,NA,NA,NA,NA,NA,NA,NA,NA,NA,NA,35.79797207,-78.53552295
Milburnie Park Neuse River Trail Access,"5428 Allen Dr, Raleigh, NC",NA,No,https://www.raleighnc.gov/parks/content/ParksRec/Articles/Greenways/NeuseRiverTrail.html,NA,NA,NA,NA,NA,NA,NA,NA,NA,NA,35.8013569,-78.54093816
Moore Square,"201 South Blount St, Raleigh, NC",NA,No,https://raleighnc.gov/places/moore-square,NA,NA,NA,NA,NA,NA,NA,NA,NA,NA,35.78254057,-78.6363995
Mordecai Historic Park,"1 Mimosa St, Raleigh, NC",NA,Yes,https://raleighnc.gov/places/mordecai-historic-park,NA,NA,NA,NA,NA,NA,NA,NA,NA,NA,35.79257972,-78.63406249
sh Square,"200 S McDowell St, Raleigh, NC",NA,No,NA,NA,NA,NA,NA,NA,NA,NA,NA,NA,NA,35.776954,-78.64196732
New Hope Church Road Trailhead Park,"2575 New Hope Church Road, Cary, NC",NA,Yes,http://www.towfcary.org/recreation-enjoyment/parks-greenways-environment/parks/new-hope-church-road-trailhead-park,NA,NA,NA,NA,NA,NA,NA,NA,Yes,NA,35.81640774,-78.92567773
rth Garner Dog Park,"221 E Garner Rd, Garner, NC",NA,No,http://www.garnernc.gov/departments/parks-recreation-and-cultural-resources/parks/rth-garner-dog-park,NA,NA,NA,NA,NA,NA,NA,Yes,NA,NA,35.70661032,-78.60341361
Oakwood Park,"910 Brookside Dr, Raleigh, NC",NA,Yes,https://raleighnc.gov/places/oakwood-park,NA,NA,NA,NA,NA,Yes,NA,Yes,Yes,NA,35.78935124,-78.6260943
Old Reedy Creek Road Trailhead,"2139 Old Reedy Creek Road, Cary, NC",NA,Yes,http://www.towfcary.org/recreation-enjoyment/parks-greenways-environment/parks/old-reedy-creek-road-trailhead,NA,NA,NA,NA,NA,NA,NA,NA,Yes,NA,35.83838357,-78.78150499
Poole Road Cae Launch,"6451 Poole Rd, Raleigh, NC",NA,No,https://raleighnc.gov/river-access,NA,NA,NA,NA,NA,NA,NA,NA,NA,NA,35.75457581,-78.53510181
Pope House,"511 S Wilmington St, Raleigh, NC",NA,No,https://raleighnc.gov/pope-house,NA,NA,NA,NA,NA,NA,NA,NA,NA,NA,35.77402596,-78.63836623
Preston Soccer Fields,"801 High House Road, Cary, NC",NA,No,http://games.towfcarync.gov/ballfields/displaystatus.php,NA,NA,NA,NA,NA,NA,NA,NA,NA,NA,35.78538434,-78.82075351
Pullen Arts Center,"105 Pullen Rd, Raleigh, NC",NA,No,https://raleighnc.gov/places/pullen-arts-center,NA,NA,NA,NA,NA,Yes,NA,NA,NA,NA,35.78267878,-78.66546481
R.S. Dunham Park,"519 Walnut Street, Cary, NC",NA,Yes,http://www.towfcary.org/Departments/Parks__Recreation___Cultural_Resources/Parks_and_Greenways/Parks/R__S__Dunham_Park.htm,NA,NA,NA,Yes,NA,NA,NA,NA,NA,NA,35.77774217,-78.77101639
Raleigh City Museum,"220 Fayetteville St, Raleigh, NC",NA,No,https://raleighnc.gov/places/city-raleigh-museum,NA,NA,NA,NA,NA,NA,NA,NA,NA,NA,35.7776469,-78.63930236
Ransdell Soccer Fields,"1501 Ideal Lane, Fuquay-Vari, NC",NA,No,http://www.fuquay-vari.org/departments-and-services/parks-recreation-and-cultural-resources/parks/ransdell-soccer-fields.html,NA,NA,NA,NA,NA,NA,NA,NA,NA,NA,35.60002891,-78.75330626
Ridge Road Park,"1709 Ridge Rd, Raleigh, NC",NA,No,https://raleighnc.gov/places/ridge-road-pool,NA,NA,NA,NA,NA,NA,NA,NA,NA,NA,35.81249995,-78.6837604
Robertson Millpond Preserve,"6333RobertsonPond Road, Wendell, NC 27591",NA,No,https://www.wakegov.com/departments-government/parks-recreation-and-open-space/all-parks-trails/robertson-millpond-preserve,NA,NA,NA,NA,NA,NA,NA,NA,NA,NA,35.81692971,-78.41308806
Rose Garden & Raleigh Little Theatre,"301 Pogue St, Raleigh, NC",NA,No,https://raleighnc.gov/places/raleigh-little-theatre-and-rose-garden,NA,NA,NA,NA,NA,NA,NA,NA,Yes,NA,35.79097403,-78.66829043
Rothgeb Park,"2739 Rothgeb Dr, Raleigh, NC",NA,No,https://raleighnc.gov/places/rothgeb-park,NA,NA,NA,NA,NA,NA,NA,NA,NA,NA,35.82062199,-78.64337885
Ruritan Park,"212 Page St, Morrisville, NC 27560",NA,No,https://www.towfmorrisville.org/government/departments-services/parks-recreation-cultural-resources/parks-and-greenways,NA,NA,NA,NA,NA,NA,NA,NA,NA,NA,35.82308276,-78.82612668
Shelley Lake Park,"1400 W Millbrook Rd, Raleigh, NC",NA,Yes,https://raleighnc.gov/places/shelley-lake-park,NA,NA,NA,NA,NA,NA,NA,NA,NA,NA,35.85773822,-78.66627285
The PIT Soccer Field,"301 Stinson Ave., Holly Springs, NC",NA,No,http://www.hollyspringsnc.us/index.aspx?NID=312,NA,NA,NA,NA,NA,NA,NA,NA,NA,NA,35.64594683,-78.83200883
Theatre in the Park (Pullen Park),"107 Pullen Road, Raleigh, NC",NA,No,https://raleighnc.gov/places/theatre-park-pullen-park,NA,NA,NA,NA,NA,NA,NA,NA,NA,NA,35.78264652,-78.66548064
Thomas G. Crowder Woodland Center,"5611 Jaguar Park Dr, Raleigh, NC",NA,No,https://raleighnc.gov/places/thomas-g-crowder-woodland-center,NA,NA,NA,NA,NA,NA,NA,NA,NA,NA,35.76950129,-78.71646958
Thompson Road Park,"550 Thompson Road, Garner NC, 27529",NA,No,http://www.garnernc.gov/Departments/Parks%20and%20Recreation/Parks.aspx?ID=6,NA,NA,NA,NA,NA,NA,NA,NA,NA,NA,35.6831639,-78.63537712
Ting Park,"1151 N. Main St., Holly Springs NC",NA,No,https://www.hollyspringsnc.us/607/Ting-Park,NA,NA,NA,Yes,NA,Yes,NA,NA,NA,NA,35.66680509,-78.83531529
Tucker House,"418 N Person St, Raleigh, NC",NA,No,https://raleighnc.gov/places/tucker-house,NA,NA,NA,NA,NA,NA,NA,NA,NA,NA,35.78572382,-78.63445298
Turnipseed ture Preserve,"7100 Hunt Valley Trail, Wendell NC",NA,No,https://www.wakegov.com/departments-government/parks-recreation-and-open-space/all-parks-trails/turnipseed-ture-preserve,NA,NA,NA,NA,NA,NA,NA,NA,NA,NA,35.7453083,-78.40407405
USA Baseball at Brooks Park,"7445 Green Hope School Road, Cary, NC",NA,Yes,http://www.towfcary.org/recreation-enjoyment/facilities/usa-baseball-tiol-training-complex,NA,NA,NA,NA,NA,Yes,NA,NA,NA,NA,35.80215768,-78.89215553
Vallie Henderson Park,"314 Linden Ave, Raleigh, NC",NA,No,https://raleighnc.gov/places/vallie-henderson-park,NA,NA,NA,NA,NA,NA,NA,NA,NA,NA,35.78373844,-78.62926418
Varnell Park,"2104 Varnell Ave, Raleigh, NC",NA,No,https://raleighnc.gov/places/varnell-park,NA,NA,NA,NA,NA,NA,NA,NA,NA,NA,35.83321153,-78.672416
Veterans Freedom Park,"1517 N Harrison Ave, Cary, NC",NA,No,http://www.towfcary.org/recreation-enjoyment/parks-greenways-environment/parks/veterans-freedom-park,NA,NA,NA,NA,NA,NA,NA,NA,NA,NA,35.82099079,-78.77119119
Wake Forest Reservoir Soft Trails,"1215 Wait Ave, Wake Forest, NC",NA,No,https://www.wakeforestnc.gov/parks-recreation-cultural-resources/greenways/trails/wake-forest-reservoir-soft-trails,NA,NA,NA,NA,NA,NA,NA,NA,NA,NA,35.96902232,-78.48827775
WakeMed Soccer Park,"950 E Chatham Street, Cary, NC",NA,Yes,http://www.towfcary.org/Departments/Parks__Recreation___Cultural_Resources/Facilities/Sports_Facilities/WakeMed_Soccer_Park.htm,NA,NA,NA,NA,NA,NA,NA,NA,NA,NA,35.79061944,-78.75491961
Walnut Creek Softball Complex,"1201 Sunnybrook Rd, Raleigh, NC",NA,No,https://raleighnc.gov/places/walnut-creek-athletic-complex,NA,NA,NA,NA,NA,Yes,NA,NA,NA,NA,35.76406321,-78.58221984
Walnut Creek Wetland Center,"950 Peterson St, Raleigh, NC",NA,Yes,https://raleighnc.gov/places/walnut-creek-wetland-park,NA,NA,NA,NA,NA,NA,NA,NA,NA,NA,35.76062902,-78.62637266
Walnut Terrace Park,"1256 McCauley St, Raleigh, NC",NA,Yes,https://raleighnc.gov/places/walnut-terrace-center,NA,NA,NA,NA,NA,NA,NA,NA,NA,NA,35.76652888,-78.64110051
William B. Umstead State Park - Crabtree Creek Entrance,"8801 Glenwood Avenue, Raleigh, NC 27617",NA,No,http://www.ncparks.gov/Visit/parks/wium/main.php,NA,NA,NA,NA,NA,NA,NA,NA,Yes,NA,35.8888905,-78.74776156
William B. Umstead State Park - Reedy Creek Entrance,"1800 N. Harrison Ave., Cary, NC  27513",NA,No,http://www.ncparks.gov/Visit/parks/wium/main.php,NA,NA,NA,NA,NA,NA,NA,NA,Yes,NA,35.82903574,-78.76896827
Zebulon Community Park,"401 S Arendell Ave, Zebulon, NC",NA,Yes,https://www.towfzebulon.org/services/parks-and-recreation/parks-facilities,NA,NA,NA,NA,NA,NA,NA,NA,NA,NA,35.81733421,-78.30994971
Charles and Ida Graham Park,"8101 OLIVER HAGER RD HUNTERSVILLE, NC 28078",Town Park,No,https://www.huntersville.org/162/Parks-Recreation,NA,NA,NA,NA,NA,NA,NA,NA,NA,NA,35.43125663,-80.90535114
Buckeye Cove Nature Preserve,"4918 CASHION RD HUNTERSVILLE, NC 28078",Nature Preserve,No,https://www.mecknc.gov/parkandrec/pages/home.aspx?redirect=charmeck,NA,NA,NA,NA,NA,NA,NA,NA,NA,NA,35.41028176,-80.94746059
Riverside Drive Park,"1640 RIVERSIDE DR CHARLOTTE, NC 28214",Community,No,https://www.mecknc.gov/parkandrec/pages/home.aspx?redirect=charmeck,NA,NA,NA,NA,NA,NA,NA,NA,NA,NA,35.31923279,-80.98359768
White Park,"16500 DAVIDSON-CONCORD RD DAVIDSON, NC 28078",Town Park,No,https://www.ci.davidson.nc.us/130/Parks-Recreation,NA,NA,NA,NA,NA,NA,NA,NA,NA,NA,35.454945,-80.802379
Reddman Road Park,"6350 REDDMAN RD CHARLOTTE, NC 28212",Community,No,https://www.mecknc.gov/parkandrec/pages/home.aspx?redirect=charmeck,NA,NA,NA,NA,NA,NA,NA,NA,NA,NA,35.20457894,-80.75024972
Dellwood Center,"508 DELLWOOD DR HUNTERSVILLE, NC 28078",Community Center,Yes,https://www.huntersville.org/162/Parks-Recreation,NA,NA,NA,NA,NA,NA,NA,NA,NA,NA,35.40526884,-80.83482865
Eastway Regional Recreation Center,"3150 EASTWAY PARK DR CHARLOTTE, NC 28213",Recreation Center,Yes,https://www.mecknc.gov/parkandrec/pages/home.aspx?redirect=charmeck,NA,NA,Yes,NA,Yes,NA,NA,NA,NA,NA,35.254277,-80.77792126
Pottstown Park,"612 DELLWOOD DR HUNTERSVILLE, NC 28078",Community,No,https://www.mecknc.gov/parkandrec/pages/home.aspx?redirect=charmeck,NA,NA,NA,NA,NA,NA,NA,NA,NA,NA,35.40526884,-80.83482865
Reedy Creek Community Garden,"8832 GRIER RD CHARLOTTE, NC 28215",Community Garden,No,https://www.mecknc.gov/parkandrec/pages/home.aspx?redirect=charmeck,NA,NA,NA,NA,NA,NA,NA,NA,NA,NA,35.24932281,-80.70943591
Clanton Park Community Garden,"3010 REVOLUTION PARK DR CHARLOTTE, NC 28217",Community Garden,No,https://www.mecknc.gov/parkandrec/pages/home.aspx?redirect=charmeck,NA,NA,NA,NA,NA,NA,NA,NA,NA,NA,35.20759874,-80.88293188
Charles L. Sifford Golf Course,"2661 REVOLUTION PARK DR CHARLOTTE, NC 28208",Golf Course,Yes,https://www.mecknc.gov/parkandrec/pages/home.aspx?redirect=charmeck,NA,NA,NA,NA,NA,NA,NA,NA,NA,NA,35.21227425,-80.87992296
Lake Fisher Reservoir,"5090 Fisher Rd , Kannapolis NC",Park,Yes,https://www.concordnc.gov/Departments/Parks-Recreation/Facilities/Lake-Fisher,NA,NA,NA,NA,NA,NA,NA,NA,NA,NA,35.48491886,-80.57896339
Lake Fisher Reservoir,"5090 Fisher Rd , Kannapolis NC",Park,Yes,https://www.concordnc.gov/Departments/Parks-Recreation/Facilities/Lake-Fisher,NA,NA,NA,NA,NA,NA,NA,NA,NA,NA,35.48491886,-80.57896339
Sandy Creek Park,"3510 Sandy Creek Dr, Durham NC",Park,Yes,https://www.dprplaymore.org/Facilities/Facility/Details/Sandy-Creek-Park-63,NA,NA,NA,NA,NA,NA,NA,NA,Yes,NA,35.96989834,-78.96298216
River Forest Park,"1000 Windermere Dr,Durham  NC",Park,No,https://www.dprplaymore.org/Facilities/Facility/Details/River-Forest-Park-59,NA,Yes,Yes,NA,NA,NA,NA,NA,Yes,NA,36.07830139,-78.90343265
Lake Michie Recreation Area,"2235 Bahama Rd, Durham NC",Park,Yes,NA,NA,NA,NA,NA,NA,NA,NA,NA,Yes,NA,36.17067951,-78.86585431
Holly Grove Campground,"163 Archery Range Rd, Durham NC",Park,No,https://www.dprplaymore.org/Facilities/Facility/Details/Holly-Grove-Area-35,NA,NA,NA,NA,NA,NA,NA,NA,Yes,NA,36.1660723,-78.8590939
Wilkins Road Park,"9301 Wilkins Rd, Durham NC",Park,Yes,https://www.dprplaymore.org/Facilities/Facility/Details/Wilkins-Road-Park-81,NA,NA,NA,NA,NA,NA,NA,NA,Yes,NA,36.17596293,-78.86243974
Lake Michie Boating Area,"2802 Bahama Rd, Durham NC",Park,Yes,https://www.dprplaymore.org/Facilities/Facility/Details/Lake-Michie-Boathouse-38,NA,NA,NA,NA,NA,NA,NA,NA,Yes,NA,36.17250936,-78.85772626
Lake Michie Overlook Park,"2527 Bahama Rd, Durham NC",Park,No,NA,NA,NA,NA,NA,NA,NA,NA,NA,NA,NA,36.17387371,-78.85980375
Anderson Point River Access,"20 Anderson Point Dr, Raleigh, NC",NA,No,https://raleighnc.gov/places/anderson-point-park,NA,NA,NA,NA,NA,NA,NA,NA,NA,NA,35.77324005,-78.54288475
Apex Community Park (Lake Trail),2101 Lake Pine Drive  Apex NC,NA,Yes,https://www.apexnc.org/795/Apex-Community-Park,NA,NA,NA,NA,NA,NA,NA,NA,NA,NA,35.74443298,-78.82086074
Bass Lake Park,"900 Bass Lake Rd., Holly Springs, NC",NA,No,http://www.hollyspringsnc.us/index.aspx?NID=320,NA,NA,NA,NA,NA,NA,NA,NA,Yes,NA,35.64654591,-78.81567931
Cloverdale Park,"1603 Meadowbrook Dr, Garner, NC 27529",NA,No,https://www.garnernc.gov/departments/ecomic-development/living-here/recreation-and-cultural-resources,NA,NA,NA,NA,NA,NA,NA,NA,NA,NA,35.72508101,-78.61976568
Heritage High Park,"1140 Forestville Rd, Wake Forest, NC",NA,Yes,http://www.wakeforestnc.gov/heritage-high-park.aspx,NA,NA,NA,Yes,NA,Yes,NA,NA,NA,NA,35.94013433,-78.50736478
Koka Booth Amphitheatre,"8003 Regency Parkway, Cary, NC",NA,Yes,http://boothamphitheatre.com/,NA,NA,NA,NA,NA,NA,NA,NA,NA,NA,35.72881685,-78.79533453
Mingo Creek Park,"100 Parkside Commons Drive, Knightdale, NC",NA,No,http://www.knightdalenc.gov/index.aspx?page=354,NA,NA,NA,NA,NA,NA,NA,NA,NA,NA,35.79409142,-78.49611547
Mitchell Mill State tural Area,"5129 Zebulon Rd, Zebulon, NC",NA,No,https://www.ncparks.gov/falls-lake-state-recreation-area/history,NA,NA,NA,NA,NA,NA,NA,NA,NA,NA,35.87959433,-78.36528985
Morrisville Aquatics and Fitness Center,"1301 Morrisville Pkwy, Morrisville, NC",NA,Yes,https://www.towfmorrisville.org/government/departments-services/parks-recreation-cultural-resources/morrisville-aquatics-and-fitness-center,NA,NA,NA,Yes,NA,NA,NA,NA,NA,NA,35.8099935,-78.8405269
Rodgers Family Skate Plaza at Trackside,"1290 Ambergate Station, Apex NC",NA,Yes,https://www.apexnc.org/485/Trackside-Skate-Plaza,NA,NA,NA,NA,NA,NA,NA,NA,NA,NA,35.73798268,-78.84676554
Symphony Lake Park,"8003 Regency Pkwy., Cary, NC 27518",NA,No,http://www.towfcary.org/recreation-enjoyment/parks-greenways-environment/greenways/symphony-lake-greenway,NA,NA,NA,NA,NA,NA,NA,NA,NA,NA,35.72881685,-78.79533453
Little River Park,"1800 W Gann Ave, Zebulon, NC",NA,No,https://www.towfzebulon.org/services/parks-and-recreation/parks-facilities,NA,NA,NA,NA,NA,NA,NA,NA,NA,NA,35.822054,-78.353573
William Freeman Park,"210 Lawrence Street, Fuquay-Vari, NC",NA,No,http://www.fuquay-vari.org/departments-and-services/parks-recreation-and-cultural-resources/parks/lawrence-street-park.html,NA,NA,NA,NA,NA,NA,NA,NA,NA,NA,35.587016,-78.805825
Eastfield Park,"13729 EASTFIELD RD HUNTERSVILLE, NC 28078",Regional,No,https://parkandrec.mecknc.gov/current-projects/park-projects/eastfield-park,NA,NA,NA,NA,NA,NA,NA,NA,NA,NA,36.002613,-78.859086
Five Points Center for Active Adults,"2000 ble Rd, Raleigh, NC",NA,No,https://raleighnc.gov/places/five-points-center-active-adults,NA,NA,NA,NA,NA,NA,NA,NA,NA,NA,35.80838459,-78.63561983
Sw Hill Road Park,"619 Sw Hill Rd, Durham NC",Park,No,https://www.dprplaymore.org/Facilities/Facility/Details/Sw-Hill-Road-Park-66,NA,Yes,NA,NA,NA,Yes,NA,NA,NA,NA,36.11068,-78.89044
Herbert C. Young Community Center,"316 rth Academy Street, Cary, NC",NA,No,http://www.towfcary.org/Departments/Parks__Recreation___Cultural_Resources/Facilities/Community_Centers/Herbert_C__Young_Community_Center.htm,NA,NA,NA,NA,NA,NA,NA,NA,NA,NA,35.789595,-78.78062
Black Creek Greenway Trailhead,"2055 NW Mayrd Road, Cary, NC",NA,No,http://www.towfcary.org/recreation-enjoyment/parks-greenways-environment/greenways/black-creek-greenway,NA,NA,NA,NA,NA,NA,NA,NA,NA,NA,35.801406,-78.791817
Mill Bridge ture Park,"425 ture Park Drive, Wake Forest, NC",NA,No,http://rolesvillenc.gov/town-departments/parks-recreation/parks-facilities/,NA,NA,NA,NA,NA,NA,NA,NA,NA,NA,35.933967,-78.483786
Falls Lake State Recreation Area - B.W. Wells Rec Area Entrance,"1630 Bent Rd, Wake Forest NC",NA,No,https://www.ncparks.gov/falls-lake-state-recreation-area,NA,NA,NA,NA,NA,NA,NA,NA,NA,NA,36.01758,-78.686184
Sandy Pines Preserve,"7201 Doc Proctor Rd, Wendell, NC 27591",NA,No,https://www.wakegov.com/departments-government/parks-recreation-open-space/all-parks-trails/sandy-pines-preserve,NA,NA,NA,NA,NA,NA,NA,NA,NA,NA,35.831045,-78.390001
Veterans Park - City of Kanpolis,"119 Main St,  Kannapolis, NC",Municipal Park,No,http://www.kanpolisnc.gov/GovernmentDepartments/ParksRecreation/Parks/tabid/131/Default.aspx,NA,NA,NA,NA,NA,NA,NA,NA,NA,NA,35.498456,-80.623884
Haymarket Nature Preserve,"11634 BROOKSHIRE BV CHARLOTTE, NC 28214",Nature Preserve,No,https://www.mecknc.gov/parkandrec/pages/home.aspx?redirect=charmeck,NA,NA,NA,NA,NA,NA,NA,NA,NA,NA,35.342724,-80.962842
James Hoyt Wilhelm Park,"19018 SMITH CR CORNELIUS, NC 28031",Town Park,Yes,https://www.cornelius.org/103/Parks-Arts-Recreation-Culture,NA,NA,Yes,NA,NA,Yes,NA,NA,NA,NA,35.480885,-80.864699
Caldwell Park,"6301 CALDWELL PARK DR CHARLOTTE, NC 28213",Neighborhood,No,https://www.mecknc.gov/parkandrec/pages/home.aspx?redirect=charmeck,NA,NA,NA,NA,NA,NA,NA,NA,NA,NA,35.310887,-80.687191
University Meadows Park,"1705 PAVILION BV CHARLOTTE, NC 28262",Neighborhood,No,https://www.mecknc.gov/parkandrec/pages/home.aspx?redirect=charmeck,NA,NA,NA,NA,NA,NA,NA,NA,NA,NA,35.313541,-80.713158
Mecklenburg County Aquatic Center,"800 E MARTIN LUTHER KING JR BV CHARLOTTE, NC 28202",Aquatic Center,Yes,https://www.mecknc.gov/parkandrec/pages/home.aspx?redirect=charmeck,NA,NA,NA,NA,NA,NA,NA,NA,NA,NA,35.217319,-80.840706
Second Ward Gymnasium,"710 E MARTIN LUTHER KING JR BV CHARLOTTE, NC 28202",Recreation Center,Yes,https://www.mecknc.gov/parkandrec/pages/home.aspx?redirect=charmeck,NA,NA,Yes,NA,NA,NA,NA,NA,NA,NA,35.218073,-80.840814
Fuquay-Vari Downtown Dog Park,"110 Woodland Drive, Fuquay-Vari, NC",NA,No,http://www.fuquay-vari.org/departments-and-services/parks-recreation-and-cultural-resources/parks/dog-park.html,NA,NA,NA,NA,NA,NA,NA,Yes,NA,NA,35.583051,-78.804481
Jones Park,"405 School Days Ln., Holly Springs, NC",NA,No,http://www.hollyspringsnc.us/index.aspx?NID=328,NA,NA,NA,NA,NA,NA,NA,NA,NA,NA,35.737776,-78.902547
Lexie Lane Park,"301 N Dixon Street, Cary, NC",NA,Yes,http://www.towfcary.org/Departments/Parks__Recreation___Cultural_Resources/Parks_and_Greenways/Parks/Lexie_Lane_Park.htm,NA,NA,NA,NA,NA,Yes,NA,NA,NA,NA,35.788974,-78.789374
Campbell Creek Park,"6601 BARCLIFF DR CHARLOTTE, NC 28212",Community,No,https://www.mecknc.gov/parkandrec/pages/home.aspx?redirect=charmeck,Yes,NA,NA,NA,NA,NA,NA,NA,Yes,NA,35.21557229,-80.7350293
Camp Greene Park,"1221 ALLEGHANY ST CHARLOTTE, NC 28208",Community,Yes,https://www.mecknc.gov/parkandrec/pages/home.aspx?redirect=charmeck,Yes,NA,Yes,NA,NA,NA,NA,NA,NA,NA,35.23773693,-80.88869823
Lincoln Heights Park,"1819 CATHERINE SIMMONS AV CHARLOTTE, NC 28216",Neighborhood,No,https://www.mecknc.gov/parkandrec/pages/home.aspx?redirect=charmeck,Yes,NA,Yes,NA,NA,NA,NA,NA,Yes,NA,35.26332247,-80.84842287
EB Moore Park,"901 MARSH RD CHARLOTTE, NC 28209",Neighborhood,Yes,https://www.mecknc.gov/parkandrec/pages/home.aspx?redirect=charmeck,Yes,NA,NA,Yes,NA,NA,NA,NA,NA,NA,35.1876859,-80.85846427
Solomans Park,"3299 VENICE ST CHARLOTTE, NC 28216",Neighborhood,No,https://www.mecknc.gov/parkandrec/pages/home.aspx?redirect=charmeck,Yes,NA,Yes,NA,NA,NA,NA,NA,Yes,NA,35.26088666,-80.87117373
West Charlotte Park,"2401 KENDALL DR CHARLOTTE, NC 28216",Neighborhood,No,https://www.mecknc.gov/parkandrec/pages/home.aspx?redirect=charmeck,Yes,NA,Yes,NA,NA,NA,NA,NA,Yes,Yes,35.26860158,-80.85669272
Tom Hunter Park,"919 TOM HUNTER RD CHARLOTTE, NC 28213",Neighborhood,No,https://www.mecknc.gov/parkandrec/pages/home.aspx?redirect=charmeck,Yes,NA,Yes,NA,NA,NA,NA,NA,Yes,NA,35.2782432,-80.7814112
Ramblewood Soccer Complex,"10200 NATIONS FORD RD CHARLOTTE, NC 28273",Community,Yes,https://www.mecknc.gov/parkandrec/pages/home.aspx?redirect=charmeck,Yes,NA,Yes,NA,NA,Yes,NA,NA,NA,NA,35.12047477,-80.90342041
Unity Park,"6401 KELSEY DR CHARLOTTE, NC 28215",Neighborhood,No,https://www.mecknc.gov/parkandrec/pages/home.aspx?redirect=charmeck,Yes,NA,NA,Yes,NA,NA,NA,NA,NA,NA,35.25401789,-80.75338873
Wilmore Centennial Park at Southend,"1711 S TRYON ST CHARLOTTE, NC 28203",Neighborhood,No,https://www.mecknc.gov/parkandrec/pages/home.aspx?redirect=charmeck,Yes,NA,NA,NA,NA,NA,NA,NA,Yes,NA,35.21453018,-80.86025255
Greenville Park,"1232 SPRING ST CHARLOTTE, NC 28206",Neighborhood,No,https://www.mecknc.gov/parkandrec/pages/home.aspx?redirect=charmeck,Yes,NA,Yes,NA,NA,Yes,NA,NA,NA,NA,35.24524227,-80.84363766
Friendship Sportsplex,"2310 CINDY LN CHARLOTTE, NC 28216",Regional,Yes,https://www.mecknc.gov/parkandrec/pages/home.aspx?redirect=charmeck,Yes,NA,NA,NA,NA,Yes,NA,NA,NA,NA,35.28343774,-80.85280261
Progress Park,"1301 PARKWOOD AV CHARLOTTE, NC 28205",Neighborhood,No,https://www.mecknc.gov/parkandrec/pages/home.aspx?redirect=charmeck,Yes,NA,NA,NA,NA,NA,NA,NA,NA,NA,35.23314244,-80.81260464
Clarks Creek Greenway Park,"9715 MALLARD CREEK RD CHARLOTTE, NC 28269",Neighborhood,No,https://www.mecknc.gov/parkandrec/pages/home.aspx?redirect=charmeck,Yes,NA,NA,NA,NA,NA,NA,NA,NA,NA,35.33386079,-80.77317692
Reedy Creek Park,"2900 ROCKY RIVER RD CHARLOTTE, NC 28215",Regional,Yes,https://www.mecknc.gov/parkandrec/pages/home.aspx?redirect=charmeck,Yes,NA,Yes,NA,Yes,Yes,Yes,Yes,NA,NA,35.27599468,-80.71807255
Clanton Park,"1520 CLANTON RD CHARLOTTE, NC 28217",Community,Yes,https://www.mecknc.gov/parkandrec/pages/home.aspx?redirect=charmeck,Yes,NA,Yes,NA,NA,Yes,NA,NA,NA,NA,35.20662524,-80.89361304
Dowd Park,"2521 GREENLAND AV CHARLOTTE, NC 28208",Neighborhood,No,https://www.mecknc.gov/parkandrec/pages/home.aspx?redirect=charmeck,Yes,NA,NA,NA,NA,NA,NA,NA,Yes,NA,35.22592759,-80.88226878
Grayson Park,"750 BEAL ST CHARLOTTE, NC 28211",Neighborhood,No,https://www.mecknc.gov/parkandrec/pages/home.aspx?redirect=charmeck,Yes,NA,Yes,Yes,NA,Yes,NA,NA,NA,NA,35.19039483,-80.79653044
Oakhurst Park,"3533 CRAIG AV CHARLOTTE, NC 28211",Neighborhood,No,https://www.mecknc.gov/parkandrec/pages/home.aspx?redirect=charmeck,Yes,NA,Yes,NA,NA,Yes,NA,NA,Yes,NA,35.1911805,-80.78964427
Little Peoples Park,"1120 HARRILL ST CHARLOTTE, NC 28205",Neighborhood,No,https://www.mecknc.gov/parkandrec/pages/home.aspx?redirect=charmeck,Yes,NA,NA,NA,NA,NA,NA,NA,NA,NA,35.22798792,-80.82090819
Eastway Park,"423 EASTWAY DR CHARLOTTE, NC 28215",Community,Yes,https://www.mecknc.gov/parkandrec/pages/home.aspx?redirect=charmeck,Yes,NA,Yes,NA,Yes,NA,NA,NA,Yes,NA,35.25204519,-80.78037755
Roosevelt Wilson Park,"420 GRIFFITH ST DAVIDSON, NC 28036",Town Park,Yes,https://www.ci.davidson.nc.us/130/Parks-Recreation,Yes,NA,NA,NA,NA,NA,NA,NA,Yes,NA,35.50292835,-80.85357316
Mary Beaty Tot Lot,"128 S MAIN ST DAVIDSON, NC 28036",Town Park,No,https://www.ci.davidson.nc.us/130/Parks-Recreation,Yes,NA,NA,NA,NA,NA,NA,NA,NA,NA,35.49887203,-80.84870781
Forest Park Playground,"421 N FAULKNER WY DAVIDSON, NC 28036",Town Park,No,https://www.ci.davidson.nc.us/130/Parks-Recreation,Yes,NA,NA,NA,NA,NA,NA,NA,Yes,NA,35.49464562,-80.82878472
Parham Gateway Park,"710 LAKE PARK DR DAVIDSON, NC 28036",Town Park,No,https://www.ci.davidson.nc.us/130/Parks-Recreation,Yes,NA,NA,NA,NA,NA,NA,NA,Yes,NA,35.49917503,-80.8630003
Methodist Home Park,"3200 SHAMROCK DR CHARLOTTE, NC 28205",Neighborhood,No,https://www.mecknc.gov/parkandrec/pages/home.aspx?redirect=charmeck,Yes,NA,Yes,NA,NA,Yes,NA,NA,Yes,NA,35.23486078,-80.77167743
Pressley Road Park,"1431 PRESSLEY RD CHARLOTTE, NC 28217",Neighborhood,No,https://www.mecknc.gov/parkandrec/pages/home.aspx?redirect=charmeck,Yes,NA,NA,NA,NA,NA,NA,NA,NA,NA,35.19648964,-80.89301502
Legion Park,"21214 LEGION ST CORNELIUS, NC 28031",Town Park,Yes,https://www.cornelius.org/103/Parks-Arts-Recreation-Culture,Yes,NA,NA,NA,NA,Yes,NA,NA,NA,NA,35.48749728,-80.86088292
Smithville Park,"19710 FERRY ST CORNELIUS, NC 28031",Town Park,Yes,https://www.cornelius.org/103/Parks-Arts-Recreation-Culture,Yes,NA,NA,NA,NA,Yes,NA,NA,Yes,Yes,35.48218712,-80.86975887
Torrence Chapel Park,"21309 TORRENCE CHAPEL RD CORNELIUS, NC 28031",Town Park,Yes,https://www.cornelius.org/103/Parks-Arts-Recreation-Culture,Yes,NA,Yes,Yes,NA,Yes,NA,NA,Yes,NA,35.49186041,-80.87831702
Westmoreland Athletic Complex,"8430 WESTMORELAND RD CORNELIUS, NC 28031",Town Park,Yes,https://www.cornelius.org/103/Parks-Arts-Recreation-Culture,Yes,NA,NA,NA,NA,Yes,NA,NA,Yes,NA,35.46148533,-80.88440406
Yacht Club Park Playground,"18625 HARBOR LIGHT BV CORNELIUS, NC 28031",Town Park,No,https://www.cornelius.org/103/Parks-Arts-Recreation-Culture,Yes,NA,NA,NA,NA,NA,NA,NA,NA,NA,35.468437,-80.93308769
Jetton Park,"19000 JETTON RD CORNELIUS, NC 28078",Regional,Yes,https://www.mecknc.gov/parkandrec/pages/home.aspx?redirect=charmeck,Yes,NA,NA,Yes,NA,NA,NA,NA,Yes,NA,35.47588109,-80.90036262
Southside Park,"645 REMOUNT RD CHARLOTTE, NC 28203",Community,No,https://www.mecknc.gov/parkandrec/pages/home.aspx?redirect=charmeck,Yes,NA,Yes,NA,NA,NA,NA,NA,NA,NA,35.20825804,-80.87279274
Devonshire Park,"6330 BARRINGTON DR CHARLOTTE, NC 28215",Neighborhood,No,https://www.mecknc.gov/parkandrec/pages/home.aspx?redirect=charmeck,Yes,NA,NA,NA,NA,NA,NA,NA,NA,NA,35.24823668,-80.74576999
Theresea C. Elder Park,"6325 ROCKWELL CHURCH RD CHARLOTTE, NC 28269",Neighborhood,No,https://www.mecknc.gov/parkandrec/pages/home.aspx?redirect=charmeck,Yes,NA,Yes,NA,NA,NA,NA,NA,NA,NA,35.30548575,-80.80046174
Carmel Road Park,"2365 CARMEL RD CHARLOTTE, NC 28226",Neighborhood,Yes,https://www.mecknc.gov/parkandrec/pages/home.aspx?redirect=charmeck,Yes,NA,Yes,Yes,NA,Yes,NA,NA,NA,NA,35.13450706,-80.8063646
Pearl Street Park,"602 KENILWORTH AV CHARLOTTE, NC 28204",Neighborhood,Yes,https://www.mecknc.gov/parkandrec/pages/home.aspx?redirect=charmeck,Yes,NA,Yes,NA,NA,NA,NA,NA,NA,NA,35.21128821,-80.83716534
Olde Providence Park,"3800 REA RD CHARLOTTE, NC 28226",Community,No,https://www.mecknc.gov/parkandrec/pages/home.aspx?redirect=charmeck,Yes,NA,Yes,NA,NA,Yes,NA,NA,NA,NA,35.10984728,-80.79843485
Tryon Hills Park,"220 W 30TH ST CHARLOTTE, NC 28206",Neighborhood,No,https://www.mecknc.gov/parkandrec/pages/home.aspx?redirect=charmeck,Yes,NA,Yes,NA,NA,NA,NA,NA,NA,NA,35.24990314,-80.81711204
Seversville Park,"540 S BRUNS AV CHARLOTTE, NC 28217",Neighborhood,No,https://www.mecknc.gov/parkandrec/pages/home.aspx?redirect=charmeck,Yes,NA,NA,NA,NA,NA,NA,NA,Yes,NA,35.23936151,-80.86576938
T.M. Winget Park,"12025 WINGET RD CHARLOTTE, NC 28278",Regional,Yes,https://www.mecknc.gov/parkandrec/pages/home.aspx?redirect=charmeck,Yes,NA,Yes,NA,Yes,Yes,Yes,NA,Yes,NA,35.13011102,-81.00153666
Mecklenburg County Regional Sportsplex,"2425 SPORTS PY MATTHEWS, NC 28105",Regional,Yes,https://www.mecknc.gov/parkandrec/pages/home.aspx?redirect=charmeck,Yes,NA,NA,NA,NA,NA,NA,NA,NA,NA,35.1124134,-80.69833179
Berewick Park,"5920 DIXIE RIVER RD CHARLOTTE, NC 28208",Regional,Yes,https://www.mecknc.gov/parkandrec/pages/home.aspx?redirect=charmeck,Yes,NA,NA,NA,NA,Yes,NA,NA,NA,NA,35.17315788,-80.97881554
Westerly Hills Park,"3970 BRISTOL DR CHARLOTTE, NC 28208",Neighborhood,No,https://www.mecknc.gov/parkandrec/pages/home.aspx?redirect=charmeck,Yes,NA,Yes,NA,NA,NA,NA,NA,NA,NA,35.23015567,-80.90364655
Wilmore Park,"900 SPRUCE ST CHARLOTTE, NC 28203",Neighborhood,No,https://www.mecknc.gov/parkandrec/pages/home.aspx?redirect=charmeck,Yes,NA,NA,NA,NA,NA,NA,NA,NA,NA,35.22109211,-80.8676105
Chantilly Park,"222 WYANOKE AV CHARLOTTE, NC 28205",Neighborhood,No,https://www.mecknc.gov/parkandrec/pages/home.aspx?redirect=charmeck,Yes,NA,NA,NA,Yes,NA,NA,NA,Yes,NA,35.20885434,-80.80989632
Tuckaseegee Park,"4820 TUCKASEEGEE RD CHARLOTTE, NC 28208",Neighborhood,Yes,https://www.mecknc.gov/parkandrec/pages/home.aspx?redirect=charmeck,Yes,NA,Yes,Yes,NA,Yes,NA,NA,NA,NA,35.24806972,-80.90678519
Frazier Park,"1201 W 4TH ST EXT CHARLOTTE, NC 28202",Neighborhood,No,https://www.mecknc.gov/parkandrec/pages/home.aspx?redirect=charmeck,Yes,NA,Yes,Yes,NA,NA,NA,Yes,NA,NA,35.23277179,-80.85318708
Julian Underwood Park,"5400 GALWAY DR CHARLOTTE, NC 28215",Neighborhood,No,https://www.mecknc.gov/parkandrec/pages/home.aspx?redirect=charmeck,Yes,NA,NA,NA,NA,NA,NA,NA,NA,NA,35.2417576,-80.7576898
York Road Palisades Park,"15321 YORK RD CHARLOTTE, NC 28278",Neighborhood,No,https://www.mecknc.gov/parkandrec/pages/home.aspx?redirect=charmeck,Yes,NA,NA,NA,NA,NA,NA,NA,NA,NA,35.09423086,-81.02610694
Tyvola Senior Center,"2225 TYVOLA RD CHARLOTTE, NC 28210",Senior Center,Yes,https://www.mecknc.gov/parkandrec/pages/home.aspx?redirect=charmeck,Yes,NA,NA,NA,NA,NA,NA,NA,NA,NA,35.15915374,-80.85842271
Lakewood Park,"3207 KALYNNE ST CHARLOTTE, NC 28208",Neighborhood,No,https://www.mecknc.gov/parkandrec/pages/home.aspx?redirect=charmeck,Yes,NA,Yes,NA,NA,Yes,NA,NA,NA,NA,35.25291206,-80.87844343
Pineville Lake Park,"909 LAKEVIEW DR PINEVILLE, NC 28134",Town Park,Yes,http://www.pinevillenc.gov/Departments/ParksRecreaton/tabid/103/Default.aspx,Yes,NA,Yes,NA,NA,NA,NA,Yes,NA,Yes,35.08002759,-80.89491968
Holbrook Park,"100 SHERWOOD DR HUNTERSVILLE, NC 28078",Town Park,Yes,https://www.huntersville.org/162/Parks-Recreation,Yes,NA,NA,Yes,NA,NA,NA,NA,NA,NA,35.4107923,-80.84525476
Archdale Park,"5400 CHERRYCREST LN CHARLOTTE, NC 28217",Neighborhood,No,https://www.mecknc.gov/parkandrec/pages/home.aspx?redirect=charmeck,Yes,NA,Yes,NA,NA,NA,NA,NA,NA,NA,35.15120328,-80.88686996
Rays Splash Planet,"215 N SYCAMORE ST CHARLOTTE, NC 28202",Aquatic Center,Yes,https://www.mecknc.gov/parkandrec/pages/home.aspx?redirect=charmeck,Yes,NA,NA,NA,NA,NA,NA,NA,Yes,NA,35.23669114,-80.85253161
Double Oaks Park,"2603 DOUBLE OAKS RD CHARLOTTE, NC 28206",Neighborhood,No,https://www.mecknc.gov/parkandrec/pages/home.aspx?redirect=charmeck,Yes,NA,NA,NA,NA,NA,NA,NA,NA,NA,35.25557109,-80.83893906
Steele Creek Park,"4000 GALLANT LN CHARLOTTE, NC 28273",Neighborhood,No,https://www.mecknc.gov/parkandrec/pages/home.aspx?redirect=charmeck,Yes,NA,NA,NA,NA,NA,NA,NA,Yes,NA,35.15208665,-80.95772676
Kilborne Park,"2600 KILBORNE DR CHARLOTTE, NC 28205",Community,Yes,https://www.mecknc.gov/parkandrec/pages/home.aspx?redirect=charmeck,Yes,NA,NA,Yes,NA,Yes,Yes,NA,NA,NA,35.22185652,-80.77132357
Wingate Park,"2721 MAYFAIR AV CHARLOTTE, NC 28208",Neighborhood,No,https://www.mecknc.gov/parkandrec/pages/home.aspx?redirect=charmeck,Yes,NA,Yes,NA,NA,NA,NA,NA,NA,NA,35.21380007,-80.90821712
North Charlotte Park,"3400 SPENCER ST CHARLOTTE, NC 28205",Neighborhood,No,https://www.mecknc.gov/parkandrec/pages/home.aspx?redirect=charmeck,Yes,NA,Yes,NA,NA,NA,NA,NA,Yes,NA,35.24603721,-80.79784088
Huntersville Athletic Park,"11836 VERHOEFF DR HUNTERSVILLE, NC 28078",Town Park,Yes,https://www.huntersville.org/162/Parks-Recreation,Yes,NA,NA,NA,NA,Yes,NA,NA,NA,NA,35.3914994,-80.8470696
Baucom Park,"601 SADIE DR MATTHEWS, NC 28105",Town Park,No,https://www.matthewsnc.gov/pview.aspx?id=20727&catid=0,Yes,NA,NA,NA,NA,NA,NA,NA,NA,NA,35.11140235,-80.7180233
Colonial Park,"219 PROVIDENCE RD CHARLOTTE, NC 28207",Neighborhood,No,https://www.mecknc.gov/parkandrec/pages/home.aspx?redirect=charmeck,Yes,NA,Yes,Yes,NA,NA,NA,NA,NA,NA,35.2075702,-80.82413244
Briarwood Park,"5349 WATERWOOD ST CHARLOTTE, NC 28215",Community,Yes,https://www.mecknc.gov/parkandrec/pages/home.aspx?redirect=charmeck,Yes,NA,NA,NA,NA,Yes,NA,NA,NA,NA,35.25447129,-80.76666217
William R. Davie Park,"4635 PINEVILLE-MATTHEWS RD CHARLOTTE, NC 28226",Regional,Yes,https://www.mecknc.gov/parkandrec/pages/home.aspx?redirect=charmeck,Yes,NA,Yes,NA,Yes,Yes,NA,Yes,Yes,NA,35.08935388,-80.80600397
Sedgefield Park,"600 ELMHURST RD CHARLOTTE, NC 28209",Neighborhood,No,https://www.mecknc.gov/parkandrec/pages/home.aspx?redirect=charmeck,Yes,NA,Yes,Yes,NA,NA,NA,NA,Yes,NA,35.19775738,-80.85966344
Shamrock Park,"2545 JEFF ST CHARLOTTE, NC 28205",Neighborhood,No,https://www.mecknc.gov/parkandrec/pages/home.aspx?redirect=charmeck,Yes,NA,NA,Yes,NA,NA,NA,NA,Yes,NA,35.23407898,-80.78324648
Derita Park,"3509 FREW RD CHARLOTTE, NC 28206",Community,No,https://www.mecknc.gov/parkandrec/pages/home.aspx?redirect=charmeck,Yes,NA,Yes,NA,NA,NA,NA,NA,Yes,NA,35.25804114,-80.80682326
Rice Park,"2540 RICE RD MATTHEWS, NC 28105",Town Park,No,https://www.matthewsnc.gov/pview.aspx?id=20727&catid=0,Yes,NA,NA,NA,NA,NA,NA,NA,Yes,NA,35.13986785,-80.70586984
Veterans Park,"2136 CENTRAL AV CHARLOTTE, NC 28205",Neighborhood,Yes,https://www.mecknc.gov/parkandrec/pages/home.aspx?redirect=charmeck,Yes,NA,Yes,Yes,NA,Yes,NA,NA,Yes,Yes,35.21976866,-80.80493509
Waddell Street Park,"1505 WADDELL ST CHARLOTTE, NC 28216",Neighborhood,No,https://www.mecknc.gov/parkandrec/pages/home.aspx?redirect=charmeck,Yes,NA,Yes,NA,NA,NA,NA,NA,NA,NA,35.25491077,-80.84597537
Huntingtowne Farms Park,"2200 RAMBLEWOOD LN CHARLOTTE, NC 28210",Community,No,https://www.mecknc.gov/parkandrec/pages/home.aspx?redirect=charmeck,Yes,NA,Yes,Yes,NA,NA,NA,NA,Yes,NA,35.12777994,-80.86357945
First Ward Park,"309 E 7TH ST CHARLOTTE, NC 28202",Neighborhood,No,https://www.mecknc.gov/parkandrec/pages/home.aspx?redirect=charmeck,Yes,NA,NA,NA,NA,NA,NA,NA,NA,Yes,35.22758521,-80.83743827
Delta Creek Park,"7300 LINDA LAKE DR CHARLOTTE, NC 28215",Neighborhood,No,https://www.mecknc.gov/parkandrec/pages/home.aspx?redirect=charmeck,Yes,NA,NA,NA,NA,NA,NA,NA,Yes,NA,35.24497362,-80.72859508
Alexander Park,"739 E 12TH ST CHARLOTTE, NC 28206",Neighborhood,Yes,https://www.mecknc.gov/parkandrec/pages/home.aspx?redirect=charmeck,Yes,NA,Yes,Yes,NA,NA,NA,NA,NA,NA,35.22727242,-80.82777688
Cherry Park,"501 S TORRENCE ST CHARLOTTE, NC 28204",Neighborhood,No,https://www.mecknc.gov/parkandrec/pages/home.aspx?redirect=charmeck,Yes,NA,Yes,NA,NA,Yes,NA,NA,NA,NA,35.21029734,-80.83282754
Matthews-Sardis Park,"9650 SARDIS RD MATTHEWS, NC 28105",Town Park,Yes,https://www.matthewsnc.gov/pview.aspx?id=20727&catid=0,Yes,NA,NA,NA,NA,NA,NA,NA,Yes,NA,35.12005605,-80.74352137
Squirrel Lake Park,"1631 PLEASANT PLAINS RD MATTHEWS, NC 28105",Town Park,Yes,https://www.matthewsnc.gov/pview.aspx?id=20727&catid=0,Yes,NA,NA,NA,NA,NA,Yes,NA,Yes,NA,35.09805519,-80.72482901
Stumptown Park,"120 S TRADE ST MATTHEWS, NC 28105",Town Park,Yes,https://www.matthewsnc.gov/pview.aspx?id=20727&catid=0,Yes,NA,NA,NA,Yes,NA,NA,NA,Yes,NA,35.11479795,-80.72362428
Windsor Park,"10150 NORTHEAST PY MATTHEWS, NC 28105",Town Park,Yes,https://www.matthewsnc.gov/pview.aspx?id=20727&catid=0,Yes,NA,NA,NA,NA,NA,NA,NA,Yes,NA,35.13387216,-80.70840293
Anita Stroud Park,"2215 DOUBLE OAKS RD CHARLOTTE, NC 28206",Neighborhood,No,https://www.mecknc.gov/parkandrec/pages/home.aspx?redirect=charmeck,Yes,NA,Yes,NA,NA,NA,NA,NA,NA,NA,35.25180594,-80.84163447
Albemarle Recreation Center,"5027 IDLEWILD RD NORTH CHARLOTTE, NC 28227",Recreation Center,Yes,https://www.mecknc.gov/parkandrec/pages/home.aspx?redirect=charmeck,Yes,NA,NA,NA,NA,Yes,NA,NA,NA,NA,35.19538781,-80.72436464
Blythe Landing Park,"15901 N C 73 HY HUNTERSVILLE, NC 28078",Community,Yes,https://www.mecknc.gov/parkandrec/pages/home.aspx?redirect=charmeck,Yes,NA,NA,NA,Yes,NA,NA,NA,Yes,NA,35.43361915,-80.90591058
Allen Hills Park,"4701 CHEVIOT RD CHARLOTTE, NC 28269",Neighborhood,Yes,https://www.mecknc.gov/parkandrec/pages/home.aspx?redirect=charmeck,Yes,NA,Yes,NA,NA,Yes,NA,NA,Yes,NA,35.28616811,-80.8178799
Richard Barry Memorial Park,"13707 BEATTIES FORD RD HUNTERSVILLE, NC 28078",Town Park,Yes,https://www.huntersville.org/162/Parks-Recreation,Yes,NA,NA,NA,NA,NA,NA,NA,NA,NA,35.40128346,-80.92433143
Cedarwood Park,"6624 REDDMAN RD CHARLOTTE, NC 28212",Neighborhood,No,https://www.mecknc.gov/parkandrec/pages/home.aspx?redirect=charmeck,Yes,NA,NA,NA,NA,NA,NA,NA,NA,NA,35.19140857,-80.74997845
Shuffletown Park,"9530 BELLHAVEN BV CHARLOTTE, NC 28216",Community,Yes,https://www.mecknc.gov/parkandrec/pages/home.aspx?redirect=charmeck,Yes,NA,NA,NA,Yes,NA,NA,Yes,NA,NA,35.31740568,-80.94606382
R.C. Bradford Park,"17005 DAVIDSON-CONCORD RD HUNTERSVILLE, NC 28078",Town Park,Yes,https://www.huntersville.org/162/Parks-Recreation,Yes,NA,NA,NA,NA,Yes,Yes,NA,NA,NA,35.44738027,-80.7879442
Coulwood Park,"198 COULWOOD PARK DR CHARLOTTE, NC 28214",Community,Yes,https://www.mecknc.gov/parkandrec/pages/home.aspx?redirect=charmeck,Yes,NA,NA,Yes,Yes,Yes,NA,NA,NA,NA,35.30657548,-80.94194215
Colonel Francis J. Beatty Park,"4330 WEDDINGTON RD CHARLOTTE, NC 28105",Regional,Yes,https://www.mecknc.gov/parkandrec/pages/home.aspx?redirect=charmeck,Yes,NA,Yes,Yes,Yes,Yes,NA,NA,Yes,NA,35.0678581,-80.72872488
Collins Park,"4525 COLLINGWOOD DR CHARLOTTE, NC 28209",Neighborhood,No,https://www.mecknc.gov/parkandrec/pages/home.aspx?redirect=charmeck,Yes,NA,NA,Yes,NA,NA,NA,NA,NA,NA,35.18162813,-80.87106555
Edgehill Park,"812 S EDGEHILL RD CHARLOTTE, NC 28207",Neighborhood,No,https://www.mecknc.gov/parkandrec/pages/home.aspx?redirect=charmeck,Yes,NA,NA,Yes,NA,NA,NA,NA,NA,NA,35.2026908,-80.82967331
Forest Pawtuckett Park,"1102 ASHFORD ST CHARLOTTE, NC 28214",Neighborhood,No,https://www.mecknc.gov/parkandrec/pages/home.aspx?redirect=charmeck,Yes,NA,NA,NA,NA,NA,NA,NA,Yes,NA,35.26411086,-80.94331915
Eagles Landing Park,"1204 EAGLES LANDING DR CHARLOTTE, NC 28214",Neighborhood,No,https://www.mecknc.gov/parkandrec/pages/home.aspx?redirect=charmeck,Yes,NA,NA,NA,NA,NA,NA,NA,NA,NA,35.27058514,-80.92595673
Firestone Park,"3501 FIRESTONE DR CHARLOTTE, NC 28216",Community,No,https://www.mecknc.gov/parkandrec/pages/home.aspx?redirect=charmeck,Yes,NA,Yes,NA,NA,NA,NA,NA,NA,NA,35.28792113,-80.87256334
Fourth Ward Park,"301 N POPLAR ST CHARLOTTE, NC 28202",Neighborhood,No,https://www.mecknc.gov/parkandrec/pages/home.aspx?redirect=charmeck,Yes,NA,NA,NA,NA,NA,NA,NA,NA,NA,35.23062793,-80.84283155
Flat Branch Park,"11830 TOM SHORT RD CHARLOTTE, NC 28277",Community,No,https://www.mecknc.gov/parkandrec/pages/home.aspx?redirect=charmeck,Yes,NA,NA,NA,NA,NA,NA,NA,Yes,NA,35.0443535,-80.79454758
Druid Hills Park,"2801 POINSETT ST CHARLOTTE, NC 28206",Neighborhood,No,https://www.mecknc.gov/parkandrec/pages/home.aspx?redirect=charmeck,Yes,NA,Yes,NA,NA,NA,NA,NA,NA,NA,35.25853949,-80.83096703
Hornets Nest Park,"6301 BEATTIES FORD RD CHARLOTTE, NC 28216",Regional,Yes,https://www.mecknc.gov/parkandrec/pages/home.aspx?redirect=charmeck,Yes,NA,Yes,Yes,Yes,Yes,Yes,NA,NA,NA,35.32002029,-80.86514148
Eva B. Barber Park,"3801 GOSSETT AV CHARLOTTE, NC 28208",Neighborhood,No,https://www.mecknc.gov/parkandrec/pages/home.aspx?redirect=charmeck,Yes,NA,Yes,NA,Yes,NA,NA,NA,NA,NA,35.26086562,-80.88298783
Howie Acres Park,"1001 TREMBETH DR CHARLOTTE, NC 28205",Neighborhood,No,https://www.mecknc.gov/parkandrec/pages/home.aspx?redirect=charmeck,Yes,NA,Yes,NA,NA,NA,NA,NA,NA,NA,35.24968529,-80.78538355
Independence Park,"1631 PARK DR CHARLOTTE, NC 28204",Neighborhood,No,https://www.mecknc.gov/parkandrec/pages/home.aspx?redirect=charmeck,Yes,NA,Yes,Yes,Yes,NA,NA,NA,Yes,NA,35.21562678,-80.82609226
Idlewild Road Park,"10512 IDLEWILD RD MINT HILL, NC 28105",Regional,Yes,https://www.mecknc.gov/parkandrec/pages/home.aspx?redirect=charmeck,Yes,NA,NA,NA,NA,Yes,Yes,NA,Yes,NA,35.16391524,-80.69983188
James Boyce Park,"300 BOYCE RD CHARLOTTE, NC 28211",Community,Yes,https://www.mecknc.gov/parkandrec/pages/home.aspx?redirect=charmeck,Yes,NA,NA,NA,NA,Yes,NA,NA,Yes,NA,35.14741083,-80.76921582
L.C. Coleman Park,"1501 MCDONALD ST CHARLOTTE, NC 28216",Neighborhood,Yes,https://www.mecknc.gov/parkandrec/pages/home.aspx?redirect=charmeck,Yes,NA,Yes,NA,NA,Yes,NA,NA,NA,NA,35.25845679,-80.86161848
Latta Park,"601 E PARK AV CHARLOTTE, NC 28203",Community,Yes,https://www.mecknc.gov/parkandrec/pages/home.aspx?redirect=charmeck,Yes,NA,Yes,Yes,Yes,NA,NA,NA,Yes,Yes,35.20998978,-80.8513997
Mallard Creek Park,"3001 JOHNSTON OEHLER RD CHARLOTTE, NC 28269",Regional,Yes,https://www.mecknc.gov/parkandrec/pages/home.aspx?redirect=charmeck,Yes,NA,NA,Yes,Yes,Yes,NA,NA,Yes,NA,35.36133452,-80.75941254
Robert L. Smith Park,"1604 LITTLE ROCK RD CHARLOTTE, NC 28214",Regional,Yes,https://www.mecknc.gov/parkandrec/pages/home.aspx?redirect=charmeck,Yes,NA,NA,NA,NA,NA,Yes,NA,NA,NA,35.25656762,-80.9405158
McDowell Nature Preserve,"15222 YORK RD CHARLOTTE, NC 28278",Nature Preserve,Yes,https://www.mecknc.gov/parkandrec/pages/home.aspx?redirect=charmeck,Yes,NA,NA,NA,NA,NA,NA,NA,NA,NA,35.0940642,-81.02271453
Midwood Park,"2100 WILHELMINA AV CHARLOTTE, NC 28205",Neighborhood,Yes,https://www.mecknc.gov/parkandrec/pages/home.aspx?redirect=charmeck,Yes,NA,Yes,Yes,NA,Yes,NA,NA,Yes,NA,35.22975599,-80.80248089
Mason Wallace Park,"7301 MONROE RD CHARLOTTE, NC 28212",Community,No,https://www.mecknc.gov/parkandrec/pages/home.aspx?redirect=charmeck,Yes,NA,Yes,Yes,NA,Yes,NA,NA,NA,NA,35.16897391,-80.75597924
North Mecklenburg Park,"16131 OLD STATESVILLE RD HUNTERSVILLE, NC 28078",Town Park,Yes,https://www.huntersville.org/162/Parks-Recreation,Yes,NA,Yes,Yes,NA,Yes,NA,NA,NA,NA,35.43254155,-80.8435746
Rama Road Park,"1035 RAMA RD CHARLOTTE, NC 28211",Neighborhood,No,https://www.mecknc.gov/parkandrec/pages/home.aspx?redirect=charmeck,Yes,NA,Yes,NA,NA,NA,NA,NA,Yes,NA,35.16859988,-80.77172904
Hickory Grove Park,"6709 PENCE RD CHARLOTTE, NC 28227",Neighborhood,No,https://www.mecknc.gov/parkandrec/pages/home.aspx?redirect=charmeck,Yes,NA,NA,NA,NA,Yes,NA,NA,NA,NA,35.2256973,-80.71739136
Ramsey Creek Park,"18445 NANTZ RD CORNELIUS, NC 28078",Community,Yes,https://www.mecknc.gov/parkandrec/pages/home.aspx?redirect=charmeck,Yes,NA,NA,NA,Yes,NA,NA,Yes,Yes,NA,35.46397204,-80.89713611
Park Road Park,"6220 PARK RD CHARLOTTE, NC 28210",Community,Yes,https://www.mecknc.gov/parkandrec/pages/home.aspx?redirect=charmeck,Yes,NA,Yes,NA,Yes,Yes,NA,NA,Yes,NA,35.14689227,-80.84991983
Sheffield Park,"1311 TARRINGTON AV CHARLOTTE, NC 28205",Neighborhood,No,https://www.mecknc.gov/parkandrec/pages/home.aspx?redirect=charmeck,Yes,NA,Yes,Yes,NA,NA,NA,NA,Yes,NA,35.20452802,-80.7693824
Greenway Park,"226 GREENWAY ST HUNTERSVILLE, NC 28078",Town Park,No,https://www.huntersville.org/162/Parks-Recreation,Yes,NA,NA,NA,NA,NA,NA,NA,NA,NA,35.40759892,-80.84468997
Grier Heights Park,"3120 LEROY ST CHARLOTTE, NC 28205",Neighborhood,No,https://www.mecknc.gov/parkandrec/pages/home.aspx?redirect=charmeck,Yes,NA,Yes,NA,NA,Yes,NA,NA,NA,NA,35.19631012,-80.80802297
Bailey Road Park,"11536 BAILEY RD CORNELIUS, NC 28031",Town Park,Yes,https://www.cornelius.org/103/Parks-Arts-Recreation-Culture,Yes,NA,Yes,Yes,NA,Yes,Yes,NA,Yes,NA,35.46699956,-80.84184883
Glen Oak Green Park,"18905 COACHMAN'S TRACE CORNELIUS, NC 28031",Town Park,No,https://www.cornelius.org/103/Parks-Arts-Recreation-Culture,Yes,NA,NA,NA,NA,NA,NA,NA,NA,NA,35.46487152,-80.8585407
Walter Henderson Park,"20214 TAILWIND LN CORNELIUS, NC 28031",Town Park,No,https://www.cornelius.org/103/Parks-Arts-Recreation-Culture,Yes,NA,NA,NA,NA,NA,NA,NA,NA,NA,35.48799217,-80.89701286
Robbins Park,"17738 WEST CATAWBA AV CORNELIUS, NC 28031",Town Park,Yes,https://www.cornelius.org/103/Parks-Arts-Recreation-Culture,Yes,NA,NA,Yes,Yes,NA,Yes,NA,Yes,NA,35.45603536,-80.8884532
Enderly Park,"1501 ENDERLY RD CHARLOTTE, NC 28208",Neighborhood,No,https://www.mecknc.gov/parkandrec/pages/home.aspx?redirect=charmeck,Yes,NA,Yes,NA,NA,NA,NA,Yes,NA,NA,35.2402956,-80.88426469
Martin Luther King Jr. Park,"2600 RAVENCROFT DR CHARLOTTE, NC 28208",Community,Yes,https://www.mecknc.gov/parkandrec/pages/home.aspx?redirect=charmeck,Yes,NA,Yes,NA,NA,NA,NA,NA,NA,NA,35.24468615,-80.87176666
Mint Hill Veterans Memorial Park,"8850 FAIRVIEW RD MINT HILL, NC 28227",Town Park,Yes,https://minthill.com/parks_recreation.php?Parks-Recreation-1,Yes,NA,NA,Yes,Yes,Yes,Yes,NA,NA,NA,35.18000491,-80.63448896
Clarks Creek Nature Preserve,"5434 HUCKS RD CHARLOTTE, NC 28269",Nature Preserve,No,https://www.mecknc.gov/parkandrec/pages/home.aspx?redirect=charmeck,Yes,NA,NA,NA,NA,NA,NA,NA,NA,NA,35.3512156,-80.81031172
Clarks Creek Park,"5435 HUCKS RD CHARLOTTE, NC 28269",Community,Yes,https://www.mecknc.gov/parkandrec/pages/home.aspx?redirect=charmeck,Yes,NA,Yes,NA,NA,NA,NA,Yes,NA,Yes,35.35113922,-80.81041717
Nevin Park,"6100 STATESVILLE RD CHARLOTTE, NC 28269",Regional,Yes,https://www.mecknc.gov/parkandrec/pages/home.aspx?redirect=charmeck,Yes,NA,NA,NA,NA,Yes,Yes,NA,Yes,Yes,35.30334369,-80.83983073
Freedom Park,"2435 CUMBERLAND AV CHARLOTTE, NC 28203",Regional,Yes,https://www.mecknc.gov/parkandrec/pages/home.aspx?redirect=charmeck,Yes,NA,Yes,Yes,Yes,Yes,NA,NA,Yes,NA,35.19306827,-80.84480182
David B. Waymer Park,"14200 HOLBROOKS RD HUNTERSVILLE, NC 28078",Town Park,Yes,https://www.huntersville.org/162/Parks-Recreation,Yes,NA,Yes,Yes,NA,Yes,NA,NA,NA,NA,35.3992988,-80.8342524
Davis Flohr Park,"3020 CLEMSON AV CHARLOTTE, NC 28205",Neighborhood,No,https://www.mecknc.gov/parkandrec/pages/home.aspx?redirect=charmeck,Yes,NA,Yes,NA,NA,NA,NA,NA,NA,NA,35.24102172,-80.80312008
Mayerling Drive Park,"8320 MAYERLING DR CHARLOTTE, NC 28227",Neighborhood,No,https://www.mecknc.gov/parkandrec/pages/home.aspx?redirect=charmeck,Yes,NA,Yes,NA,NA,NA,NA,NA,Yes,NA,35.1875526,-80.70291909
Mint Hill Park on Wilgrove,"7750 JIM HARPER LN MINT HILL, NC 28227",Town Park,Yes,https://minthill.com/parks_recreation.php?Parks-Recreation-1,Yes,NA,NA,Yes,NA,Yes,NA,NA,Yes,NA,35.18920205,-80.65654982
Mint Hill Founders Park,"9801 BRIEF RD MINT HILL, NC 28227",Town Park,Yes,https://minthill.com/parks_recreation.php?Parks-Recreation-1,Yes,NA,NA,NA,NA,NA,NA,Yes,Yes,NA,35.18496986,-80.60308461
Ada Jenkins Athletic Field,"212 GAMBLE ST DAVIDSON, NC 28036",Town Park,No,https://www.ci.davidson.nc.us/130/Parks-Recreation,Yes,NA,Yes,NA,NA,NA,NA,NA,NA,NA,35.49915225,-80.85325787
Archdale Park,"1020 ARCHDALE DR CHARLOTTE, NC 28217",Neighborhood,No,https://www.mecknc.gov/parkandrec/pages/home.aspx?redirect=charmeck,Yes,NA,Yes,NA,NA,NA,NA,NA,NA,NA,35.15315624,-80.88437744
Fred Alexander Park,"1832 GRIERS GROVE RD CHARLOTTE, NC 28216",Neighborhood,No,https://www.mecknc.gov/parkandrec/pages/home.aspx?redirect=charmeck,Yes,NA,Yes,NA,NA,NA,NA,NA,NA,NA,35.28294954,-80.86064341
Abbott Park,"1300 SPRUCE ST CHARLOTTE, NC 28203",Neighborhood,No,https://www.mecknc.gov/parkandrec/pages/home.aspx?redirect=charmeck,Yes,NA,Yes,Yes,NA,NA,NA,NA,NA,NA,35.21563668,-80.87120618
Cordelia Park,"600 E 24TH ST CHARLOTTE, NC 28205",Community,No,https://www.mecknc.gov/parkandrec/pages/home.aspx?redirect=charmeck,Yes,NA,Yes,NA,NA,NA,NA,NA,NA,Yes,35.23845813,-80.81651705
Fred Alexander Park,"1903 MCALLISTER DR CHARLOTTE, NC 28216",Neighborhood,No,https://www.mecknc.gov/parkandrec/pages/home.aspx?redirect=charmeck,Yes,NA,Yes,NA,NA,NA,NA,NA,NA,NA,35.28105844,-80.85923112
Northern Regional Recreation Center,"18121 OLD STATESVILLE RD CORNELIUS, NC 28031",Recreation Center,Yes,https://www.mecknc.gov/parkandrec/pages/home.aspx?redirect=charmeck,Yes,NA,Yes,NA,Yes,NA,NA,NA,NA,NA,35.45931644,-80.84365027
Sugaw Creek Park,"943 W SUGAR CREEK RD CHARLOTTE, NC 28213",Community,Yes,https://www.mecknc.gov/parkandrec/pages/home.aspx?redirect=charmeck,Yes,NA,Yes,Yes,Yes,Yes,Yes,NA,NA,NA,35.27306558,-80.79372161
Beaty Park,"832 BEATY ST DAVIDSON, NC 28036",Town Park,Yes,https://www.ci.davidson.nc.us/130/Parks-Recreation,Yes,NA,NA,NA,NA,NA,NA,NA,Yes,NA,35.50905635,-80.84407991
Frank Liske Park - Cabarrus County,"4001 Stough Rd Concord, NC",County Park,Yes,https://www.cabarruscounty.us/location/frank-liske-park,Yes,Yes,NA,NA,NA,Yes,Yes,NA,Yes,NA,35.36005172,-80.62720134
Camp Spencer - Cabarrus County,"3155 Rimer Rd Concord, NC",County Park,Yes,https://www.cabarruscounty.us/location/camp-t-n-spencer-park,Yes,NA,NA,NA,NA,NA,NA,NA,Yes,NA,35.46114964,-80.48837214
Vietm Veterans Park - Cabarrus County,"760 Orphange Rd , Concord NC",County Park,Yes,https://www.cabarruscounty.us/location/vietm-veterans-park,Yes,NA,Yes,NA,NA,NA,Yes,NA,Yes,NA,35.44586974,-80.63391767
Rob Wallace Park,"12900 Bethel School Rd. Midland , NC",County Park,Yes,https://www.cabarruscounty.us/location/rob-wallace-park,Yes,NA,NA,NA,NA,NA,NA,NA,Yes,NA,35.2398241,-80.51636395
Bakers Creek Park/Greenway - City of Kanpolis,"1275 West A St Kannapolis, NC",Municipal Park,Yes,http://www.kanpolisnc.gov/GovernmentDepartments/ParksRecreation/Parks/tabid/131/Default.aspx,Yes,NA,Yes,NA,NA,Yes,Yes,NA,Yes,NA,35.51285791,-80.63227575
Beverly Hills Park - City of Concord,"125 Palaside Dr  NE Concord, NC",Municipal Park,Yes,http://www.concordnc.gov/Departments/Parks-Recreation/Facilities,Yes,NA,NA,NA,NA,NA,NA,NA,Yes,NA,35.43273864,-80.59463316
Village Park - City of Kanpolis,"200 West C St Kannapolis, NC",Municipal Park,Yes,http://www.kanpolisnc.gov/GovernmentDepartments/ParksRecreation/Parks/tabid/131/Default.aspx,Yes,NA,NA,NA,NA,NA,NA,NA,NA,NA,35.49516505,-80.62450137
W.W. Flowe Park - City of Concord,"99 Central Heights Dr Concord, NC",Municipal Park,Yes,https://www.concordnc.gov/Departments/Parks-Recreation/Facilities,Yes,NA,NA,NA,NA,Yes,NA,NA,Yes,NA,35.35855342,-80.58862543
Pharr Mill Road Park - Town of Harrisburg,"6775 Pharr Mill Rd Harrisburg, NC",Municipal Park,Yes,https://www.harrisburgnc.org/departments/parks-recreation/parks-facilities/pharr-mill-park,Yes,NA,NA,NA,NA,NA,NA,NA,Yes,NA,35.32250121,-80.61463006
Harrisburg Town Park - Town of Harrisburg,"191 Sims Parkway Harrisburg, NC",Municipal Park,Yes,https://www.harrisburgnc.org/departments/parks-recreation/parks-facilities/harrisburg-park,Yes,NA,NA,NA,NA,Yes,NA,NA,Yes,NA,35.31956126,-80.65981461
Stallings Road Park - Town of Harrisburg,"4050 Stallings Rd Harrisburg, NC",Municipal Park,Yes,https://www.harrisburgnc.org/departments/parks-recreation/parks-facilities/stallings-road-park,Yes,NA,NA,NA,NA,Yes,NA,NA,Yes,NA,35.31571671,-80.64595883
Walter Safrit Park - City of Kanpolis,"1415 Bethpage Rd Kannapolis, NC",Municipal Park,Yes,http://www.kanpolisnc.gov/GovernmentDepartments/ParksRecreation/Parks/tabid/131/Default.aspx,Yes,Yes,NA,NA,NA,Yes,NA,NA,Yes,NA,35.48529776,-80.6494535
Marvin Caldwell Park - City of Concord,"362 Georgia St SW Concord, NC",Municipal Park,Yes,http://www.concordnc.gov/Departments/Parks-Recreation/Facilities,Yes,Yes,Yes,Yes,NA,Yes,NA,NA,Yes,NA,35.39262675,-80.58279322
McAllister Park,"8595 Park Dr Mt. Pleasant, NC",Park,Yes,NA,Yes,NA,Yes,NA,NA,NA,NA,NA,NA,NA,35.40057451,-80.43373083
Frank Liske Park - Cabarrus County,"4001 Stough Rd Concord, NC",County Park,Yes,https://www.cabarruscounty.us/location/frank-liske-park,Yes,Yes,NA,NA,NA,Yes,Yes,NA,Yes,NA,35.36005172,-80.62720134
Camp Spencer - Cabarrus County,"3155 Rimer Rd Concord, NC",County Park,Yes,https://www.cabarruscounty.us/location/camp-t-n-spencer-park,Yes,NA,NA,NA,NA,NA,NA,NA,Yes,NA,35.46114964,-80.48837214
Vietm Veterans Park - Cabarrus County,"760 Orphange Rd , Concord NC",County Park,Yes,https://www.cabarruscounty.us/location/vietm-veterans-park,Yes,NA,Yes,NA,NA,NA,Yes,NA,Yes,NA,35.44586974,-80.63391767
Rob Wallace Park,"12900 Bethel School Rd. Midland , NC",County Park,Yes,https://www.cabarruscounty.us/location/rob-wallace-park,Yes,NA,NA,NA,NA,NA,NA,NA,Yes,NA,35.2398241,-80.51636395
Bakers Creek Park/Greenway - City of Kanpolis,"1275 West A St Kannapolis, NC",Municipal Park,Yes,http://www.kanpolisnc.gov/GovernmentDepartments/ParksRecreation/Parks/tabid/131/Default.aspx,Yes,NA,Yes,NA,NA,Yes,Yes,NA,Yes,NA,35.51285791,-80.63227575
Beverly Hills Park - City of Concord,"125 Palaside Dr  NE Concord, NC",Municipal Park,Yes,http://www.concordnc.gov/Departments/Parks-Recreation/Facilities,Yes,NA,NA,NA,NA,NA,NA,NA,Yes,NA,35.43273864,-80.59463316
Village Park - City of Kanpolis,"200 West C St Kannapolis, NC",Municipal Park,Yes,http://www.kanpolisnc.gov/GovernmentDepartments/ParksRecreation/Parks/tabid/131/Default.aspx,Yes,NA,NA,NA,NA,NA,NA,NA,NA,NA,35.49516505,-80.62450137
W.W. Flowe Park - City of Concord,"99 Central Heights Dr Concord, NC",Municipal Park,Yes,https://www.concordnc.gov/Departments/Parks-Recreation/Facilities,Yes,NA,NA,NA,NA,Yes,NA,NA,Yes,NA,35.35855342,-80.58862543
Pharr Mill Road Park - Town of Harrisburg,"6775 Pharr Mill Rd Harrisburg, NC",Municipal Park,Yes,https://www.harrisburgnc.org/departments/parks-recreation/parks-facilities/pharr-mill-park,Yes,NA,NA,NA,NA,NA,NA,NA,Yes,NA,35.32250121,-80.61463006
Harrisburg Town Park - Town of Harrisburg,"191 Sims Parkway Harrisburg, NC",Municipal Park,Yes,https://www.harrisburgnc.org/departments/parks-recreation/parks-facilities/harrisburg-park,Yes,NA,NA,NA,NA,Yes,NA,NA,Yes,NA,35.31956126,-80.65981461
Stallings Road Park - Town of Harrisburg,"4050 Stallings Rd Harrisburg, NC",Municipal Park,Yes,https://www.harrisburgnc.org/departments/parks-recreation/parks-facilities/stallings-road-park,Yes,NA,NA,NA,NA,Yes,NA,NA,Yes,NA,35.31571671,-80.64595883
Walter Safrit Park - City of Kanpolis,"1415 Bethpage Rd Kannapolis, NC",Municipal Park,Yes,http://www.kanpolisnc.gov/GovernmentDepartments/ParksRecreation/Parks/tabid/131/Default.aspx,Yes,Yes,NA,NA,NA,Yes,NA,NA,Yes,NA,35.48529776,-80.6494535
Marvin Caldwell Park - City of Concord,"362 Georgia St SW Concord, NC",Municipal Park,Yes,http://www.concordnc.gov/Departments/Parks-Recreation/Facilities,Yes,Yes,Yes,Yes,NA,Yes,NA,NA,Yes,NA,35.39262675,-80.58279322
McAllister Park,"8595 Park Dr Mt. Pleasant, NC",Park,Yes,NA,Yes,NA,Yes,NA,NA,NA,NA,NA,NA,NA,35.40057451,-80.43373083
Frank Liske Park - Cabarrus County,"4001 Stough Rd Concord, NC",County Park,Yes,https://www.cabarruscounty.us/location/frank-liske-park,Yes,Yes,NA,NA,NA,Yes,Yes,NA,Yes,NA,35.36005172,-80.62720134
Camp Spencer - Cabarrus County,"3155 Rimer Rd Concord, NC",County Park,Yes,https://www.cabarruscounty.us/location/camp-t-n-spencer-park,Yes,NA,NA,NA,NA,NA,NA,NA,Yes,NA,35.46114964,-80.48837214
Vietm Veterans Park - Cabarrus County,"760 Orphange Rd , Concord NC",County Park,Yes,https://www.cabarruscounty.us/location/vietm-veterans-park,Yes,NA,Yes,NA,NA,NA,Yes,NA,Yes,NA,35.44586974,-80.63391767
American Village Park,"4703 American Dr, Durham NC",Park,No,https://www.dprplaymore.org/Facilities/Facility/Details/American-Village-Park-1,Yes,NA,NA,NA,NA,NA,NA,NA,Yes,NA,36.02318187,-78.97167596
Bay-Hargrove Park,"208 Hargrove St, Durham NC",Park,No,https://www.dprplaymore.org/Facilities/Facility/Details/BayHargrove-Park-2,Yes,NA,NA,NA,NA,NA,NA,NA,Yes,NA,36.00451167,-78.89707206
Burch Avenue Park,"816 Burch Ave, Durham NC",Park,No,https://www.dprplaymore.org/Facilities/Facility/Details/Burch-Avenue-Park-6,Yes,NA,NA,NA,NA,NA,NA,NA,Yes,NA,35.9982201,-78.91510705
Burton Park,"1501 Sima Ave, Durham NC",Park,No,https://www.dprplaymore.org/Facilities/Facility/Details/Burton-Park-7,Yes,NA,Yes,NA,NA,NA,NA,NA,Yes,NA,35.97608851,-78.88914083
C. R. Wood Park,"417 Commonwealth St, Durham  NC",Park,Yes,https://www.dprplaymore.org/Facilities/Facility/Details/CR-Wood-Park-9,Yes,NA,Yes,NA,NA,NA,NA,NA,Yes,NA,35.97304247,-78.86264391
C.M. Herndon Park,"511 Scott King Rd, Durham  NC",Park,Yes,https://www.dprplaymore.org/Facilities/Facility/Details/CM-Herndon-Park-8,Yes,Yes,NA,NA,NA,NA,NA,NA,Yes,NA,35.87493374,-78.93589484
Campus Hills Park,"2000 S Alston Ave,Durham  NC",Park,No,https://www.dprplaymore.org/Facilities/Facility/Details/Campus-Hills-Park-10,Yes,NA,NA,NA,NA,NA,NA,NA,Yes,NA,35.96368888,-78.88882653
Cook Road Park,"602 Cook Rd, Durham NC",Park,No,https://www.dprplaymore.org/Facilities/Facility/Details/Cook-Road-Park-12,Yes,NA,Yes,Yes,NA,NA,NA,NA,Yes,NA,35.95121393,-78.91322578
Drew/Granby Park,"1100 Drew St, Durham NC",Park,No,https://www.dprplaymore.org/Facilities/Facility/Details/Drew-Granby-Park-16,Yes,NA,NA,NA,NA,NA,NA,NA,Yes,NA,36.00178697,-78.88154428
East End Park,"1200 N Alston Ave, Durham NC",Park,Yes,https://www.dprplaymore.org/Facilities/Facility/Details/East-End-Park-20,Yes,NA,Yes,Yes,NA,Yes,NA,NA,Yes,Yes,35.99827489,-78.88580127
Elmira Avenue Park,"540 Elmira Ave, Durham NC",Park,Yes,https://www.dprplaymore.org/Facilities/Facility/Details/Elmira-Avenue-Park-23,Yes,NA,Yes,Yes,NA,NA,NA,NA,Yes,NA,35.96533204,-78.90476954
Garrett Road Park,"6815 Garrett Rd, Durham NC",Park,Yes,https://www.dprplaymore.org/Facilities/Facility/Details/Garrett-Road-Park-28,Yes,NA,NA,Yes,NA,NA,NA,NA,Yes,NA,35.92294051,-78.9608494
Hillside Park,"1301 S Roxboro St, Durham NC",Park,Yes,https://www.dprplaymore.org/Facilities/Facility/Details/Hillside-Park-32,Yes,NA,Yes,Yes,NA,Yes,NA,NA,Yes,Yes,35.9810043,-78.90443201
Indian Trail Park,"2309 Indian Trl,Durham  NC",Park,No,https://www.dprplaymore.org/Facilities/Facility/Details/Indian-Trail-Park-37,Yes,NA,NA,NA,NA,NA,NA,NA,Yes,NA,36.02460962,-78.92856605
Lakeview Park,"3500 Dearborn Dr, Durham NC",Park,Yes,https://www.dprplaymore.org/Facilities/Facility/Details/Lakeview-Park-39,Yes,NA,Yes,NA,NA,NA,NA,NA,Yes,NA,36.03833216,-78.87754793
Long Meadow Park,"917 Liberty St,Durham  NC",Park,Yes,https://www.dprplaymore.org/Facilities/Facility/Details/Long-Meadow-Park-42,Yes,NA,Yes,NA,NA,NA,NA,NA,Yes,NA,35.99278269,-78.88564425
Lyon Park,"1200 W Lakewood Ave,Durham  NC",Park,Yes,https://www.dprplaymore.org/Facilities/Facility/Details/Lyon-Park-44,Yes,NA,Yes,NA,NA,NA,NA,NA,Yes,NA,35.98641652,-78.91857795
Morreene Road Park,"1102 Morreene Rd, Durham NC",Park,Yes,https://www.dprplaymore.org/Facilities/Facility/Details/Morreene-Road-Park-46,Yes,NA,Yes,Yes,NA,NA,NA,NA,Yes,NA,36.00738612,-78.95480541
rthgate Park,"300 W Club Blvd, Durham NC",Park,Yes,https://www.dprplaymore.org/Facilities/Facility/Details/rthgate-Park-47,Yes,NA,NA,Yes,NA,NA,NA,Yes,Yes,NA,36.01942999,-78.89494795
Oakwood Park,"411 Holloway St,Durham  NC",Park,No,https://www.dprplaymore.org/Facilities/Facility/Details/Oakwood-Park-49,Yes,NA,NA,NA,NA,NA,NA,NA,Yes,NA,35.99495925,-78.89496805
Old Chapel Hill Road Park,"3751 SW Durham Dr,Durham  NC",Park,Yes,https://www.dprplaymore.org/Facilities/Facility/Details/Old-Chapel-Hill-Road-Park-50,Yes,Yes,Yes,NA,NA,NA,NA,NA,NA,NA,35.94826236,-78.98326268
Old rth Durham Park,"310 W Geer St, Durham NC",Park,No,https://www.dprplaymore.org/Facilities/Facility/Details/Old-rth-Durham-Park-52,Yes,NA,NA,NA,NA,NA,NA,NA,Yes,NA,36.00383771,-78.89925706
Orchard Park,"1000 S Duke St, Durham NC",Park,No,https://www.dprplaymore.org/Facilities/Facility/Details/Orchard-Park-53,Yes,NA,NA,NA,NA,NA,NA,NA,Yes,NA,35.98906359,-78.90912511
Oval Drive Park,"2200 W Club Blvd, Durham NC",Park,No,https://www.dprplaymore.org/Facilities/Facility/Details/Oval-Drive-Park-54,Yes,NA,Yes,Yes,NA,NA,NA,NA,Yes,NA,36.01759389,-78.9284401
Red Maple Park,"3320 Hinson Dr, Durham NC",Park,No,https://www.dprplaymore.org/Facilities/Facility/Details/Red-Maple-Park-58,Yes,NA,Yes,NA,NA,NA,NA,NA,Yes,NA,36.03317867,-78.87797313
Rockwood Park,"2310 Whitley Dr, Durham NC",Park,Yes,https://www.dprplaymore.org/Facilities/Facility/Details/Rockwood-Park-61,Yes,NA,Yes,NA,NA,NA,NA,NA,Yes,NA,35.97391031,-78.92086974
Rocky Creek Park,"1014 N Elizabeth St, Durham NC",Park,No,https://www.dprplaymore.org/Facilities/Facility/Details/Rocky-Creek-Park-62,Yes,NA,NA,NA,NA,NA,NA,NA,Yes,NA,36.00235908,-78.8905266
Shady Oaks Park,"2400 Nebo St, Durham NC",Park,No,https://www.dprplaymore.org/Facilities/Facility/Details/Shady-Oaks-Park-64,Yes,NA,NA,NA,NA,NA,NA,NA,NA,NA,35.96824692,-78.89905
Sherwood Park,"1720 Cheek Rd, Durham NC",Park,Yes,https://www.dprplaymore.org/Facilities/Facility/Details/Sherwood-Park-65,Yes,NA,Yes,NA,NA,Yes,NA,NA,NA,NA,36.00398475,-78.87264977
Solite Park,"4704 Fayetteville Rd, Durham NC",Park,Yes,https://www.dprplaymore.org/Facilities/Facility/Details/Solite-Park-67,Yes,NA,Yes,NA,NA,NA,NA,NA,Yes,NA,35.93694676,-78.90805724
Trinity Park,"410 Watts St, Durham NC",Park,No,https://www.dprplaymore.org/Facilities/Facility/Details/Trinity-Park-70,Yes,NA,NA,NA,NA,NA,NA,NA,Yes,NA,36.00457191,-78.91108947
Unity Village Park,"2011 Matilene St, Durham NC",Park,Yes,https://www.dprplaymore.org/Facilities/Facility/Details/Unity-Village-Park-72,Yes,NA,Yes,NA,NA,NA,NA,NA,Yes,NA,35.96473721,-78.88665521
Valley Springs Park,"3805 Valley Springs Rd, Durham NC",Park,Yes,https://www.dprplaymore.org/Facilities/Facility/Details/Valley-Springs-Park-73,Yes,Yes,NA,NA,NA,Yes,Yes,NA,Yes,NA,36.05314698,-78.95777128
Weaver Street Park,"3000 E Weaver St, Durham NC",Park,Yes,https://www.dprplaymore.org/Facilities/Facility/Details/Weaver-Street-Park-75,Yes,NA,NA,NA,NA,NA,NA,NA,NA,NA,35.96652784,-78.91153484
Westover Park,"1900 Maryland Ave, Durham NC",Park,No,https://www.dprplaymore.org/Facilities/Facility/Details/Westover-Park-78,Yes,NA,NA,NA,NA,NA,NA,NA,Yes,NA,36.02452007,-78.92207261
Whippoorwill Park,"1632 Rowemont Dr,Durham  NC",Park,Yes,https://www.dprplaymore.org/Facilities/Facility/Details/Whippoorwill-Park-79,Yes,NA,NA,Yes,NA,NA,NA,NA,Yes,NA,36.04551817,-78.92469826
White Oak Park,"2504 Dallas St, Durham NC",Park,No,https://www.dprplaymore.org/Facilities/Facility/Details/White-Oak-Park-80,Yes,NA,NA,NA,NA,NA,NA,NA,Yes,NA,35.97111533,-78.91206491
Wrightwood Park,"1301 Anderson St, Durham NC",Park,Yes,https://www.dprplaymore.org/Facilities/Facility/Details/Wrightwood-Park-83,Yes,NA,NA,NA,NA,NA,NA,NA,Yes,NA,35.98664544,-78.93312101
Maplewood Park,"1530 Chapel Hill Rd, Durham  NC",Park,No,https://www.dprplaymore.org/Facilities/Facility/Details/Maplewood-Park-45,Yes,NA,NA,NA,NA,NA,NA,NA,Yes,NA,35.991924,-78.92241392
Piney Wood Park,"400 E Woodcroft Pkwy,Durham  NC",Park,Yes,https://www.dprplaymore.org/Facilities/Facility/Details/Piney-Wood-Park-56,Yes,Yes,NA,Yes,NA,NA,NA,Yes,Yes,NA,35.91642832,-78.92409925
Twin Lakes Park,"439 Chandler Rd, Durham NC",Park,Yes,https://www.dprplaymore.org/Facilities/Facility/Details/Twin-Lakes-Park-71,Yes,Yes,Yes,NA,NA,NA,NA,NA,Yes,NA,35.99321403,-78.83768098
Durham Central Park,"501 Foster St, Durham NC",Park,Yes,https://www.dprplaymore.org/Facilities/Facility/Details/Durham-Central-Park-18,Yes,NA,NA,NA,NA,NA,NA,NA,Yes,NA,36.00023309,-78.90158382
Edgemont Park,"205 S Elm St,Durham  NC",Park,No,https://www.dprplaymore.org/Facilities/Facility/Details/Edgemont-Park-22,Yes,NA,NA,NA,NA,NA,NA,NA,Yes,NA,35.98809979,-78.89168661
Forest Hills Park,"1639 University Dr,Durham  NC",Park,Yes,https://www.dprplaymore.org/Facilities/Facility/Details/Forest-Hills-Park-24,Yes,NA,NA,Yes,NA,NA,NA,NA,Yes,Yes,35.97995824,-78.91430712
Grant Street Park (rth),"918 Grant St, Durham NC",Park,No,https://www.dprplaymore.org/Facilities/Facility/Details/Grant-Park-rth-30,Yes,NA,NA,NA,NA,NA,NA,NA,NA,NA,35.98035257,-78.89452193
Rock Quarry Park,"701 Stadium Dr, Durham NC",Park,Yes,https://www.dprplaymore.org/Facilities/Facility/Details/Rock-Quarry-Park-60,Yes,NA,NA,Yes,NA,NA,NA,NA,Yes,Yes,36.03379402,-78.90112068
Walltown Park,"1308 W Club Blvd, Durham NC",Park,No,https://www.dprplaymore.org/Facilities/Facility/Details/Walltown-Park-74,Yes,NA,Yes,NA,NA,NA,NA,NA,Yes,NA,36.01698025,-78.91324082
Old Farm Road Park,"7 Hedgerow Pl, Durham NC",Park,Yes,https://www.dprplaymore.org/Facilities/Facility/Details/Old-Farm-Road-Park-51,Yes,NA,Yes,NA,NA,NA,NA,NA,Yes,NA,36.07414337,-78.8973389
Bethesda Park,"1816 Stage Rd, Durham NC",Park,Yes,https://www.dprplaymore.org/Facilities/Facility/Details/Bethesda-Park-4,Yes,NA,Yes,Yes,NA,NA,Yes,NA,Yes,NA,35.94552804,-78.84511709
Cornwallis Road Park,"2830 Wade Rd, Durham NC",Park,Yes,https://www.dprplaymore.org/Facilities/Facility/Details/Cornwallis-Road-Park-13,Yes,NA,Yes,NA,NA,NA,Yes,NA,Yes,NA,35.97805514,-78.95158807
Crest Street Park,"2503 Crest St, Durham NC",Park,Yes,https://www.dprplaymore.org/Facilities/Facility/Details/Crest-Street-Park-14,Yes,NA,Yes,NA,NA,Yes,NA,NA,Yes,NA,36.01297659,-78.93837861
East Durham Park,"2500 E Main St, Durham NC",Park,No,https://www.dprplaymore.org/Facilities/Facility/Details/East-Durham-Park-19,Yes,NA,NA,NA,NA,NA,NA,NA,Yes,NA,35.9860725,-78.87236936
Abbotts Creek Park,"9950 Durant Road, Raleigh, NC",NA,Yes,https://raleighnc.gov/places/abbotts-creek-park,Yes,NA,NA,NA,NA,NA,NA,NA,NA,NA,35.90165674,-78.58032094
Ailey Young Park,"800 E Juniper Ave, Wake Forest, NC",NA,Yes,http://www.wakeforestnc.gov/ailey-young-park.aspx,Yes,NA,NA,NA,NA,Yes,NA,NA,Yes,NA,35.98262858,-78.49665312
Annie L. Jones Park,"1414 Tarbert Drive, Cary, NC",NA,Yes,http://www.towfcary.org/recreation-enjoyment/parks-greenways-environment/parks/annie-jones-park,Yes,NA,NA,Yes,NA,Yes,NA,NA,NA,NA,35.76049407,-78.81142827
Apex Jaycee Park,451 W Williams St  Apex NC,NA,No,https://www.apexnc.org/797/Apex-Jaycee-Park,Yes,NA,NA,NA,NA,Yes,NA,NA,Yes,NA,35.73061902,-78.85982117
Baileywick Road Park,"9501 Baileywick Rd, Raleigh, NC",NA,Yes,https://raleighnc.gov/places/baileywick-park,Yes,NA,NA,NA,NA,Yes,NA,NA,Yes,NA,35.91020418,-78.66759666
Berkshire Downs West Park,"8105 McGuire Dr, Raleigh, NC",NA,No,https://raleighnc.gov/places/berkshire-downs-west-park,Yes,NA,NA,NA,NA,NA,NA,NA,NA,NA,35.88264806,-78.55561848
Biltmore Hills Park,"2615 Fitzgerald Dr, Raleigh, NC",NA,Yes,https://raleighnc.gov/places/biltmore-hills-park,Yes,NA,NA,Yes,NA,Yes,NA,NA,Yes,NA,35.74898062,-78.62809549
Blue Jay Point County Park,"3200 Pleasant Union Church Road, Raleigh, NC 27614",NA,Yes,https://www.wakegov.com/departments-government/parks-recreation-and-open-space/all-parks-trails/blue-jay-point-county-park,Yes,NA,NA,NA,NA,NA,NA,NA,Yes,NA,35.96692016,-78.64527899
Bragg Street Park,"1116 South Person St, Raleigh, NC",NA,No,https://raleighnc.gov/places/bragg-street-park,Yes,NA,NA,NA,NA,NA,NA,NA,NA,NA,35.766795,-78.63561452
Brier Creek Park,"10810 Globe Rd, Raleigh, NC",NA,Yes,https://raleighnc.gov/places/brier-creek-park,Yes,NA,NA,NA,NA,NA,NA,NA,Yes,NA,35.90099623,-78.80790182
Buffaloe Road Athletic Park,"5900 Buffaloe Rd, Raleigh, NC",NA,Yes,https://raleighnc.gov/places/buffaloe-road-athletic-park,Yes,NA,NA,NA,NA,Yes,NA,NA,NA,NA,35.84138148,-78.54166786
C C Jones Park,"309 Holleman St, Apex, NC",NA,Yes,http://ccjones.org/index.html,Yes,NA,NA,NA,NA,NA,NA,NA,NA,NA,35.73083244,-78.85517993
Campbell Lodge,"3237 Spottswood St, Raleigh, NC",NA,No,https://raleighnc.gov/places/durant-ture-preserve,Yes,NA,NA,NA,Yes,NA,NA,NA,Yes,NA,35.88927819,-78.58052209
Caraleigh Park,"110 Maywood Ave, Raleigh, NC",NA,No,https://raleighnc.gov/places/caraleigh-park,Yes,NA,NA,NA,NA,NA,NA,NA,NA,NA,35.76089322,-78.64534376
Caroli Pines Park,"2305 Lake Wheeler Rd, Raleigh, NC",NA,No,https://raleighnc.gov/places/caroli-pines-park,Yes,NA,NA,Yes,Yes,Yes,NA,Yes,Yes,NA,35.74936891,-78.67136059
Cedar Hills Park,"5600 Sweetbriar Dr, Raleigh, NC",NA,No,https://raleighnc.gov/places/cedar-hills-park,Yes,NA,NA,Yes,NA,Yes,Yes,NA,Yes,NA,35.85735879,-78.62907117
Chamberlain Park,"500 Chamberlain St, Raleigh, NC",NA,No,https://raleighnc.gov/places/chamberlain-park,Yes,NA,NA,NA,NA,NA,NA,NA,NA,NA,35.79178796,-78.66520257
Clairmont Park,"801 E. Chatham St., Apex, NC",NA,No,https://www.apexnc.org/796/Neighborhood-Parks,Yes,NA,NA,NA,NA,NA,NA,NA,Yes,NA,35.72724224,-78.84231625
Dacian Road Park,"566 Dacian Rd, Raleigh, NC",NA,No,https://raleighnc.gov/places/dacian-road-park,Yes,NA,NA,NA,NA,NA,NA,NA,NA,NA,35.76366235,-78.60198928
Davie Street Park,"908 East Davie St, Raleigh, NC",NA,No,https://raleighnc.gov/places/davie-street-park,Yes,NA,NA,NA,NA,NA,NA,NA,Yes,NA,35.77517387,-78.62536672
Dixon Drive Park,"6100 Dixon Dr, Raleigh, NC",NA,No,https://raleighnc.gov/places/dixon-drive-park,Yes,NA,NA,NA,NA,NA,NA,NA,NA,NA,35.86250616,-78.65043971
Durant ture Preserve,"8305 Camp Durant Rd, Raleigh, NC",NA,Yes,https://raleighnc.gov/places/durant-ture-preserve,Yes,NA,NA,NA,Yes,NA,NA,NA,Yes,NA,35.89459819,-78.57845913
Eastgate Park,"4200 Quail Hollow Dr, Raleigh, NC",NA,Yes,https://raleighnc.gov/places/eastgate-park,Yes,NA,NA,Yes,NA,NA,NA,NA,Yes,NA,35.83970281,-78.62479119
Eliza Pool Park,"1600 Fayetteville St, Raleigh, NC",NA,No,https://raleighnc.gov/places/eliza-pool-park,Yes,NA,NA,NA,Yes,NA,NA,NA,Yes,NA,35.76082664,-78.64356821
Falcon Park,"611 E. Academy Street, Fuquay-Vari, NC",NA,Yes,http://www.fuquay-vari.org/departments-and-services/parks-recreation-and-cultural-resources/parks/falcon-park.html,Yes,NA,NA,NA,NA,Yes,NA,NA,Yes,NA,35.58432876,-78.79093059
Falls Lake State Recreation Area - Sandling Beach Rec Area Entrance,"14813 Creedmoor Rd, Wake Forest NC",NA,Yes,https://www.ncparks.gov/falls-lake-state-recreation-area,Yes,NA,NA,NA,NA,NA,NA,NA,Yes,NA,36.04720648,-78.6981653
Fisher Street Park,"324 N Fisher St, Raleigh, NC",NA,No,https://raleighnc.gov/places/fisher-street-park,Yes,NA,NA,NA,NA,NA,NA,NA,NA,NA,35.78285309,-78.61479389
Fred Fletcher Park,"805 Washington St, Raleigh, NC",NA,No,https://raleighnc.gov/places/fred-fletcher-park,Yes,NA,NA,Yes,NA,Yes,NA,NA,Yes,NA,35.79389124,-78.65257654
Fuquay-Vari Museums at Ashworth Park,"131 South Fuquay Avenue, Fuquay-Vari, NC",NA,No,http://www.fuquay-vari.org/Facilities/Facility/Details/FuquayVari-Museums-at-Ashworth-Park-14,Yes,NA,NA,NA,NA,NA,NA,NA,NA,NA,35.58382067,-78.79821531
Garner Jaycee Park,"1300 Vandora Springs Road, Garner NC, 27529",NA,No,http://www.garnernc.gov/Departments/Parks%20and%20Recreation/Parks.aspx?ID=18,Yes,NA,NA,NA,NA,NA,NA,NA,Yes,NA,35.70250281,-78.62544705
Garner Recreatiol Park,"221 East Garner Road, Garner NC, 27529",NA,Yes,http://www.garnernc.gov/Departments/Parks%20and%20Recreation/Parks.aspx?ID=5,Yes,NA,NA,Yes,NA,Yes,NA,NA,NA,NA,35.70661032,-78.60341361
Gill Street Park,"600 N Privette St, Zebulon, NC",NA,No,https://www.towfzebulon.org/services/parks-and-recreation/parks-facilities,Yes,NA,NA,NA,NA,NA,NA,NA,NA,NA,35.82790519,-78.31176394
Glen Eden Pilot Park,"1500 Glen Eden Dr, Raleigh, NC",NA,No,https://raleighnc.gov/places/glen-eden-pilot-park,Yes,NA,NA,Yes,NA,NA,NA,NA,Yes,NA,35.82679069,-78.68462836
Green Road Park,"4201 Green Rd, Raleigh NC",NA,Yes,https://raleighnc.gov/places/green-road-park,Yes,NA,NA,Yes,Yes,Yes,NA,NA,Yes,NA,35.84037483,-78.59079779
Greenbrier Park,"613 Winterlochen Road, Garner NC, 27529",NA,No,http://www.garnernc.gov/Departments/Parks%20and%20Recreation/Parks.aspx?ID=17,Yes,NA,NA,Yes,NA,NA,NA,NA,Yes,NA,35.71923998,-78.64862917
Greystone Recreation Center,"7713-55 Leadmine Rd, Raleigh, NC",NA,Yes,https://raleighnc.gov/places/greystone-recreation-center,Yes,NA,NA,NA,NA,NA,NA,NA,NA,NA,35.88480431,-78.65985701
Halifax Park,"1015 Halifax St, Raleigh, NC",NA,Yes,https://raleighnc.gov/places/halifax-park,Yes,NA,NA,NA,NA,NA,NA,NA,NA,NA,35.79297809,-78.63836328
Harper Park,"207 Main St, Knightdale, NC",NA,Yes,http://www.knightdalenc.gov/index.aspx?page=351,Yes,NA,NA,Yes,NA,NA,NA,NA,Yes,NA,35.79014067,-78.48180509
Heater Park,"400 S West Street, Cary, NC",NA,No,http://www.towfcary.org/Departments/Parks__Recreation___Cultural_Resources/Parks_and_Greenways/Parks/Heater_Park.htm,Yes,NA,NA,NA,NA,NA,NA,NA,NA,NA,35.78230443,-78.78593915
Hertford Village Park,"205 Blanchard St, Raleigh, NC",NA,No,https://raleighnc.gov/places/hertford-village-park,Yes,NA,NA,NA,NA,NA,NA,NA,NA,NA,35.74409457,-78.64286721
Hill Street Park,"2307 Hill St, Raleigh, NC",NA,No,https://raleighnc.gov/places/hill-street-park,Yes,NA,NA,NA,NA,NA,NA,NA,Yes,NA,35.81172611,-78.58833419
Holding Park,"133 W Owen Ave, Wake Forest, NC",NA,No,http://www.wakeforestnc.gov/holding-park.aspx,Yes,NA,NA,Yes,NA,Yes,NA,NA,Yes,NA,35.97784035,-78.51298343
Honeycutt Park,"1032 Clear Creek Farm Rd, Raleigh, NC",NA,Yes,https://raleighnc.gov/places/honeycutt-park,Yes,NA,NA,NA,Yes,Yes,NA,NA,Yes,NA,35.90401368,-78.62612048
Indian Creek Greenway and Trailhead,"101 Town Hall Drive, Morrisville NC",NA,Yes,http://www.towfmorrisville.org/government/departments-services/parks-recreation-cultural-resources/parks-and-greenways/indian-creek-greenway-and-trailhead,Yes,NA,NA,NA,NA,NA,NA,NA,Yes,NA,35.82156945,-78.82837391
Isabella Cann Park,"2601 Kilgore Ave, Raleigh, NC",NA,Yes,https://raleighnc.gov/places/isabella-cann-park,Yes,NA,NA,NA,NA,Yes,NA,NA,Yes,NA,35.79265547,-78.66733052
Jack Smith Park,"9725 Penny Road, Cary, NC",NA,Yes,http://www.towfcary.org/recreation-enjoyment/parks-greenways-environment/parks/jack-smith-park,Yes,NA,NA,NA,NA,NA,NA,Yes,Yes,NA,35.71151985,-78.76501131
James A. Campbell Park,"115 West Jones Street, Fuquay-Vari, NC",NA,Yes,http://www.fuquay-vari.org/departments-and-services/parks-recreation-and-cultural-resources/parks/west-jones-street-park.html,Yes,NA,NA,NA,NA,NA,NA,NA,Yes,NA,35.58670726,-78.79961608
Jaycee Park,"2405 Wade Ave, Raleigh, NC",NA,No,https://raleighnc.gov/places/jaycee-park,Yes,NA,NA,Yes,Yes,Yes,NA,NA,Yes,NA,35.80038762,-78.66327991
John Chavis Memorial Park,"505 Martin Luther King Jr Blvd, Raleigh, NC",NA,No,https://raleighnc.gov/places/john-chavis-memorial-park,Yes,NA,NA,Yes,NA,Yes,NA,NA,Yes,NA,35.76812924,-78.63005197
Junious N. Sorrell Park,"416 E Lee St, Raleigh, NC",NA,No,https://raleighnc.gov/places/junious-n-sorrell-park,Yes,NA,NA,NA,NA,NA,NA,NA,NA,NA,35.76690748,-78.63371804
Kelly Glen Park,"1701 Kelly Glen Ln., Apex, NC",NA,No,https://www.apexnc.org/796/Neighborhood-Parks,Yes,NA,NA,NA,NA,NA,NA,NA,Yes,NA,35.72903279,-78.89299492
Kelly Road Park,"1609 Kelly Rd., Apex, NC",NA,No,https://www.apexnc.org/799/Kelly-Road-Park,Yes,NA,NA,Yes,NA,Yes,NA,NA,Yes,NA,35.73253185,-78.89550213
Kentwood Park,"4531 Kaplan Dr, Raleigh, NC",NA,Yes,https://raleighnc.gov/places/kentwood-park,Yes,NA,NA,Yes,NA,Yes,Yes,NA,Yes,NA,35.7768682,-78.69618417
Kingwood Forest Park,"2610 Evers Dr, Raleigh, NC",NA,No,https://raleighnc.gov/places/kingwood-forest-park,Yes,NA,NA,NA,NA,NA,NA,NA,Yes,NA,35.74460449,-78.61784556
Knightdale Station Park,"810 rth First Avenue, Knightdale, NC",NA,No,http://www.knightdalenc.gov/index.aspx?page=562,Yes,NA,NA,NA,NA,Yes,NA,Yes,Yes,NA,35.79748483,-78.47512046
Lake Benson Park,"921 Buffaloe Road, Garner NC, 27529",NA,Yes,http://www.garnernc.gov/Departments/Parks%20and%20Recreation/Parks.aspx?ID=13,Yes,NA,NA,NA,NA,NA,NA,Yes,Yes,NA,35.67459026,-78.62918152
Lake Crabtree County Park,"1400 Aviation Pkwy., Morrisville, NC  27560",NA,Yes,https://www.wakegov.com/departments-government/parks-recreation-and-open-space/all-parks-trails/lake-crabtree-county-park,Yes,NA,NA,NA,Yes,NA,NA,NA,Yes,NA,35.84521882,-78.80136913
Lake Lynn Park - Lynn Rd Entrance,"7921 Ray Rd, Raleigh, NC",NA,No,https://raleighnc.gov/places/lake-lynn-park,Yes,NA,NA,Yes,NA,Yes,NA,NA,NA,NA,35.88989466,-78.69725594
Lake Lynn Park - Ray Rd Entrance,"7921 Ray Rd, Raleigh, NC",NA,No,https://raleighnc.gov/places/lake-lynn-park,Yes,NA,NA,Yes,NA,Yes,NA,NA,NA,NA,35.88989466,-78.69725594
Lake Wheeler Park,"6404 Lake Wheeler Rd, Raleigh, NC",NA,Yes,https://raleighnc.gov/places/lake-wheeler-park,Yes,NA,NA,NA,Yes,NA,NA,NA,Yes,NA,35.69482142,-78.69341224
LeVelle Moton Park,"920 E Lane St, Raleigh, NC",NA,No,https://raleighnc.gov/places/levelle-moton-park,Yes,NA,NA,NA,NA,NA,NA,NA,NA,NA,35.78340891,-78.62712793
Laurel Hills Park,"3808 Edwards Mill Rd, Raleigh, NC",NA,Yes,https://raleighnc.gov/places/laurel-hills-park,Yes,NA,NA,NA,NA,Yes,NA,NA,Yes,NA,35.83081559,-78.70037993
Library Park,"116 South Aiken Street, Fuquay-Vari, NC",NA,No,http://www.fuquay-vari.org/departments-and-services/parks-recreation-and-cultural-resources/parks/library-park.html,Yes,NA,NA,NA,NA,NA,NA,NA,Yes,NA,35.5840291,-78.79708831
Lion's Park,"815 Tanglewood Drive, Cary, NC",NA,Yes,http://www.towfcary.org/Departments/Parks__Recreation___Cultural_Resources/Parks_and_Greenways/Parks/Lions_Park.htm,Yes,NA,NA,NA,NA,Yes,NA,NA,NA,NA,35.7754089,-78.76867126
Lions Park,"516 Dennis Ave, Raleigh, NC",NA,No,https://raleighnc.gov/places/lions-park,Yes,NA,NA,Yes,NA,Yes,NA,NA,Yes,NA,35.79845865,-78.61579212
Lockwood Park,"1000 Crabtree Blvd, Raleigh, NC",NA,No,https://raleighnc.gov/places/lockwood-park,Yes,NA,NA,NA,NA,NA,NA,NA,NA,NA,35.7923313,-78.59646457
Longstreet Park,"7334 Stuart Dr, Raleigh, NC",NA,No,https://raleighnc.gov/places/longstreet-park,Yes,NA,NA,NA,NA,NA,NA,NA,NA,NA,35.87578324,-78.65119016
Marla Dorrel Park,"111 Thurston Drive, Cary, NC",NA,Yes,http://www.kidstogethercary.org/,Yes,NA,NA,NA,NA,NA,NA,NA,Yes,NA,35.74547973,-78.76351329
Marsh Creek Park,"3016 New Hope Rd, Raleigh, NC",NA,Yes,https://raleighnc.gov/places/marsh-creek-park,Yes,NA,NA,NA,NA,Yes,NA,NA,Yes,NA,35.82263592,-78.5691216
Mary Belle Pate Park,"2640 Sierra Drive, Raleigh, NC",NA,No,https://raleighnc.gov/places/mary-belle-pate-park,Yes,NA,NA,NA,NA,NA,NA,NA,NA,NA,35.7521612,-78.67865968
Method Community Park,"514 Method Rd, Raleigh, NC",NA,No,https://raleighnc.gov/places/method-community-park,Yes,NA,NA,Yes,NA,Yes,NA,NA,Yes,NA,35.79310195,-78.69374403
Millbrook Exchange Park,"1815 Spring Forest Rd, Raleigh, NC",NA,No,https://raleighnc.gov/places/millbrook-exchange-park,Yes,NA,NA,Yes,NA,Yes,NA,Yes,Yes,NA,35.86660849,-78.60812633
Mills Park,"425 Mills Park Drive, Cary, NC",NA,Yes,http://www.towfcary.org/recreation-enjoyment/parks-greenways-environment/parks/mills-school-park,Yes,NA,NA,NA,NA,Yes,NA,NA,NA,NA,35.81273522,-78.90266086
Morrisville Community Park,"1520 Morrisville Parkway, Morrisville NC",NA,Yes,http://www.towfmorrisville.org/government/departments-services/parks-recreation-cultural-resources/parks-and-greenways/morrisville-community-park,Yes,NA,NA,NA,NA,Yes,NA,NA,Yes,NA,35.81200273,-78.84487305
rth Hills Park,"100 Chowan Cir, Raleigh, NC",NA,Yes,https://raleighnc.gov/places/rth-hills-park,Yes,NA,NA,Yes,NA,Yes,NA,NA,Yes,NA,35.84029132,-78.6558581
Oakwood Commons Park,"535 N East St, Raleigh, NC",NA,No,https://raleighnc.gov/places/oakwood-commons-park,Yes,NA,NA,NA,NA,NA,NA,NA,NA,NA,35.78742491,-78.63193902
Optimist Park,"5900 Whittier Dr, Raleigh, NC",NA,Yes,https://raleighnc.gov/places/optimist-park,Yes,NA,NA,Yes,NA,Yes,NA,NA,NA,NA,35.86255617,-78.64358808
Peach Road Park,"911 Ileagnes Rd, Raleigh, NC",NA,No,https://raleighnc.gov/places/peach-road-park,Yes,NA,NA,NA,NA,NA,NA,NA,NA,NA,35.74406072,-78.65419072
Plummer Park,"965 Jones Wynd, Wake Forest, NC",NA,No,http://www.wakeforestnc.gov/plummer-park.aspx,Yes,NA,NA,NA,NA,NA,NA,NA,Yes,NA,35.96963163,-78.54829762
Pollock Place Park,"3301 Pollock Pl, Raleigh, NC",NA,No,https://raleighnc.gov/places/pollock-place-park,Yes,NA,NA,NA,NA,NA,NA,NA,NA,NA,35.79515328,-78.6794381
Powell Drive Park,"740 Powell Dr, Raleigh, NC",NA,No,https://raleighnc.gov/places/powell-drive-park,Yes,NA,NA,Yes,NA,NA,NA,NA,Yes,NA,35.78094853,-78.71289096
Pullen Park,"410 Park Ave, Raleigh, NC",NA,Yes,https://raleighnc.gov/places/pullen-park,Yes,NA,NA,Yes,NA,NA,NA,NA,Yes,NA,35.78605983,-78.65292499
Quarry Street Park,"731 Quarry St, Raleigh, NC",NA,No,https://raleighnc.gov/places/quarry-street-park,Yes,NA,NA,NA,NA,NA,NA,NA,NA,NA,35.76909989,-78.62339621
Roake Park,"1500 Cherokee Dr, Raleigh, NC",NA,No,https://raleighnc.gov/places/roake-park,Yes,NA,NA,NA,Yes,NA,NA,NA,Yes,NA,35.80055232,-78.64017902
Roberts Park,"1300 E Martin St, Raleigh, NC",NA,No,https://raleighnc.gov/places/roberts-park,Yes,NA,NA,Yes,NA,Yes,NA,NA,Yes,NA,35.77617532,-78.61948373
Rolesville Main Street Park,"200 South Main St, Rolesville, NC",NA,No,http://rolesvillenc.gov/town-departments/parks-recreation/parks-facilities/,Yes,NA,NA,NA,NA,NA,NA,NA,Yes,NA,35.92135057,-78.46022042
Rose Street Park,"110 Rose Street, Cary, NC",NA,No,http://www.towfcary.org/Departments/Parks__Recreation___Cultural_Resources/Parks_and_Greenways/Parks/Rose_Street_Park.htm,Yes,NA,NA,NA,NA,NA,NA,NA,NA,NA,35.77319429,-78.78429691
Salem Pond Park,"6112 Old Jenks Rd, Apex, NC",NA,No,https://www.apexnc.org/1251/Salem-Pond-Park,Yes,NA,NA,NA,NA,NA,NA,NA,Yes,NA,35.75369335,-78.8494419
Sanderford Road Park,"2623 Sanderford Rd, Raleigh, NC",NA,No,https://raleighnc.gov/places/sanderford-road-park,Yes,NA,NA,Yes,NA,Yes,NA,NA,Yes,NA,35.74344708,-78.6139055
Seagroves Farm Park,"201 Parkfield Dr., Apex, NC",NA,Yes,https://www.apexnc.org/796/Neighborhood-Parks,Yes,NA,NA,NA,NA,NA,NA,NA,Yes,NA,35.72794488,-78.82836711
Sears Farm Road Park,"5077 Sears Farm Road, Cary, NC",NA,Yes,http://www.towfcary.org/recreation-enjoyment/parks-greenways-environment/parks/sears-farm-road-park,Yes,NA,NA,NA,NA,NA,NA,NA,Yes,NA,35.79775942,-78.88296788
Sertoma Arts Center,"1400 W Millbrook Rd, Raleigh, NC",NA,Yes,https://raleighnc.gov/places/sertoma-arts-center,Yes,NA,NA,NA,NA,NA,NA,NA,NA,NA,35.85773822,-78.66627285
Shiloh Park/Luther Green Center,"922 Church Street, Morrisville NC",NA,Yes,http://www.towfmorrisville.org/government/departments-services/parks-recreation-cultural-resources/parks-and-greenways/shiloh-park-luther-green-center,Yes,NA,NA,NA,NA,Yes,NA,NA,Yes,NA,35.84905577,-78.84235246
South Garner Park,"1210 Poole Drive, Garner NC, 27529",NA,Yes,http://www.garnernc.gov/Departments/Parks%20and%20Recreation/Parks.aspx?ID=24,Yes,NA,NA,Yes,NA,Yes,NA,NA,NA,NA,35.69371118,-78.62425977
South Park,"900 South Main Street, Fuquay-Vari, NC",NA,Yes,http://www.fuquay-vari.org/departments-and-services/parks-recreation-and-cultural-resources/parks/south-park.html,Yes,NA,NA,NA,NA,Yes,NA,NA,Yes,NA,35.57203792,-78.8006726
Spring Forest Road Park,"4203 Spring Forest Rd, Raleigh, NC",NA,No,https://raleighnc.gov/places/spring-forest-road-park,Yes,NA,NA,Yes,NA,Yes,NA,NA,Yes,NA,35.85614061,-78.57169953
Spring Park,"1422 Collegeview Ave, Raleigh, NC",NA,No,https://raleighnc.gov/places/spring-park,Yes,NA,NA,NA,NA,NA,NA,NA,Yes,NA,35.77886701,-78.68488482
Strickland Road Neighborhood Park,"12804 Strickland Rd, Raleigh, NC",NA,No,https://raleighnc.gov/places/strickland-road-neighborhood-park,Yes,NA,NA,NA,NA,NA,NA,NA,NA,NA,35.90772369,-78.7135288
Tarboro Road Park,"121 N Tarboro St, Raleigh, NC",NA,No,https://raleighnc.gov/places/tarboro-road-park,Yes,NA,NA,Yes,NA,NA,NA,NA,Yes,NA,35.78166705,-78.62228772
Taylor Street Park,"416 N Taylor St, Wake Forest, NC",NA,Yes,http://www.wakeforestnc.gov/residents-parksrecreation_facilities_taylor.aspx,Yes,NA,NA,NA,NA,NA,NA,NA,Yes,NA,35.98270419,-78.50428047
Thomas E. Brooks Park,"9008 Green Level Church Road, Cary, NC",NA,Yes,http://www.towfcary.org/recreation-enjoyment/parks-greenways-environment/parks/thomas-brooks-park,Yes,NA,NA,NA,NA,NA,NA,NA,Yes,NA,35.79555016,-78.90018127
Tyler Run Park,"830 Pineview Dr, Wake Forest, NC",NA,No,http://www.wakeforestnc.gov/tyler-run-park.aspx,Yes,NA,NA,NA,NA,Yes,NA,NA,Yes,NA,35.97162929,-78.52117058
Urban Park,"414 E Chatham Street, Cary, NC",NA,No,http://www.towfcary.org/recreation-enjoyment/parks-greenways-environment/parks/urban-park,Yes,NA,NA,NA,NA,NA,NA,NA,NA,NA,35.7890052,-78.77315778
Wake Forest Kiwanis Park,"404 E Holding Ave, Wake Forest, NC",NA,No,http://www.wakeforestnc.gov/kiwanis-park.aspx,Yes,NA,NA,NA,NA,NA,NA,NA,Yes,NA,35.96981596,-78.50972106
Walnut Street Park,"1420 Walnut Street, Cary, NC",NA,Yes,http://www.towfcary.org/Departments/Parks__Recreation___Cultural_Resources/Parks_and_Greenways/Parks/Walnut_Street_Park.htm,Yes,NA,NA,NA,NA,NA,NA,NA,Yes,NA,35.7656982,-78.75472947
Wendell Park,"601 W. Third Street, Wendell, NC",NA,Yes,http://www.towfwendell.com/departments/parks-and-recreation,Yes,NA,NA,Yes,NA,Yes,Yes,Yes,Yes,NA,35.78054637,-78.36102902
West Street Park,"108 West St., Apex, NC",NA,No,https://www.apexnc.org/796/Neighborhood-Parks,Yes,NA,NA,NA,NA,NA,NA,NA,Yes,NA,35.72542145,-78.85559697
White Deer Park,"2400 Aversboro Road, Garner NC, 27529",NA,Yes,http://www.garnernc.gov/Departments/Parks%20and%20Recreation/Parks.aspx?ID=25,Yes,NA,NA,NA,NA,NA,NA,NA,Yes,NA,35.67830088,-78.62387514
Whitley Park,"601 N Wakefield St, Zebulon, NC",NA,No,https://www.towfzebulon.org/services/parks-and-recreation/parks-facilities,Yes,NA,NA,Yes,NA,NA,NA,NA,Yes,NA,35.82462205,-78.32046996
Peter Williams Park,"1525 Lynn Rd, Raleigh, NC",NA,No,https://raleighnc.gov/places/peter-williams-park,Yes,NA,NA,Yes,Yes,NA,NA,NA,Yes,NA,35.8708713,-78.66536397
Wooten Meadows Park,"2801 West Millbrook Rd, Raleigh, NC",NA,No,https://raleighnc.gov/places/wooten-meadow-park,Yes,NA,NA,NA,NA,NA,NA,NA,NA,NA,35.84951134,-78.58644723
Worthdale Park,"1001 Cooper Rd, Raleigh, NC",NA,Yes,https://raleighnc.gov/places/worthdale-park,Yes,NA,NA,Yes,NA,Yes,NA,NA,NA,NA,35.7636738,-78.58743996
Five Points Park,"200 FRENCH ST CHARLOTTE, NC 28216",Neighborhood,No,https://www.mecknc.gov/parkandrec/pages/home.aspx?redirect=charmeck,Yes,NA,Yes,Yes,NA,NA,NA,NA,Yes,NA,35.248809,-80.8596975
Revolution Park,"2425 REVOLUTION PARK DR CHARLOTTE, NC 28208",Community,Yes,https://www.mecknc.gov/parkandrec/pages/home.aspx?redirect=charmeck,Yes,NA,NA,NA,NA,Yes,NA,NA,NA,NA,35.21592519,-80.8748912
Jack Hughes Park,"330 JACK HUGHES LN PINEVILLE, NC 28134",Town Park,Yes,http://www.pinevillenc.gov/Departments/ParksRecreaton/tabid/103/Default.aspx,Yes,NA,NA,NA,NA,Yes,NA,NA,Yes,NA,35.0852439,-80.89474054
Rosedale Nature Park,"9519 ROSEWOOD MEADOW LN HUNTERSVILLE, NC 28078",Town Park,No,https://www.huntersville.org/162/Parks-Recreation,Yes,NA,NA,NA,NA,NA,NA,Yes,NA,NA,35.40913718,-80.86382715
Abernathy Park,"205 GLENDALE DR HUNTERSVILLE, NC 28078",Town Park,Yes,https://www.huntersville.org/162/Parks-Recreation,Yes,NA,Yes,NA,NA,Yes,NA,NA,NA,NA,35.41846495,-80.8377685
Hartsell Park and Rec Center - City of Concord,"60 Hartsell School Rd Concord, NC",Municipal Park,Yes,http://www.concordnc.gov/Departments/Parks-Recreation/Facilities,Yes,NA,Yes,NA,NA,Yes,NA,NA,Yes,NA,35.39144589,-80.5919547
Les Myers Park - City of Concord,"338 Lawndale Ave SE Concord, NC",Municipal Park,Yes,http://www.concordnc.gov/Departments/Parks-Recreation/Facilities,Yes,NA,Yes,Yes,NA,Yes,NA,NA,Yes,NA,35.39498324,-80.56323614
Hartsell Park and Rec Center - City of Concord,"60 Hartsell School Rd Concord, NC",Municipal Park,Yes,http://www.concordnc.gov/Departments/Parks-Recreation/Facilities,Yes,NA,Yes,NA,NA,Yes,NA,NA,Yes,NA,35.39144589,-80.5919547
Les Myers Park - City of Concord,"338 Lawndale Ave SE Concord, NC",Municipal Park,Yes,http://www.concordnc.gov/Departments/Parks-Recreation/Facilities,Yes,NA,Yes,Yes,NA,Yes,NA,NA,Yes,NA,35.39498324,-80.56323614
Spruce Pine Lodge,"2235 Bahama Rd, Durham NC",Park,Yes,https://www.dprplaymore.org/Facilities/Facility/Details/Spruce-Pine-Lodge-69,Yes,NA,NA,NA,NA,NA,NA,NA,Yes,NA,36.17067951,-78.86585431
Anderson Point Park,"20 Anderson Point Dr, Raleigh, NC",NA,Yes,https://raleighnc.gov/places/anderson-point-park,Yes,NA,NA,NA,NA,NA,NA,NA,Yes,NA,35.77324005,-78.54288475
Apex Community Park,"2200 Laura Duncan Rd., Apex, NC",NA,Yes,http://www.apexnc.org/795/Apex-Community-Park,Yes,NA,NA,Yes,Yes,Yes,NA,NA,Yes,NA,35.73577828,-78.84306552
Apex ture Park (Seymour Athletic Fields),"2500 Evans Road, Apex NC",NA,Yes,https://www.apexnc.org/800/ture-Park-Seymour-Athletic-Fields,Yes,NA,NA,Yes,Yes,NA,NA,NA,Yes,NA,35.70128275,-78.90636105
Carpenter Park,"4420 Louis Stephens Drive, Cary, NC",NA,Yes,http://www.towfcary.org/recreation-enjoyment/parks-greenways-environment/parks/carpenter-park,Yes,NA,NA,Yes,NA,NA,NA,NA,Yes,NA,35.80912805,-78.86181208
Church Street Park,"5800 Cricket Pitch Way, Morrisville NC",NA,Yes,http://www.towfmorrisville.org/government/departments-services/parks-recreation-cultural-resources/parks-and-greenways/church-street-park,Yes,NA,NA,Yes,NA,NA,NA,NA,Yes,NA,35.84639082,-78.84275028
Crowder County Park,"4709 Ten Ten Road, Wake County NC",NA,Yes,https://www.wakegov.com/departments-government/parks-recreation-and-open-space/all-parks-trails/crowder-county-park,Yes,NA,NA,NA,Yes,NA,NA,NA,Yes,NA,35.69132408,-78.76536151
Elevate Fitness Course,"2200 Laura Duncan Road, Apex NC",NA,Yes,http://www.apexnc.org/1187/Elevate-Fitness-Course,Yes,NA,NA,Yes,NA,NA,NA,NA,Yes,NA,35.73577828,-78.84306552
Green Hills County Park,"9300 Deponie Dr., Raleigh, NC  27614",NA,Yes,https://www.wakegov.com/departments-government/parks-recreation-open-space/all-parks-trails/green-hills-county-park,Yes,NA,NA,NA,NA,NA,NA,NA,Yes,NA,35.90445102,-78.58430529
Hunter Street Park,"1250 Ambergate Station, Apex, NC",NA,Yes,https://www.apexnc.org/798/Hunter-Street-Park,Yes,NA,NA,NA,NA,Yes,NA,Yes,Yes,NA,35.73798268,-78.84676554
Leesville Park,"8000 Hilburn Dr, Raleigh, NC",NA,Yes,https://raleighnc.gov/places/leesville-community-park,Yes,NA,NA,NA,NA,NA,NA,NA,NA,NA,35.86612165,-78.71697345
Mordecai Mini Park,"1122 rth Blount St, Raleigh, NC",NA,No,https://raleighnc.gov/places/mordecai-mini-park,Yes,NA,NA,NA,NA,NA,NA,NA,NA,NA,35.7857216,-78.63575659
rthwest Park,"998 Parkside Valley Drive,  Morrisville NC",NA,Yes,http://www.towfmorrisville.org/government/departments-services/parks-recreation-cultural-resources/parks-and-greenways/rthwest-park,Yes,NA,NA,NA,NA,NA,NA,NA,Yes,NA,35.84055408,-78.86011642
Parrish Womble Park,"1201 Grigsby Ave., Holly Springs, NC",NA,Yes,http://www.hollyspringsnc.us/index.aspx?NID=332,Yes,NA,NA,NA,NA,Yes,NA,NA,Yes,NA,35.64191951,-78.83062098
Rand Mill Park,"508 Rand Mill Road, Garner NC, 27529",NA,Yes,http://www.garnernc.gov/Departments/Parks%20and%20Recreation/Parks.aspx?ID=23,Yes,NA,NA,NA,NA,Yes,NA,NA,Yes,NA,35.69974644,-78.60514537
Smith Creek Soccer Center,"690 Heritage Lake Rd, Wake Forest, NC",NA,No,http://www.wakeforestnc.gov/smith-creek-soccer-center.aspx,Yes,NA,NA,NA,NA,NA,NA,NA,Yes,NA,35.95970606,-78.50092018
Veterans Park,"600 Bikram Dr., Holly Springs, NC",NA,No,http://www.hollyspringsnc.us/index.aspx?NID=336,Yes,NA,NA,NA,NA,NA,NA,NA,Yes,NA,35.66389156,-78.82835508
White Oak Park,"1216 Jenks Carpenter Road, Cary, NC",NA,Yes,http://www.towfcary.org/Departments/Parks__Recreation___Cultural_Resources/Parks_and_Greenways/Parks/White_Oak_Park.htm,Yes,NA,NA,NA,NA,NA,NA,NA,Yes,NA,35.78803748,-78.85686579
River Bend Park,"5610 Wallace Martin Way Raleigh, NC 27616",NA,No,https://raleighnc.gov/places/river-bend-park,Yes,NA,NA,NA,NA,NA,NA,NA,NA,NA,35.85982549,-78.53213403
Harris Lake County Park,"2112 County Park Dr., New Hill, NC  27562",NA,Yes,https://www.wakegov.com/departments-government/parks-recreation-and-open-space/all-parks-trails/harris-lake-county-park,Yes,NA,NA,NA,NA,NA,Yes,NA,Yes,NA,35.631378,-78.921194
Merrick Moore Park,"632 N Hoover Rd, Durham, NC 27703",Park,No,NA,Yes,Yes,NA,NA,NA,NA,NA,NA,NA,NA,36.002613,-78.859086
Duke Park,"106 W Kx St,Durham  NC",Park,Yes,https://www.dprplaymore.org/Facilities/Facility/Details/Duke-Park-17,Yes,NA,NA,Yes,NA,NA,NA,Yes,Yes,NA,36.013213,-78.893372
Sue Helton Park,"201 Matney Ln., Apex, NC",NA,No,https://www.apexnc.org/796/Neighborhood-Parks,Yes,NA,NA,NA,NA,NA,NA,NA,Yes,NA,35.720307,-78.849308
Falls Lake State Recreation Area - Holly Point Entrance,14424 New Light Rd. Wake Forest NC,NA,Yes,https://www.ncparks.gov/falls-lake-state-recreation-area,Yes,NA,NA,NA,NA,NA,NA,NA,Yes,NA,36.022958,-78.699433
Apollo Heights Park,"756 Lur Dr, Raleigh, NC",NA,No,https://raleighnc.gov/places/apollo-heights-park,Yes,NA,NA,NA,NA,NA,NA,NA,Yes,NA,35.76490479,-78.60924111
Kiwanis Park,"2525 ble Rd, Raleigh, NC",NA,No,https://raleighnc.gov/places/kiwanis-park,Yes,NA,NA,NA,Yes,NA,NA,NA,Yes,NA,35.81717867,-78.6317753
Page-Walker Arts & History Center,"316 rth Academy Street, Cary, NC",NA,No,http://www.towfcary.org/Departments/Parks__Recreation___Cultural_Resources/Facilities/Cultural_Arts_Centers/Page-Walker_Arts___History_Center.htm,Yes,NA,NA,NA,NA,NA,NA,NA,NA,NA,35.789595,-78.78062
rth Cary Park,"1100 rwell Boulevard, Cary, NC",NA,Yes,http://www.towfcary.org/recreation-enjoyment/parks-greenways-environment/parks/rth-cary-park,Yes,NA,NA,NA,Yes,NA,NA,NA,Yes,NA,35.82139,-78.787315
Robert V. Godbold Park,"2050 NW Mayrd Road, Cary, NC",NA,Yes,http://www.towfcary.org/recreation-enjoyment/parks-greenways-environment/parks/robert-v-godbold-park,Yes,NA,NA,Yes,NA,NA,NA,Yes,NA,NA,35.80056,-78.790735
Leir Street Park,"626 W Leir St, Raleigh, NC",NA,No,https://raleighnc.gov/places/leir-street-park,Yes,NA,NA,NA,NA,NA,NA,NA,NA,NA,35.77344654,-78.64875439
Forest Ridge Park,"2100 Old NC Hwy 98, Wake Forest, NC",NA,Yes,https://raleighnc.gov/places/forest-ridge-park,Yes,NA,NA,NA,NA,NA,NA,NA,Yes,NA,35.965928,-78.583156
Windemere Beaver Dam Park,"1500 ttingham Rd, Raleigh, NC",NA,No,https://raleighnc.gov/places/windemere-beaver-dam-park,Yes,NA,NA,NA,NA,NA,NA,NA,NA,NA,35.80732322,-78.6738197
Plum Creek Park,"18928 BARTLETTE CREEK DR DAVIDSON, NC 28036",Town Park,No,https://www.ci.davidson.nc.us/130/Parks-Recreation,Yes,NA,Yes,Yes,NA,NA,NA,NA,NA,NA,35.474032,-80.823527
Action Park,"609 Wake Chapel Road, Fuquay-Vari, NC",NA,Yes,http://www.fuquay-vari.org/departments-and-services/parks-recreation-and-cultural-resources/parks/action-park-description.html,Yes,NA,NA,Yes,NA,Yes,NA,NA,NA,NA,35.591424,-78.801715
Alston Ridge Park,"6850 Hilltop-Needmore Road, Fuquay-Vari, NC",NA,No,http://www.fuquay-vari.org/departments-and-services/parks-recreation-and-cultural-resources/parks/alston-ridge-park.html,Yes,NA,NA,NA,NA,NA,NA,NA,Yes,NA,35.627916,-78.77952
Brentwood Park,"3315 Vinson Ct, Raleigh, NC",NA,No,https://raleighnc.gov/places/brentwood-park,Yes,NA,NA,Yes,NA,Yes,NA,NA,Yes,NA,35.82849982,-78.59954789
Centennial Park,"1015 New Bethel Church Road, Garner NC, 27529",NA,Yes,http://www.garnernc.gov/Departments/Parks%20and%20Recreation/Parks.aspx?ID=1,Yes,NA,NA,NA,NA,Yes,NA,NA,Yes,NA,35.669359,-78.6046
Honeycutt Road Park,"101 Fitness Drive, Fuquay-Vari, NC",NA,Yes,http://www.fuquay-vari.org/departments-and-services/parks-recreation-and-cultural-resources/parks/honeycutt-road-park.html,Yes,NA,NA,Yes,NA,NA,NA,NA,Yes,NA,35.581754,-78.762361
Southgate Park,"1801 Proctor Rd, Raleigh, NC",NA,No,https://raleighnc.gov/places/southgate-park,Yes,NA,NA,NA,Yes,Yes,NA,NA,Yes,NA,35.75511244,-78.60782548